"Zone","ParentZone","Locality","State","Postcode","CountryCode","RemoteArea","RemoteAreaFees1","RemoteAreaFees2"
"BUSSELTON","BUSSELTON","ABBA RIVER","WA","6280","AU","False","",""
"BUSSELTON","BUSSELTON","ABBEY","WA","6280","AU","False","",""
"BUSSELTON","BUSSELTON","ACTON PARK","WA","6280","AU","False","",""
"METRO","METRO","AIRPORT DOMESTIC","WA","6105","AU","False","",""
"METRO","METRO","AIRPORT INT.","WA","6105","AU","False","",""
"ALBANY","ALBANY","ALBANY","WA","6330","AU","False","",""
"METRO","METRO","ALEXANDER HEIGHTS","WA","6064","AU","False","",""
"METRO","METRO","ALFRED COVE","WA","6154","AU","False","",""
"METRO","METRO","ALINJARRA ","WA","6064","AU","False","",""
"OUTER METRO","OUTER METRO","ALKIMOS","WA","6038","AU","False","",""
"BUNBURY OUTER","BUNBURY OUTER","ALLANSON","WA","6225","AU","False","",""
"BUSSELTON","BUSSELTON","AMBERGATE","WA","6280","AU","False","",""
"METRO","METRO","ANKETELL","WA","6167","AU","False","",""
"BUSSELTON","BUSSELTON","ANNIEBROOK","WA","6280","AU","False","",""
"ROEBURNE/POINT SAMSON","ROEBURNE/POINT SAMSON","ANTONYMYRE","WA","6714","AU","False","",""
"METRO","METRO","APPLECROSS","WA","6153","AU","False","",""
"METRO","METRO","ARDROSS","WA","6153","AU","False","",""
"BUNBURY OUTER","BUNBURY OUTER","ARGYLE","WA","6239","AU","False","",""
"METRO","METRO","ARMADALE","WA","6112","AU","False","",""
"SOUTH-WEST 1","SOUTH-WEST 1","ARTHUR RIVER","WA","6315","AU","False","",""
"METRO","METRO","ASCOT","WA","6104","AU","False","",""
"METRO","METRO","ASHBY","WA","6065","AU","False","",""
"METRO","METRO","ASHFIELD","WA","6054","AU","False","",""
"METRO","METRO","ATTADALE","WA","6156","AU","False","",""
"METRO","METRO","ATWELL","WA","6164","AU","False","",""
"METRO","METRO","AUBIN GROVE","WA","6164","AU","False","",""
"SOUTH-WEST 2","SOUTH-WEST 2","AUGUSTA","WA","6290","AU","False","",""
"BUNBURY","BUNBURY","AUSTRALIND","WA","6233","AU","False","",""
"METRO","METRO","AVELEY","WA","6069","AU","False","",""
"NORTHAM","NORTHAM","BAKERS HILL","WA","6562","AU","False","",""
"METRO","METRO","BALCATTA","WA","6021","AU","False","",""
"OUTER METRO","OUTER METRO","BALDIVIS","WA","6171","AU","False","",""
"METRO","METRO","BALGA","WA","6061","AU","False","",""
"BRIDGETOWN","BRIDGETOWN","BALINGUP","WA","6253","AU","False","",""
"WHEATBELT MID1","WHEATBELT MID1","BALLADONG","WA","6302","AU","False","",""
"METRO","METRO","BALLAJURA","WA","6066","AU","False","",""
"METRO","METRO","BANJUP","WA","6164","AU","False","",""
"METRO","METRO","BANKSIA GROVE","WA","6031","AU","False","",""
"MANDURAH","MANDURAH","BARRAGUP","WA","6210","AU","False","",""
"METRO","METRO","BASKERVILLE","WA","6056","AU","False","",""
"METRO","METRO","BASSENDEAN","WA","6054","AU","False","",""
"METRO","METRO","BASSENDEAN DC","WA","6054","AU","False","",""
"METRO","METRO","BATEMAN","WA","6150","AU","False","",""
"KARRATHA","KARRATHA","BAYNTON","WA","6714","AU","False","",""
"ALBANY","ALBANY","BAYONET HEAD","WA","6330","AU","False","",""
"METRO","METRO","BAYSWATER","WA","6053","AU","False","",""
"GERALDTON","GERALDTON","BEACHLANDS","WA","6530","AU","False","",""
"METRO","METRO","BEACONSFIELD","WA","6162","AU","False","",""
"SOUTH-WEST 1","SOUTH-WEST 1","BEAUFORT RIVER","WA","6394","AU","False","",""
"METRO","METRO","BEAUMARIS","WA","6027","AU","False","",""
"METRO","METRO","BECKENHAM","WA","6107","AU","False","",""
"METRO","METRO","BEDFORD","WA","6052","AU","False","",""
"OUTER METRO","OUTER METRO","BEDFORDALE","WA","6112","AU","False","",""
"METRO","METRO","BEECHBORO","WA","6063","AU","False","",""
"NORTHAM","NORTHAM","BEECHINA","WA","6556","AU","False","",""
"SOUTH-WEST 2","SOUTH-WEST 2","BEELERUP","WA","6239","AU","False","",""
"METRO","METRO","BEELIAR","WA","6164","AU","False","",""
"METRO","METRO","BELDON","WA","6027","AU","False","",""
"METRO","METRO","BELHUS","WA","6069","AU","False","",""
"METRO","METRO","BELLEVUE","WA","6056","AU","False","",""
"METRO","METRO","BELMONT","WA","6104","AU","False","",""
"BUNBURY OUTER","BUNBURY OUTER","BENGER","WA","6223","AU","False","",""
"SOUTH-WEST 2","SOUTH-WEST 2","BENJINUP","WA","6255","AU","False","",""
"METRO","METRO","BENTLEY","WA","6102","AU","False","",""
"METRO","METRO","BENTLEY DC","WA","6102","AU","False","",""
"METRO","METRO","BENTLEY SOUTH","WA","6102","AU","False","",""
"GERALDTON","GERALDTON","BERESFORD","WA","6530","AU","False","",""
"METRO","METRO","BERTRAM","WA","6167","AU","False","",""
"WHEATBELT MID1","WHEATBELT MID1","BEVERLEY","WA","6304","AU","False","",""
"METRO","METRO","BIBRA LAKE","WA","6163","AU","False","",""
"METRO","METRO","BIBRA LAKE DC","WA","6163","AU","False","",""
"OUTER METRO","OUTER METRO","BICKLEY","WA","6076","AU","False","",""
"METRO","METRO","BICTON","WA","6157","AU","False","",""
"ALBANY","ALBANY","BIG GROVE","WA","6330","AU","False","",""
"BROOME","BROOME","BILINGURR","WA","6725","AU","False","",""
"KALGOORLIE","KALGOORLIE","BINDULI","WA","6430","AU","False","",""
"BUNBURY OUTER","BUNBURY OUTER","BINNINGUP","WA","6233","AU","False","",""
"PEEL","PEEL","BIRCHMONT","WA","6214","AU","False","",""
"GERALDTON","GERALDTON","BLUFF POINT","WA","6530","AU","False","",""
"PEEL","PEEL","BLYTHEWOOD","WA","6208","AU","False","",""
"BUSSELTON","BUSSELTON","BOALLIA","WA","6280","AU","False","",""
"DONGARRA","DONGARRA","BONNIEFIELD","WA","6525","AU","False","",""
"PORT HEDLAND","PORT HEDLAND","BOODARIE","WA","6722","AU","False","",""
"DONGARRA","DONGARRA","BOOKARA","WA","6525","AU","False","",""
"KALGOORLIE","KALGOORLIE","BOORABBIN","WA","6429","AU","False","",""
"METRO","METRO","BOORAGOON","WA","6154","AU","False","",""
"ALBANY OUTER","ALBANY OUTER","BORNHOLM","WA","6330","AU","False","",""
"KALGOORLIE","KALGOORLIE","BOULDER","WA","6432","AU","False","",""
"WHEATBELT MID2","WHEATBELT MID2","BOUNDAIN","WA","6312","AU","False","",""
"PEEL","PEEL","BOUVARD","WA","6211","AU","False","",""
"BUSSELTON","BUSSELTON","BOVELL","WA","6280","AU","False","",""
"NORTHAMPTON","NORTHAMPTON","BOWES","WA","6535","AU","False","",""
"METRO","METRO","BOYA","WA","6056","AU","False","",""
"BUNBURY OUTER","BUNBURY OUTER","BOYANUP","WA","6237","AU","False","",""
"SOUTH-WEST 2","SOUTH-WEST 2","BOYUP BROOK","WA","6244","AU","False","",""
"METRO","METRO","BRABHAM","WA","6055","AU","False","",""
"MARGARET RIVER","MARGARET RIVER","BRAMLEY","WA","6285","AU","False","",""
"METRO","METRO","BRENTWOOD","WA","6153","AU","False","",""
"BRIDGETOWN","BRIDGETOWN","BRIDGETOWN","WA","6255","AU","False","",""
"OUTER METRO","OUTER METRO","BRIGADOON","WA","6069","AU","False","",""
"MULLEWA","MULLEWA","BRINGO","WA","6532","AU","False","",""
"BUSSELTON","BUSSELTON","BROADWATER","WA","6280","AU","False","",""
"KALGOORLIE","KALGOORLIE","BROADWOOD","WA","6430","AU","False","",""
"METRO","METRO","BROOKDALE","WA","6112","AU","False","",""
"BUNBURY OUTER","BUNBURY OUTER","BROOKHAMPTON","WA","6239","AU","False","",""
"WHEATBELT MID2","WHEATBELT MID2","BROOKTON","WA","6306","AU","False","",""
"BROOME","BROOME","BROOME","WA","6725","AU","False","",""
"WHEATBELT SOUTH1","WHEATBELT SOUTH1","BROOMEHILL","WA","6318","AU","False","",""
"WHEATBELT SOUTH1","WHEATBELT SOUTH1","BROOMEHILL VILLAGE","WA","6318","AU","False","",""
"WHEATBELT MID2","WHEATBELT MID2","BRUCE ROCK","WA","6418","AU","False","",""
"BUNBURY","BUNBURY","BRUNSWICK","WA","6224","AU","False","",""
"KARRATHA","KARRATHA","BULGARRA","WA","6714","AU","False","",""
"METRO","METRO","BULL CREEK","WA","6149","AU","False","",""
"METRO","METRO","BULLCREEK","WA","6149","AU","False","",""
"GERALDTON","GERALDTON","BULLER","WA","6532","AU","False","",""
"BUNBURY","BUNBURY","BUNBURY","WA","6230","AU","False","",""
"BUNBURY","BUNBURY","BUREKUP","WA","6227","AU","False","",""
"METRO","METRO","BURNS","WA","6028","AU","False","",""
"METRO","METRO","BURNS BEACH","WA","6028","AU","False","",""
"MARGARET RIVER","MARGARET RIVER","BURNSIDE","WA","6285","AU","False","",""
"METRO","METRO","BURRENDAH ","WA","6155","AU","False","",""
"KARRATHA","KARRATHA","BURRUP","WA","6714","AU","False","",""
"METRO","METRO","BURSWOOD","WA","6100","AU","False","",""
"METRO","METRO","BUSHMEAD","WA","6055","AU","False","",""
"BUSSELTON","BUSSELTON","BUSSELTON","WA","6280","AU","False","",""
"OUTER METRO","OUTER METRO","BUTLER","WA","6036","AU","False","",""
"OUTER METRO","OUTER METRO","BYFORD","WA","6122","AU","False","",""
"BROOME","BROOME","CABLE BEACH","WA","6726","AU","False","",""
"METRO","METRO","CALISTA","WA","6167","AU","False","",""
"METRO","METRO","CAMILLO","WA","6111","AU","False","",""
"METRO","METRO","CANNING VALE","WA","6155","AU","False","",""
"METRO","METRO","CANNING VALE DC","WA","6155","AU","False","",""
"METRO","METRO","CANNINGTON","WA","6107","AU","False","",""
"GERALDTON","GERALDTON","CAPE BURNEY","WA","6532","AU","False","",""
"ROEBURNE/POINT SAMSON","ROEBURNE/POINT SAMSON","CAPE LAMBERT","WA","6720","AU","False","",""
"NORTH-WEST 4","NORTH-WEST 4","CAPE PRESTON","WA","6714","AU","False","",""
"BUSSELTON","BUSSELTON","CAPEL","WA","6271","AU","False","",""
"BUNBURY OUTER","BUNBURY OUTER","CAPEL RIVER","WA","6271","AU","False","",""
"OUTER METRO","OUTER METRO","CARABOODA","WA","6033","AU","False","",""
"BUSSELTON","BUSSELTON","CARBUNUP RIVER","WA","6280","AU","False","",""
"OUTER METRO","OUTER METRO","CARDUP","WA","6122","AU","False","",""
"BUNBURY","BUNBURY","CAREY PARK","WA","6230","AU","False","",""
"METRO","METRO","CARINE","WA","6020","AU","False","",""
"METRO","METRO","CARLISLE","WA","6101","AU","False","",""
"METRO","METRO","CARLISLE NORTH","WA","6101","AU","False","",""
"METRO","METRO","CARLISLE SOUTH","WA","6101","AU","False","",""
"OUTER METRO","OUTER METRO","CARMEL","WA","6076","AU","False","",""
"METRO","METRO","CARRAMAR","WA","6031","AU","False","",""
"METRO","METRO","CASUARINA","WA","6167","AU","False","",""
"SOUTH-WEST 2","SOUTH-WEST 2","CATTERICK","WA","6255","AU","False","",""
"METRO","METRO","CAVERSHAM","WA","6055","AU","False","",""
"ALBANY","ALBANY","CENTENNIAL PARK","WA","6330","AU","False","",""
"METRO","METRO","CHAMPION LAKES","WA","6111","AU","False","",""
"BUSSELTON","BUSSELTON","CHAPMAN HILL","WA","6280","AU","False","",""
"SOUTH-WEST 2","SOUTH-WEST 2","CHARLEY CREEK","WA","6239","AU","False","",""
"ALBANY OUTER","ALBANY OUTER","CHEYNES","WA","6328","AU","False","",""
"NORTH-WEST 1","NORTH-WEST 1","CHICHESTER","WA","6751","AU","False","",""
"NORTHAM","NORTHAM","CHIDLOW","WA","6556","AU","False","",""
"METRO","METRO","CHURCHLANDS","WA","6018","AU","False","",""
"METRO","METRO","CITY BEACH","WA","6015","AU","False","",""
"METRO","METRO","CITY DELIVERY CENTR","WA","6000","AU","False","",""
"NORTHAM","NORTHAM","CLACKLINE","WA","6564","AU","False","",""
"METRO","METRO","CLAREMONT","WA","6010","AU","False","",""
"METRO","METRO","CLARKSON","WA","6030","AU","False","",""
"ROEBURNE/POINT SAMSON","ROEBURNE/POINT SAMSON","CLEAVERVILLE","WA","6714","AU","False","",""
"PEEL","PEEL","CLIFTON","WA","6211","AU","False","",""
"METRO","METRO","CLOVERDALE","WA","6105","AU","False","",""
"METRO","METRO","COCKBURN","WA","6164","AU","False","",""
"METRO","METRO","COCKBURN CENTRAL","WA","6164","AU","False","",""
"BUNBURY","BUNBURY","COLLEGE GROVE","WA","6230","AU","False","",""
"BUNBURY OUTER","BUNBURY OUTER","COLLIE","WA","6225","AU","False","",""
"SOUTH-WEST 2","SOUTH-WEST 2","COLLIE BURN","WA","6225","AU","False","",""
"ALBANY","ALBANY","COLLINGWOOD HEIGHTS","WA","6330","AU","False","",""
"ALBANY","ALBANY","COLLINGWOOD PARK","WA","6330","AU","False","",""
"METRO","METRO","COMO","WA","6152","AU","False","",""
"METRO","METRO","CONNOLLY","WA","6027","AU","False","",""
"MANDURAH","MANDURAH","COODANUP","WA","6210","AU","False","",""
"METRO","METRO","COOGEE","WA","6166","AU","False","",""
"BUNBURY OUTER","BUNBURY OUTER","COOKERNUP","WA","6220","AU","False","",""
"METRO","METRO","COOLBELLUP","WA","6163","AU","False","",""
"METRO","METRO","COOLBINIA","WA","6050","AU","False","",""
"KAMBALDA","KAMBALDA","COOLGARDIE","WA","6429","AU","False","",""
"OUTER METRO","OUTER METRO","COOLOONGUP","WA","6168","AU","False","",""
"PEEL","PEEL","COOLUP","WA","6214","AU","False","",""
"WHEATBELT MID2","WHEATBELT MID2","CORRIGIN","WA","6375","AU","False","",""
"ROEBURNE/POINT SAMSON","ROEBURNE/POINT SAMSON","COSSACK","WA","6720","AU","False","",""
"METRO","METRO","COTTESLOE","WA","6011","AU","False","",""
"MARGARET RIVER","MARGARET RIVER","COWARAMUP","WA","6284","AU","False","",""
"METRO","METRO","CRAIGIE","WA","6025","AU","False","",""
"WHEATBELT SOUTH1","WHEATBELT SOUTH1","CRANBROOK","WA","6321","AU","False","",""
"METRO","METRO","CRAWLEY","WA","6009","AU","False","",""
"WHEATBELT MID2","WHEATBELT MID2","CUBALLING","WA","6311","AU","False","",""
"MOUNT MAGNET","MOUNT MAGNET","CUE","WA","6640","AU","False","",""
"OUTER METRO","OUTER METRO","CULLACABARDEE","WA","6067","AU","False","",""
"WHEATBELT MID2","WHEATBELT MID2","CUNDERDIN","WA","6407","AU","False","",""
"METRO","METRO","CURRAMBINE","WA","6028","AU","False","",""
"ALBANY OUTER","ALBANY OUTER","CUTHBERT","WA","6330","AU","False","",""
"METRO","METRO","DAGLISH","WA","6008","AU","False","",""
"METRO","METRO","DALKEITH","WA","6009","AU","False","",""
"BUNBURY","BUNBURY","DALYELLUP","WA","6230","AU","False","",""
"KARRATHA","KARRATHA","DAMPIER","WA","6713","AU","False","",""
"KARRATHA","KARRATHA","DAMPIER ARCHIPELAGO","WA","6713","AU","False","",""
"METRO","METRO","DARCH","WA","6065","AU","False","",""
"BUNBURY","BUNBURY","DARDANUP","WA","6236","AU","False","",""
"BUNBURY","BUNBURY","DARDANUP WEST","WA","6236","AU","False","",""
"METRO","METRO","DARLING DOWNS","WA","6122","AU","False","",""
"OUTER METRO","OUTER METRO","DARLINGTON","WA","6070","AU","False","",""
"BUNBURY","BUNBURY","DAVENPORT","WA","6230","AU","False","",""
"PEEL","PEEL","DAWESVILLE","WA","6211","AU","False","",""
"METRO","METRO","DAYTON","WA","6055","AU","False","",""
"SOUTH-WEST 2","SOUTH-WEST 2","DEANMILL","WA","6258","AU","False","",""
"GERALDTON","GERALDTON","DEEPDALE","WA","6532","AU","False","",""
"SOUTH-WEST 2","SOUTH-WEST 2","DEEPDENE","WA","6290","AU","False","",""
"DENMARK","DENMARK","DENMARK","WA","6333","AU","False","",""
"METRO","METRO","DIANELLA","WA","6059","AU","False","",""
"SOUTH-WEST 2","SOUTH-WEST 2","DIXVALE","WA","6258","AU","False","",""
"BROOME","BROOME","DJUGUN","WA","6725","AU","False","",""
"DONGARRA","DONGARRA","DONGARA","WA","6525","AU","False","",""
"SOUTH-WEST 2","SOUTH-WEST 2","DONNELLY RIVER","WA","6258","AU","False","",""
"BUNBURY OUTER","BUNBURY OUTER","DONNYBROOK","WA","6239","AU","False","",""
"METRO","METRO","DOUBLEVIEW","WA","6018","AU","False","",""
"ALBANY","ALBANY","DROME","WA","6330","AU","False","",""
"GERALDTON","GERALDTON","DRUMMOND COVE","WA","6532","AU","False","",""
"MANDURAH","MANDURAH","DUDLEY PARK","WA","6210","AU","False","",""
"WHEATBELT MID2","WHEATBELT MID2","DUMBERNING","WA","6312","AU","False","",""
"METRO","METRO","DUNCRAIG","WA","6023","AU","False","",""
"BUSSELTON","BUSSELTON","DUNSBOROUGH","WA","6281","AU","False","",""
"BUSSELTON","BUSSELTON","EAGLE BAY","WA","6281","AU","False","",""
"BUNBURY","BUNBURY","EAST BUNBURY","WA","6230","AU","False","",""
"METRO","METRO","EAST CANNINGTON","WA","6107","AU","False","",""
"METRO","METRO","EAST FREMANTLE","WA","6158","AU","False","",""
"NORTHAMPTON","NORTHAMPTON","EAST NABAWA","WA","6532","AU","False","",""
"SOUTH-WEST 2","SOUTH-WEST 2","EAST NANNUP","WA","6275","AU","False","",""
"METRO","METRO","EAST PERTH","WA","6004","AU","False","",""
"OUTER METRO","OUTER METRO","EAST ROCKINGHAM","WA","6168","AU","False","",""
"METRO","METRO","EAST VICTORIA PARK","WA","6101","AU","False","",""
"BUNBURY","BUNBURY","EATON","WA","6232","AU","False","",""
"METRO","METRO","EDEN HILL","WA","6054","AU","False","",""
"METRO","METRO","EDGEWATER","WA","6027","AU","False","",""
"YANCHEP-LANCELIN","YANCHEP-LANCELIN","EGLINTON","WA","6034","AU","False","",""
"BUNBURY OUTER","BUNBURY OUTER","ELGIN","WA","6237","AU","False","",""
"ALBANY OUTER","ALBANY OUTER","ELLEKER","WA","6330","AU","False","",""
"METRO","METRO","ELLEN BROOK","WA","6069","AU","False","",""
"METRO","METRO","ELLENBROOK","WA","6069","AU","False","",""
"METRO","METRO","EMBLETON","WA","6062","AU","False","",""
"ALBANY","ALBANY","EMU POINT","WA","6330","AU","False","",""
"MANDURAH","MANDURAH","ERSKINE","WA","6210","AU","False","",""
"PEEL","PEEL","FAIRBRIDGE","WA","6208","AU","False","",""
"MANDURAH","MANDURAH","FALCON","WA","6210","AU","False","",""
"SOUTH-WEST 2","SOUTH-WEST 2","FERGUSON","WA","6236","AU","False","",""
"METRO","METRO","FERNDALE","WA","6148","AU","False","",""
"KAMBALDA","KAMBALDA","FEYSVILLE","WA","6431","AU","False","",""
"KALGOORLIE","KALGOORLIE","FIMISTON","WA","6432","AU","False","",""
"METRO","METRO","FLOREAT","WA","6014","AU","False","",""
"METRO","METRO","FLOREAT FORUM","WA","6014","AU","False","",""
"SOUTH-WEST 2","SOUTH-WEST 2","FOREST GROVE","WA","6286","AU","False","",""
"BUSSELTON","BUSSELTON","FORREST BEACH","WA","6271","AU","False","",""
"METRO","METRO","FORRESTDALE","WA","6112","AU","False","",""
"METRO","METRO","FORRESTFIELD","WA","6058","AU","False","",""
"METRO","METRO","FORRESTFIELD DEPOT","WA","6058","AU","False","",""
"SOUTH-WEST 3","SOUTH-WEST 3","FRANKLAND RIVER","WA","6396","AU","False","",""
"METRO","METRO","FREMANTLE","WA","6160","AU","False","",""
"ALBANY","ALBANY","FRENCHMAN BAY","WA","6330","AU","False","",""
"MANDURAH","MANDURAH","FURNISSDALE","WA","6209","AU","False","",""
"KARRATHA","KARRATHA","GAP RIDGE","WA","6714","AU","False","",""
"OUTER METRO","OUTER METRO","GARDEN ISLAND","WA","6168","AU","False","",""
"BUNBURY","BUNBURY","GELORUP","WA","6230","AU","False","",""
"BUSSELTON","BUSSELTON","GEOGRAPHE","WA","6280","AU","False","",""
"GERALDTON","GERALDTON","GERALDTON","WA","6530","AU","False","",""
"GERALDTON","GERALDTON","GERALDTON DC","WA","6530","AU","False","",""
"WHEATBELT MID1","WHEATBELT MID1","GILGERING","WA","6302","AU","False","",""
"METRO","METRO","GIRRAWHEEN","WA","6064","AU","False","",""
"ALBANY","ALBANY","GLEDHOW","WA","6330","AU","False","",""
"OUTER METRO","OUTER METRO","GLEN FORREST","WA","6071","AU","False","",""
"BUNBURY","BUNBURY","GLEN IRIS","WA","6230","AU","False","",""
"METRO","METRO","GLENDALOUGH","WA","6016","AU","False","",""
"GERALDTON","GERALDTON","GLENFIELD","WA","6532","AU","False","",""
"METRO","METRO","GLENGARRY","WA","6023","AU","False","",""
"BRIDGETOWN","BRIDGETOWN","GLENLYNN","WA","6256","AU","False","",""
"SOUTH-WEST 2","SOUTH-WEST 2","GLENORAN","WA","6258","AU","False","",""
"METRO","METRO","GNANGARA","WA","6065","AU","False","",""
"MARGARET RIVER","MARGARET RIVER","GNARABUP","WA","6285","AU","False","",""
"MANDURAH","MANDURAH","GOLDEN BAY","WA","6174","AU","False","",""
"ALBANY","ALBANY","GOODE BEACH","WA","6330","AU","False","",""
"METRO","METRO","GOOSEBERRY HILL","WA","6076","AU","False","",""
"METRO","METRO","GOSNELLS","WA","6110","AU","False","",""
"MARGARET RIVER","MARGARET RIVER","GRACETOWN","WA","6284","AU","False","",""
"METRO","METRO","GRAYLANDS ","WA","6010","AU","False","",""
"ALBANY OUTER","ALBANY OUTER","GREEN VALLEY","WA","6330","AU","False","",""
"BRIDGETOWN","BRIDGETOWN","GREENBUSHES","WA","6254","AU","False","",""
"MANDURAH","MANDURAH","GREENFIELDS","WA","6210","AU","False","",""
"METRO","METRO","GREENMOUNT","WA","6056","AU","False","",""
"DONGARRA","DONGARRA","GREENOUGH","WA","6532","AU","False","",""
"METRO","METRO","GREENWOOD","WA","6024","AU","False","",""
"METRO","METRO","GUILDFORD","WA","6055","AU","False","",""
"WHEATBELT MID1","WHEATBELT MID1","GWAMBYGINE","WA","6302","AU","False","",""
"METRO","METRO","GWELUP","WA","6018","AU","False","",""
"METRO","METRO","GWELUP DC","WA","6018","AU","False","",""
"BUNBURY OUTER","BUNBURY OUTER","GWINDINUP","WA","6237","AU","False","",""
"OUTER METRO","OUTER METRO","HACKETTS GULLY","WA","6076","AU","False","",""
"BUNBURY","BUNBURY","HALIFAX","WA","6230","AU","False","",""
"MANDURAH","MANDURAH","HALLS HEAD","WA","6210","AU","False","",""
"PEEL","PEEL","HAMEL","WA","6215","AU","False","",""
"SOUTH-WEST 2","SOUTH-WEST 2","HAMELIN BAY","WA","6288","AU","False","",""
"METRO","METRO","HAMERSLEY","WA","6022","AU","False","",""
"METRO","METRO","HAMILTON HILL","WA","6163","AU","False","",""
"METRO","METRO","HAMMOND PARK","WA","6164","AU","False","",""
"KALGOORLIE","KALGOORLIE","HANNANS","WA","6430","AU","False","",""
"SOUTH-WEST 2","SOUTH-WEST 2","HARRIS RIVER","WA","6225","AU","False","",""
"METRO","METRO","HARRISDALE","WA","6112","AU","False","",""
"BUNBURY OUTER","BUNBURY OUTER","HARVEY","WA","6220","AU","False","",""
"ALBANY OUTER","ALBANY OUTER","HAY","WA","6333","AU","False","",""
"METRO","METRO","HAYNES","WA","6112","AU","False","",""
"METRO","METRO","HAZELMERE","WA","6055","AU","False","",""
"METRO","METRO","HAZELMERE DEPOT","WA","6055","AU","False","",""
"METRO","METRO","HEATHRIDGE","WA","6027","AU","False","",""
"METRO","METRO","HELENA VALLEY","WA","6056","AU","False","",""
"METRO","METRO","HENDERSON","WA","6166","AU","False","",""
"METRO","METRO","HENLEY BROOK","WA","6055","AU","False","",""
"METRO","METRO","HERDSMAN","WA","6017","AU","False","",""
"METRO","METRO","HERNE HILL","WA","6056","AU","False","",""
"PEEL","PEEL","HERRON","WA","6211","AU","False","",""
"SOUTH-WEST 2","SOUTH-WEST 2","HESTER","WA","6255","AU","False","",""
"BRIDGETOWN","BRIDGETOWN","HESTER BROOK","WA","6255","AU","False","",""
"NORSEMAN","NORSEMAN","HIGGINSVILLE","WA","6443","AU","False","",""
"METRO","METRO","HIGH WYCOMBE","WA","6057","AU","False","",""
"WHEATBELT MID2","WHEATBELT MID2","HIGHBURY","WA","6313","AU","False","",""
"METRO","METRO","HIGHGATE","WA","6003","AU","False","",""
"METRO","METRO","HILBERT","WA","6112","AU","False","",""
"METRO","METRO","HILLARYS","WA","6025","AU","False","",""
"OUTER METRO","OUTER METRO","HILLMAN","WA","6168","AU","False","",""
"METRO","METRO","HILTON","WA","6163","AU","False","",""
"BUSSELTON","BUSSELTON","HITHERGREEN","WA","6280","AU","False","",""
"METRO","METRO","HOCKING","WA","6065","AU","False","",""
"METRO","METRO","HOLLYWOOD","WA","6009","AU","False","",""
"WHEATBELT SOUTH1","WHEATBELT SOUTH1","HOLT ROCK","WA","6355","AU","False","",""
"METRO","METRO","HOME BASE","WA","6008","AU","False","",""
"METRO","METRO","HOPE VALLEY","WA","6165","AU","False","",""
"OUTER METRO","OUTER METRO","HOPELAND","WA","6125","AU","False","",""
"GERALDTON","GERALDTON","HOUTMAN ABROLHOS","WA","6530","AU","False","",""
"OUTER METRO","OUTER METRO","HOVEA","WA","6071","AU","False","",""
"NORTHAMPTON","NORTHAMPTON","HOWATHARRA","WA","6532","AU","False","",""
"METRO","METRO","HUNTINGDALE","WA","6110","AU","False","",""
"WHEATBELT MID2","WHEATBELT MID2","HYDEN","WA","6359","AU","False","",""
"METRO","METRO","ILUKA","WA","6028","AU","False","",""
"METRO","METRO","INGLEWOOD","WA","6052","AU","False","",""
"METRO","METRO","INNALOO","WA","6018","AU","False","",""
"NORTHAM","NORTHAM","IRISHTOWN","WA","6401","AU","False","",""
"DONGARRA","DONGARRA","IRWIN","WA","6525","AU","False","",""
"METRO","METRO","JANDABUP","WA","6065","AU","False","",""
"METRO","METRO","JANDAKOT","WA","6164","AU","False","",""
"METRO","METRO","JANDAKOT AIRPORT","WA","6164","AU","False","",""
"METRO","METRO","JANE BROOK","WA","6056","AU","False","",""
"OUTER METRO","OUTER METRO","JARRAHDALE","WA","6124","AU","False","",""
"METRO","METRO","JERVOISE BAY","WA","6166","AU","False","",""
"OUTER METRO","OUTER METRO","JINDALEE","WA","6036","AU","False","",""
"BUSSELTON","BUSSELTON","JINDONG","WA","6280","AU","False","",""
"METRO","METRO","JOLIMONT","WA","6014","AU","False","",""
"METRO","METRO","JOONDALUP","WA","6027","AU","False","",""
"METRO","METRO","JOONDALUP DC","WA","6027","AU","False","",""
"METRO","METRO","JOONDANNA","WA","6060","AU","False","",""
"METRO","METRO","KALAMUNDA","WA","6076","AU","False","",""
"ALBANY","ALBANY","KALGAN","WA","6330","AU","False","",""
"KALGOORLIE","KALGOORLIE","KALGOORLIE","WA","6430","AU","False","",""
"BUSSELTON","BUSSELTON","KALGUP","WA","6280","AU","False","",""
"METRO","METRO","KALLAROO","WA","6025","AU","False","",""
"BUSSELTON","BUSSELTON","KALOORUP","WA","6280","AU","False","",""
"KAMBALDA","KAMBALDA","KAMBALDA EAST","WA","6442","AU","False","",""
"KAMBALDA","KAMBALDA","KAMBALDA WEST","WA","6442","AU","False","",""
"SOUTH-WEST 2","SOUTH-WEST 2","KANGAROO GULLY","WA","6255","AU","False","",""
"LEONORA","LEONORA","KANOWNA","WA","6431","AU","False","",""
"METRO","METRO","KARAWARA","WA","6152","AU","False","",""
"METRO","METRO","KARDINYA","WA","6163","AU","False","",""
"WHEATBELT MID2","WHEATBELT MID2","KARLGARIN","WA","6358","AU","False","",""
"KALGOORLIE","KALGOORLIE","KARLKURLA","WA","6430","AU","False","",""
"GERALDTON","GERALDTON","KARLOO","WA","6530","AU","False","",""
"MANDURAH","MANDURAH","KARNUP","WA","6176","AU","False","",""
"OUTER METRO","OUTER METRO","KARRAGULLEN","WA","6111","AU","False","",""
"METRO","METRO","KARRAKATTA","WA","6010","AU","False","",""
"OUTER METRO","OUTER METRO","KARRAKUP","WA","6122","AU","False","",""
"KARRATHA","KARRATHA","KARRATHA","WA","6714","AU","False","",""
"KARRATHA","KARRATHA","KARRATHA INDUSTRIAL","WA","6714","AU","False","",""
"SOUTH-WEST 2","SOUTH-WEST 2","KARRIDALE","WA","6288","AU","False","",""
"METRO","METRO","KARRINYUP","WA","6018","AU","False","",""
"WHEATBELT MID2","WHEATBELT MID2","KATANNING","WA","6317","AU","False","",""
"BUSSELTON","BUSSELTON","KEALY","WA","6280","AU","False","",""
"WHEATBELT MID2","WHEATBELT MID2","KELLERBERRIN","WA","6410","AU","False","",""
"METRO","METRO","KELMSCOTT","WA","6111","AU","False","",""
"METRO","METRO","KELMSCOTT DC","WA","6111","AU","False","",""
"MOUNT BARKER","MOUNT BARKER","KENDENUP","WA","6323","AU","False","",""
"METRO","METRO","KENSINGTON","WA","6151","AU","False","",""
"METRO","METRO","KENWICK","WA","6107","AU","False","",""
"MANDURAH","MANDURAH","KERALUP","WA","6182","AU","False","",""
"METRO","METRO","KEWDALE","WA","6105","AU","False","",""
"PEEL","PEEL","KEYSBROOK","WA","6126","AU","False","",""
"METRO","METRO","KIARA","WA","6054","AU","False","",""
"ALBANY","ALBANY","KING RIVER","WA","6330","AU","False","",""
"METRO","METRO","KINGS PARK","WA","6005","AU","False","",""
"METRO","METRO","KINGSLEY","WA","6026","AU","False","",""
"SOUTH-WEST 2","SOUTH-WEST 2","KINGSTON","WA","6256","AU","False","",""
"METRO","METRO","KINROSS","WA","6028","AU","False","",""
"BRIDGETOWN","BRIDGETOWN","KIRUP","WA","6251","AU","False","",""
"MULLEWA","MULLEWA","KOJARENA","WA","6532","AU","False","",""
"WHEATBELT MID2","WHEATBELT MID2","KOJONUP","WA","6395","AU","False","",""
"WHEATBELT MID2","WHEATBELT MID2","KONDININ","WA","6367","AU","False","",""
"METRO","METRO","KOONDOOLA","WA","6064","AU","False","",""
"METRO","METRO","KOONGAMIA","WA","6056","AU","False","",""
"ALBANY OUTER","ALBANY OUTER","KRONKUP","WA","6330","AU","False","",""
"SOUTH-WEST 2","SOUTH-WEST 2","KUDARDUP","WA","6290","AU","False","",""
"WHEATBELT MID2","WHEATBELT MID2","KULIN","WA","6365","AU","False","",""
"METRO","METRO","KWINANA","WA","6167","AU","False","",""
"METRO","METRO","KWINANA BEACH","WA","6167","AU","False","",""
"METRO","METRO","KWINANA TOWN CENTRE","WA","6167","AU","False","",""
"WHEATBELT SOUTH1","WHEATBELT SOUTH1","LAKE GRACE","WA","6353","AU","False","",""
"MANDURAH","MANDURAH","LAKELANDS","WA","6210","AU","False","",""
"KALGOORLIE","KALGOORLIE","LAKEWOOD","WA","6431","AU","False","",""
"KALGOORLIE","KALGOORLIE","LAMINGTON","WA","6430","AU","False","",""
"METRO","METRO","LANDSDALE","WA","6065","AU","False","",""
"ALBANY","ALBANY","LANGE","WA","6330","AU","False","",""
"METRO","METRO","LANGFORD","WA","6147","AU","False","",""
"METRO","METRO","LATHLAIN","WA","6100","AU","False","",""
"LEONORA","LEONORA","LAVERTON","WA","6440","AU","False","",""
"OUTER METRO","OUTER METRO","LEDA","WA","6170","AU","False","",""
"METRO","METRO","LEEDERVILLE","WA","6007","AU","False","",""
"METRO","METRO","LEEMING","WA","6149","AU","False","",""
"LEONORA","LEONORA","LEINSTER","WA","6437","AU","False","",""
"LEONORA","LEONORA","LEONORA","WA","6438","AU","False","",""
"BUNBURY","BUNBURY","LESCHENAULT","WA","6233","AU","False","",""
"METRO","METRO","LESMURDIE","WA","6076","AU","False","",""
"OUTER METRO","OUTER METRO","LEXIA","WA","6065","AU","False","",""
"SOUTH-WEST 2","SOUTH-WEST 2","LINFARNE","WA","6258","AU","False","",""
"ALBANY","ALBANY","LITTLE GROVE","WA","6330","AU","False","",""
"METRO","METRO","LIVINGSTON","WA","6155","AU","False","",""
"METRO","METRO","LOCKRIDGE","WA","6054","AU","False","",""
"ALBANY","ALBANY","LOCKYER","WA","6330","AU","False","",""
"ALBANY","ALBANY","LOWER KING","WA","6330","AU","False","",""
"ALBANY OUTER","ALBANY OUTER","LOWLANDS","WA","6330","AU","False","",""
"BUSSELTON","BUSSELTON","LUDLOW","WA","6280","AU","False","",""
"METRO","METRO","LYNWOOD","WA","6147","AU","False","",""
"METRO","METRO","MADDINGTON","WA","6109","AU","False","",""
"METRO","METRO","MADELEY","WA","6065","AU","False","",""
"MANDURAH","MANDURAH","MADORA","WA","6210","AU","False","",""
"MANDURAH","MANDURAH","MADORA BAY","WA","6210","AU","False","",""
"OUTER METRO","OUTER METRO","MAHOGANY CREEK","WA","6072","AU","False","",""
"GERALDTON","GERALDTON","MAHOMETS FLATS","WA","6530","AU","False","",""
"METRO","METRO","MAIDA VALE","WA","6057","AU","False","",""
"NORTHAM","NORTHAM","MALABAINE","WA","6401","AU","False","",""
"METRO","METRO","MALAGA","WA","6090","AU","False","",""
"METRO","METRO","MANDOGALUP","WA","6167","AU","False","",""
"MANDURAH","MANDURAH","MANDURAH","WA","6210","AU","False","",""
"MANDURAH","MANDURAH","MANDURAH DC","WA","6210","AU","False","",""
"MANJIMUP","MANJIMUP","MANJIMUP","WA","6258","AU","False","",""
"METRO","METRO","MANNING","WA","6152","AU","False","",""
"ALBANY OUTER","ALBANY OUTER","MANYPEAKS","WA","6328","AU","False","",""
"METRO","METRO","MARANGAROO","WA","6064","AU","False","",""
"ALBANY OUTER","ALBANY OUTER","MARBELUP","WA","6330","AU","False","",""
"OUTER METRO","OUTER METRO","MARDELLA","WA","6125","AU","False","",""
"NORTH-WEST 4","NORTH-WEST 4","MARDIE","WA","6714","AU","False","",""
"MARGARET RIVER","MARGARET RIVER","MARGARET RIVER","WA","6285","AU","False","",""
"METRO","METRO","MARIGINIUP","WA","6065","AU","False","",""
"METRO","METRO","MARMION","WA","6020","AU","False","",""
"METRO","METRO","MARTIN","WA","6110","AU","False","",""
"BUSSELTON","BUSSELTON","MARYBROOK","WA","6280","AU","False","",""
"METRO","METRO","MAYLANDS","WA","6051","AU","False","",""
"ALBANY","ALBANY","MCKAIL","WA","6330","AU","False","",""
"DENHAM","DENHAM","MEADOW","WA","6532","AU","False","",""
"MANDURAH","MANDURAH","MEADOW SPRINGS","WA","6210","AU","False","",""
"METRO","METRO","MEDINA","WA","6167","AU","False","",""
"MOUNT MAGNET","MOUNT MAGNET","MEEKATHARRA","WA","6642","AU","False","",""
"OUTER METRO","OUTER METRO","MELALEUCA","WA","6079","AU","False","",""
"METRO","METRO","MELTHAM","WA","6052","AU","False","",""
"METRO","METRO","MELVILLE","WA","6156","AU","False","",""
"METRO","METRO","MENORA","WA","6050","AU","False","",""
"LEONORA","LEONORA","MENZIES","WA","6436","AU","False","",""
"WHEATBELT MID2","WHEATBELT MID2","MERREDIN","WA","6415","AU","False","",""
"METRO","METRO","MERRIWA","WA","6030","AU","False","",""
"GERALDTON","GERALDTON","MERU","WA","6530","AU","False","",""
"MARGARET RIVER","MARGARET RIVER","METRICUP","WA","6280","AU","False","",""
"METRO","METRO","MIDDLE SWAN","WA","6056","AU","False","",""
"ALBANY","ALBANY","MIDDLETON BEACH","WA","6330","AU","False","",""
"METRO","METRO","MIDLAND","WA","6056","AU","False","",""
"METRO","METRO","MIDVALE","WA","6056","AU","False","",""
"KARRATHA","KARRATHA","MILLARS WELL","WA","6714","AU","False","",""
"BUNBURY","BUNBURY","MILLBRIDGE","WA","6232","AU","False","",""
"ALBANY","ALBANY","MILLBROOK","WA","6330","AU","False","",""
"METRO","METRO","MILLENDON","WA","6056","AU","False","",""
"ALBANY","ALBANY","MILPARA","WA","6330","AU","False","",""
"METRO","METRO","MINDARIE","WA","6030","AU","False","",""
"WHEATBELT MID2","WHEATBELT MID2","MINIGIN","WA","6312","AU","False","",""
"BROOME","BROOME","MINYIRR","WA","6725","AU","False","",""
"ALBANY","ALBANY","MIRA MAR","WA","6330","AU","False","",""
"METRO","METRO","MIRRABOOKA","WA","6061","AU","False","",""
"GERALDTON","GERALDTON","MOONYOONOOKA","WA","6532","AU","False","",""
"WHEATBELT EAST1","WHEATBELT EAST1","MOORINE ROCK","WA","6425","AU","False","",""
"GERALDTON","GERALDTON","MORESBY","WA","6530","AU","False","",""
"METRO","METRO","MORLEY","WA","6062","AU","False","",""
"METRO","METRO","MOSMAN PARK","WA","6012","AU","False","",""
"ROEBURNE/POINT SAMSON","ROEBURNE/POINT SAMSON","MOUNT ANKETELL","WA","6714","AU","False","",""
"MOUNT BARKER","MOUNT BARKER","MOUNT BARKER","WA","6324","AU","False","",""
"METRO","METRO","MOUNT CLAREMONT","WA","6010","AU","False","",""
"ALBANY","ALBANY","MOUNT CLARENCE","WA","6330","AU","False","",""
"ALBANY","ALBANY","MOUNT ELPHINSTONE","WA","6330","AU","False","",""
"METRO","METRO","MOUNT HAWTHORN","WA","6016","AU","False","",""
"NORTHAM","NORTHAM","MOUNT HELENA","WA","6082","AU","False","",""
"METRO","METRO","MOUNT LAWLEY","WA","6050","AU","False","",""
"ALBANY OUTER","ALBANY OUTER","MOUNT LINDESAY","WA","6333","AU","False","",""
"MOUNT MAGNET","MOUNT MAGNET","MOUNT MAGNET","WA","6638","AU","False","",""
"ALBANY","ALBANY","MOUNT MELVILLE","WA","6330","AU","False","",""
"METRO","METRO","MOUNT NASURA","WA","6112","AU","False","",""
"METRO","METRO","MOUNT PLEASANT","WA","6153","AU","False","",""
"METRO","METRO","MOUNT RICHON","WA","6112","AU","False","",""
"GERALDTON","GERALDTON","MOUNT TARCOOLA","WA","6530","AU","False","",""
"KARRATHA","KARRATHA","MULATAGA","WA","6714","AU","False","",""
"METRO","METRO","MULLALOO","WA","6027","AU","False","",""
"BRIDGETOWN","BRIDGETOWN","MULLALYUP","WA","6252","AU","False","",""
"MULLEWA","MULLEWA","MULLEWA","WA","6630","AU","False","",""
"KALGOORLIE","KALGOORLIE","MULLINGAR","WA","6430","AU","False","",""
"SOUTH-WEST 2","SOUTH-WEST 2","MUMBALLUP","WA","6225","AU","False","",""
"OUTER METRO","OUTER METRO","MUNDARING","WA","6073","AU","False","",""
"OUTER METRO","OUTER METRO","MUNDARING DC","WA","6073","AU","False","",""
"OUTER METRO","OUTER METRO","MUNDARING WEIR","WA","6073","AU","False","",""
"OUTER METRO","OUTER METRO","MUNDIJONG","WA","6123","AU","False","",""
"METRO","METRO","MUNSTER","WA","6166","AU","False","",""
"METRO","METRO","MURDOCH","WA","6150","AU","False","",""
"BUNBURY OUTER","BUNBURY OUTER","MYALUP","WA","6220","AU","False","",""
"METRO","METRO","MYAREE","WA","6154","AU","False","",""
"NORTHAMPTON","NORTHAMPTON","NABAWA","WA","6532","AU","False","",""
"PEEL","PEEL","NAMBEELUP","WA","6207","AU","False","",""
"ALBANY OUTER","ALBANY OUTER","NANARUP","WA","6330","AU","False","",""
"SOUTH-WEST 2","SOUTH-WEST 2","NANNUP","WA","6275","AU","False","",""
"NORTHAMPTON","NORTHAMPTON","NANSON","WA","6532","AU","False","",""
"ALBANY OUTER","ALBANY OUTER","NAPIER","WA","6330","AU","False","",""
"WHEATBELT MID2","WHEATBELT MID2","NAREMBEEN","WA","6369","AU","False","",""
"GERALDTON","GERALDTON","NARNGULU","WA","6532","AU","False","",""
"MOUNT BARKER","MOUNT BARKER","NARRIKUP","WA","6326","AU","False","",""
"WHEATBELT MID2","WHEATBELT MID2","NARROGIN","WA","6312","AU","False","",""
"WHEATBELT MID2","WHEATBELT MID2","NARROGIN VALLEY","WA","6312","AU","False","",""
"BUSSELTON","BUSSELTON","NATURALISTE","WA","6281","AU","False","",""
"METRO","METRO","NAVAL BASE","WA","6165","AU","False","",""
"METRO","METRO","NEDLANDS","WA","6009","AU","False","",""
"METRO","METRO","NEDLANDS DC","WA","6009","AU","False","",""
"METRO","METRO","NEERABUP","WA","6031","AU","False","",""
"PORT HEDLAND","PORT HEDLAND","NELSON POINT","WA","6721","AU","False","",""
"METRO","METRO","NEWBURN","WA","6105","AU","False","",""
"BRIDGETOWN","BRIDGETOWN","NEWLANDS","WA","6251","AU","False","",""
"KARRATHA","KARRATHA","NICKOL","WA","6714","AU","False","",""
"PEEL","PEEL","NIRIMBA","WA","6208","AU","False","",""
"NORTHAMPTON","NORTHAMPTON","NOLBA","WA","6532","AU","False","",""
"METRO","METRO","NOLLAMARA","WA","6061","AU","False","",""
"METRO","METRO","NORANDA","WA","6062","AU","False","",""
"NORSEMAN","NORSEMAN","NORSEMAN","WA","6443","AU","False","",""
"METRO","METRO","NORTH BEACH","WA","6020","AU","False","",""
"BUNBURY OUTER","BUNBURY OUTER","NORTH BOYANUP","WA","6237","AU","False","",""
"METRO","METRO","NORTH COOGEE","WA","6163","AU","False","",""
"PEEL","PEEL","NORTH DANDALUP","WA","6207","AU","False","",""
"METRO","METRO","NORTH FREMANTLE","WA","6159","AU","False","",""
"BRIDGETOWN","BRIDGETOWN","NORTH GREENBUSHES","WA","6254","AU","False","",""
"BUSSELTON","BUSSELTON","NORTH JINDONG","WA","6280","AU","False","",""
"METRO","METRO","NORTH LAKE","WA","6163","AU","False","",""
"METRO","METRO","NORTH PERTH","WA","6006","AU","False","",""
"PEEL","PEEL","NORTH YUNDERUP","WA","6208","AU","False","",""
"NORTHAM","NORTHAM","NORTHAM","WA","6401","AU","False","",""
"NORTHAMPTON","NORTHAMPTON","NORTHAMPTON","WA","6535","AU","False","",""
"METRO","METRO","NORTHBRIDGE","WA","6003","AU","False","",""
"OUTER METRO","OUTER METRO","NOWERGUP","WA","6032","AU","False","",""
"ALBANY OUTER","ALBANY OUTER","NULLAKI","WA","6330","AU","False","",""
"METRO","METRO","OAKFORD","WA","6121","AU","False","",""
"PEEL","PEEL","OAKLEY","WA","6208","AU","False","",""
"DENMARK","DENMARK","OCEAN BEACH","WA","6333","AU","False","",""
"METRO","METRO","OCEAN REEF","WA","6027","AU","False","",""
"METRO","METRO","O'CONNOR","WA","6163","AU","False","",""
"OUTER METRO","OUTER METRO","OLDBURY","WA","6121","AU","False","",""
"ALBANY","ALBANY","ORANA","WA","6330","AU","False","",""
"METRO","METRO","ORANGE GROVE","WA","6109","AU","False","",""
"METRO","METRO","ORELIA","WA","6167","AU","False","",""
"METRO","METRO","OSBORNE PARK","WA","6017","AU","False","",""
"METRO","METRO","OSBORNE PARK DC","WA","6017","AU","False","",""
"MARGARET RIVER","MARGARET RIVER","OSMINGTON","WA","6285","AU","False","",""
"METRO","METRO","PADBURY","WA","6025","AU","False","",""
"MANJIMUP","MANJIMUP","PALGARUP","WA","6258","AU","False","",""
"SOUTH-WEST 2","SOUTH-WEST 2","PALMER","WA","6225","AU","False","",""
"METRO","METRO","PALMYRA","WA","6157","AU","False","",""
"METRO","METRO","PALMYRA DC","WA","6157","AU","False","",""
"NORTHAM","NORTHAM","PARKERVILLE","WA","6081","AU","False","",""
"KALGOORLIE","KALGOORLIE","PARKESTON","WA","6434","AU","False","",""
"BUNBURY OUTER","BUNBURY OUTER","PARKFIELD","WA","6233","AU","False","",""
"MANDURAH","MANDURAH","PARKLANDS","WA","6210","AU","False","",""
"METRO","METRO","PARKWOOD","WA","6147","AU","False","",""
"METRO","METRO","PARMELIA","WA","6167","AU","False","",""
"OUTER METRO","OUTER METRO","PAULLS VALLEY","WA","6076","AU","False","",""
"SOUTH-WEST 2","SOUTH-WEST 2","PAYNEDALE","WA","6239","AU","False","",""
"METRO","METRO","PEARSALL","WA","6065","AU","False","",""
"KARRATHA","KARRATHA","PEGS CREEK","WA","6714","AU","False","",""
"BUNBURY","BUNBURY","PELICAN POINT","WA","6230","AU","False","",""
"METRO","METRO","PEPPERMINT GROVE","WA","6011","AU","False","",""
"BUSSELTON","BUSSELTON","PEPPERMINT GROVE BEACH","WA","6271","AU","False","",""
"ALBANY OUTER","ALBANY OUTER","PERILLUP","WA","6324","AU","False","",""
"OUTER METRO","OUTER METRO","PERON","WA","6168","AU","False","",""
"METRO","METRO","PERTH","WA","6000","AU","False","",""
"METRO","METRO","PERTH AIRPORT","WA","6105","AU","False","",""
"METRO","METRO","PERTH GPO","WA","6000","AU","False","",""
"METRO","METRO","PIARA WATERS","WA","6112","AU","False","",""
"KALGOORLIE","KALGOORLIE","PICCADILLY","WA","6430","AU","False","",""
"OUTER METRO","OUTER METRO","PICKERING BROOK","WA","6076","AU","False","",""
"BUNBURY","BUNBURY","PICTON","WA","6229","AU","False","",""
"BUNBURY","BUNBURY","PICTON EAST","WA","6229","AU","False","",""
"OUTER METRO","OUTER METRO","PIESSE BROOK","WA","6076","AU","False","",""
"OUTER METRO","OUTER METRO","PINJAR","WA","6065","AU","False","",""
"PEEL","PEEL","PINJARRA","WA","6208","AU","False","",""
"ROEBURNE/POINT SAMSON","ROEBURNE/POINT SAMSON","POINT SAMSON","WA","6720","AU","False","",""
"ALBANY OUTER","ALBANY OUTER","PORONGURUP","WA","6324","AU","False","",""
"ALBANY","ALBANY","PORT ALBANY","WA","6330","AU","False","",""
"PEEL","PEEL","PORT BOUVARD","WA","6210","AU","False","",""
"DONGARRA","DONGARRA","PORT DENISON","WA","6525","AU","False","",""
"PORT HEDLAND","PORT HEDLAND","PORT HEDLAND","WA","6721","AU","False","",""
"OUTER METRO","OUTER METRO","PORT KENNEDY","WA","6172","AU","False","",""
"SOUTH-WEST 2","SOUTH-WEST 2","PRESTON SETTLEMENT","WA","6225","AU","False","",""
"MARGARET RIVER","MARGARET RIVER","PREVELLY","WA","6285","AU","False","",""
"WHEATBELT MID2","WHEATBELT MID2","QUAIRADING","WA","6383","AU","False","",""
"BUSSELTON","BUSSELTON","QUEDJINUP","WA","6281","AU","False","",""
"METRO","METRO","QUEENS PARK","WA","6107","AU","False","",""
"SOUTH-WEST 2","SOUTH-WEST 2","QUEENWOOD","WA","6239","AU","False","",""
"BUSSELTON","BUSSELTON","QUINDALUP","WA","6281","AU","False","",""
"METRO","METRO","QUINNS ROCK","WA","6030","AU","False","",""
"METRO","METRO","QUINNS ROCKS","WA","6030","AU","False","",""
"GERALDTON","GERALDTON","RANGEWAY","WA","6530","AU","False","",""
"WHEATBELT SOUTH1","WHEATBELT SOUTH1","RAVENSTHORPE","WA","6346","AU","False","",""
"PEEL","PEEL","RAVENSWOOD","WA","6208","AU","False","",""
"OUTER METRO","OUTER METRO","RED HILL","WA","6056","AU","False","",""
"PORT HEDLAND","PORT HEDLAND","REDBANK","WA","6721","AU","False","",""
"METRO","METRO","REDCLIFFE","WA","6104","AU","False","",""
"SOUTH-WEST 2","SOUTH-WEST 2","REDGATE","WA","6286","AU","False","",""
"ALBANY OUTER","ALBANY OUTER","REDMOND","WA","6327","AU","False","",""
"ALBANY OUTER","ALBANY OUTER","REDMOND WEST","WA","6327","AU","False","",""
"BUSSELTON","BUSSELTON","REINSCOURT","WA","6280","AU","False","",""
"METRO","METRO","RIDGEWOOD","WA","6030","AU","False","",""
"SOUTH-WEST 2","SOUTH-WEST 2","RINGBARK","WA","6258","AU","False","",""
"METRO","METRO","RIVERTON","WA","6148","AU","False","",""
"METRO","METRO","RIVERVALE","WA","6103","AU","False","",""
"METRO","METRO","ROBB JETTY","WA","6163","AU","False","",""
"ALBANY","ALBANY","ROBINSON","WA","6330","AU","False","",""
"OUTER METRO","OUTER METRO","ROCKINGHAM","WA","6168","AU","False","",""
"OUTER METRO","OUTER METRO","ROCKINGHAM DC","WA","6168","AU","False","",""
"ROEBURNE/POINT SAMSON","ROEBURNE/POINT SAMSON","ROEBOURNE","WA","6718","AU","False","",""
"BROOME","BROOME","ROEBUCK","WA","6725","AU","False","",""
"BUNBURY","BUNBURY","ROELANDS","WA","6226","AU","False","",""
"OUTER METRO","OUTER METRO","ROLEYSTONE","WA","6111","AU","False","",""
"SOUTH-WEST 2","SOUTH-WEST 2","ROSA BROOK","WA","6285","AU","False","",""
"SOUTH-WEST 2","SOUTH-WEST 2","ROSA GLEN","WA","6285","AU","False","",""
"METRO","METRO","ROSSMOYNE","WA","6148","AU","False","",""
"BUSSELTON","BUSSELTON","RUABON","WA","6280","AU","False","",""
"GERALDTON","GERALDTON","RUDDS GULLY","WA","6532","AU","False","",""
"WHEATBELT SOUTH1","WHEATBELT SOUTH1","RYANSBROOK","WA","6395","AU","False","",""
"BUSSELTON","BUSSELTON","SABINA RIVER","WA","6280","AU","False","",""
"OUTER METRO","OUTER METRO","SAFETY BAY","WA","6169","AU","False","",""
"NORSEMAN","NORSEMAN","SALMON GUMS","WA","6445","AU","False","",""
"METRO","METRO","SALTER POINT","WA","6152","AU","False","",""
"METRO","METRO","SALTERS POINT","WA","6152","AU","False","",""
"METRO","METRO","SAMSON","WA","6163","AU","False","",""
"MANDURAH","MANDURAH","SAN REMO","WA","6210","AU","False","",""
"NORTHAM","NORTHAM","SAWYERS VALLEY","WA","6074","AU","False","",""
"METRO","METRO","SCARBOROUGH","WA","6019","AU","False","",""
"DENMARK","DENMARK","SCOTSDALE","WA","6333","AU","False","",""
"MANDURAH","MANDURAH","SECRET HARBOUR","WA","6173","AU","False","",""
"ALBANY","ALBANY","SEPPINGS","WA","6330","AU","False","",""
"OUTER METRO","OUTER METRO","SERPENTINE","WA","6125","AU","False","",""
"METRO","METRO","SEVILLE GROVE","WA","6112","AU","False","",""
"DENMARK","DENMARK","SHADFORTH","WA","6333","AU","False","",""
"METRO","METRO","SHELLEY","WA","6148","AU","False","",""
"METRO","METRO","SHENTON PARK","WA","6008","AU","False","",""
"OUTER METRO","OUTER METRO","SHOALWATER","WA","6169","AU","False","",""
"BUSSELTON","BUSSELTON","SIESTA PARK","WA","6280","AU","False","",""
"MANDURAH","MANDURAH","SILVER SANDS","WA","6210","AU","False","",""
"METRO","METRO","SINAGRA","WA","6065","AU","False","",""
"MANDURAH","MANDURAH","SINGLETON","WA","6175","AU","False","",""
"KALGOORLIE","KALGOORLIE","SOMERVILLE","WA","6430","AU","False","",""
"METRO","METRO","SORRENTO","WA","6020","AU","False","",""
"KALGOORLIE","KALGOORLIE","SOUTH BOULDER","WA","6432","AU","False","",""
"BUNBURY","BUNBURY","SOUTH BUNBURY","WA","6230","AU","False","",""
"METRO","METRO","SOUTH COOGEE","WA","6701","AU","False","",""
"METRO","METRO","SOUTH FREMANTLE","WA","6162","AU","False","",""
"DONGARRA","DONGARRA","SOUTH GREENOUGH","WA","6528","AU","False","",""
"METRO","METRO","SOUTH GUILDFORD","WA","6055","AU","False","",""
"PORT HEDLAND","PORT HEDLAND","SOUTH HEDLAND","WA","6722","AU","False","",""
"KALGOORLIE","KALGOORLIE","SOUTH KALGOORLIE","WA","6430","AU","False","",""
"METRO","METRO","SOUTH LAKE","WA","6164","AU","False","",""
"METRO","METRO","SOUTH PERTH","WA","6151","AU","False","",""
"ALBANY OUTER","ALBANY OUTER","SOUTH STIRLING","WA","6324","AU","False","",""
"PEEL","PEEL","SOUTH YUNDERUP","WA","6208","AU","False","",""
"SOUTH-WEST 2","SOUTH-WEST 2","SOUTHAMPTON","WA","6253","AU","False","",""
"WHEATBELT EAST1","WHEATBELT EAST1","SOUTHERN CROSS","WA","6426","AU","False","",""
"METRO","METRO","SOUTHERN RIVER","WA","6110","AU","False","",""
"GERALDTON","GERALDTON","SPALDING","WA","6530","AU","False","",""
"METRO","METRO","SPEARWOOD","WA","6163","AU","False","",""
"ALBANY","ALBANY","SPENCER PARK","WA","6330","AU","False","",""
"DONGARRA","DONGARRA","SPRINGFIELD","WA","6525","AU","False","",""
"METRO","METRO","ST JAMES","WA","6102","AU","False","",""
"MANDURAH","MANDURAH","STAKE HILL","WA","6181","AU","False","",""
"METRO","METRO","STIRLING","WA","6021","AU","False","",""
"BUSSELTON","BUSSELTON","STIRLING ESTATE","WA","6271","AU","False","",""
"NORTHAM","NORTHAM","STONEVILLE","WA","6081","AU","False","",""
"KARRATHA","KARRATHA","STOVE HILL","WA","6714","AU","False","",""
"GERALDTON","GERALDTON","STRATHALBYN","WA","6530","AU","False","",""
"BUSSELTON","BUSSELTON","STRATHAM","WA","6237","AU","False","",""
"METRO","METRO","STRATTON","WA","6056","AU","False","",""
"METRO","METRO","SUBIACO","WA","6008","AU","False","",""
"METRO","METRO","SUBIACO EAST","WA","6008","AU","False","",""
"METRO","METRO","SUCCESS","WA","6164","AU","False","",""
"GERALDTON","GERALDTON","SUNSET BEACH","WA","6530","AU","False","",""
"METRO","METRO","SWAN VIEW","WA","6056","AU","False","",""
"METRO","METRO","SWANBOURNE","WA","6010","AU","False","",""
"METRO","METRO","TAMALA PARK","WA","6030","AU","False","",""
"METRO","METRO","TAPPING","WA","6065","AU","False","",""
"GERALDTON","GERALDTON","TARCOOLA BEACH","WA","6530","AU","False","",""
"MOUNT BARKER","MOUNT BARKER","TENTERDEN","WA","6322","AU","False","",""
"NORTHAM","NORTHAM","THE LAKES","WA","6556","AU","False","",""
"BUNBURY OUTER","BUNBURY OUTER","THE PLAINS","WA","6237","AU","False","",""
"METRO","METRO","THE VINES","WA","6069","AU","False","",""
"SOUTH-WEST 2","SOUTH-WEST 2","THOMSON BROOK","WA","6239","AU","False","",""
"METRO","METRO","THORNLIE","WA","6108","AU","False","",""
"WHEATBELT MID2","WHEATBELT MID2","TINCURRIN","WA","6361","AU","False","",""
"DENMARK","DENMARK","TORBAY","WA","6330","AU","False","",""
"ALBANY","ALBANY","TORNDIRRUP","WA","6330","AU","False","",""
"MARGARET RIVER","MARGARET RIVER","TREETON","WA","6284","AU","False","",""
"METRO","METRO","TRIGG","WA","6029","AU","False","",""
"METRO","METRO","TUART HILL","WA","6060","AU","False","",""
"BUSSELTON","BUSSELTON","TUTUNUP","WA","6280","AU","False","",""
"YANCHEP-LANCELIN","YANCHEP-LANCELIN","TWO ROCKS","WA","6037","AU","False","",""
"BUNBURY OUTER","BUNBURY OUTER","UPPER CAPEL","WA","6239","AU","False","",""
"METRO","METRO","UPPER SWAN","WA","6069","AU","False","",""
"BUNBURY","BUNBURY","USHER","WA","6230","AU","False","",""
"GERALDTON","GERALDTON","UTAKARRA","WA","6530","AU","False","",""
"ALBANY","ALBANY","VANCOUVER PENINSULA","WA","6330","AU","False","",""
"WHEATBELT SOUTH1","WHEATBELT SOUTH1","VARLEY","WA","6355","AU","False","",""
"BUSSELTON","BUSSELTON","VASSE","WA","6280","AU","False","",""
"METRO","METRO","VICTORIA PARK","WA","6100","AU","False","",""
"KALGOORLIE","KALGOORLIE","VICTORY HEIGHTS","WA","6432","AU","False","",""
"BUNBURY","BUNBURY","VITTORIA","WA","6230","AU","False","",""
"METRO","METRO","VIVEASH","WA","6056","AU","False","",""
"PEEL","PEEL","WAGERUP","WA","6215","AU","False","",""
"GERALDTON","GERALDTON","WAGGRAKINE","WA","6530","AU","False","",""
"WHEATBELT MID2","WHEATBELT MID2","WAGIN","WA","6315","AU","False","",""
"OUTER METRO","OUTER METRO","WAIKIKI","WA","6169","AU","False","",""
"DONGARRA","DONGARRA","WALKAWAY","WA","6528","AU","False","",""
"METRO","METRO","WALLISTON","WA","6076","AU","False","",""
"ALBANY","ALBANY","WALMSLEY","WA","6330","AU","False","",""
"BUSSELTON","BUSSELTON","WALSALL","WA","6280","AU","False","",""
"METRO","METRO","WANDI","WA","6167","AU","False","",""
"SOUTH-WEST 2","SOUTH-WEST 2","WANDILLUP","WA","6256","AU","False","",""
"GERALDTON","GERALDTON","WANDINA","WA","6530","AU","False","",""
"METRO","METRO","WANGARA","WA","6065","AU","False","",""
"METRO","METRO","WANGARA DC","WA","6065","AU","False","",""
"MANDURAH","MANDURAH","WANNANUP","WA","6210","AU","False","",""
"METRO","METRO","WANNEROO","WA","6065","AU","False","",""
"BUNBURY OUTER","BUNBURY OUTER","WARAWARRUP","WA","6220","AU","False","",""
"OUTER METRO","OUTER METRO","WARNBRO","WA","6169","AU","False","",""
"PEEL","PEEL","WAROONA","WA","6215","AU","False","",""
"ALBANY","ALBANY","WARRENUP","WA","6330","AU","False","",""
"METRO","METRO","WARWICK","WA","6024","AU","False","",""
"BROOME","BROOME","WATERBANK","WA","6725","AU","False","",""
"METRO","METRO","WATERFORD","WA","6152","AU","False","",""
"BUNBURY","BUNBURY","WATERLOO","WA","6228","AU","False","",""
"METRO","METRO","WATERMAN","WA","6020","AU","False","",""
"METRO","METRO","WATERMANS BAY","WA","6020","AU","False","",""
"METRO","METRO","WATTLE GROVE","WA","6107","AU","False","",""
"METRO","METRO","WATTLEUP","WA","6166","AU","False","",""
"GERALDTON","GERALDTON","WEBBERTON","WA","6530","AU","False","",""
"PORT HEDLAND","PORT HEDLAND","WEDGEFIELD","WA","6721","AU","False","",""
"OUTER METRO","OUTER METRO","WELLARD","WA","6170","AU","False","",""
"BUNBURY","BUNBURY","WELLESLEY","WA","6233","AU","False","",""
"SOUTH-WEST 2","SOUTH-WEST 2","WELLINGTON MILL","WA","6236","AU","False","",""
"METRO","METRO","WELSHPOOL","WA","6106","AU","False","",""
"METRO","METRO","WELSHPOOL DC","WA","6106","AU","False","",""
"METRO","METRO","WELSHPOOL NEAR","WA","6106","AU","False","",""
"METRO","METRO","WEMBLEY","WA","6014","AU","False","",""
"METRO","METRO","WEMBLEY DOWNS","WA","6019","AU","False","",""
"BUSSELTON","BUSSELTON","WEST BUSSELTON","WA","6280","AU","False","",""
"ALBANY OUTER","ALBANY OUTER","WEST CAPE HOWE","WA","6330","AU","False","",""
"PEEL","PEEL","WEST COOLUP","WA","6214","AU","False","",""
"GERALDTON","GERALDTON","WEST END","WA","6530","AU","False","",""
"KALGOORLIE","KALGOORLIE","WEST KALGOORLIE","WA","6430","AU","False","",""
"KALGOORLIE","KALGOORLIE","WEST LAMINGTON","WA","6430","AU","False","",""
"METRO","METRO","WEST LEEDERVILLE","WA","6007","AU","False","",""
"METRO","METRO","WEST PERTH","WA","6005","AU","False","",""
"PEEL","PEEL","WEST PINJARRA","WA","6208","AU","False","",""
"METRO","METRO","WEST SWAN","WA","6055","AU","False","",""
"METRO","METRO","WESTFIELD","WA","6111","AU","False","",""
"METRO","METRO","WESTMINSTER","WA","6061","AU","False","",""
"METRO","METRO","WEXCOMBE ","WA","6056","AU","False","",""
"NORTH-WEST 4","NORTH-WEST 4","WHIM CREEK","WA","6718","AU","False","",""
"OUTER METRO","OUTER METRO","WHITBY","WA","6123","AU","False","",""
"METRO","METRO","WHITE GUM VALLEY","WA","6162","AU","False","",""
"GERALDTON","GERALDTON","WHITE PEAK","WA","6532","AU","False","",""
"METRO","METRO","WHITEMAN","WA","6068","AU","False","",""
"METRO","METRO","WHITFORDS ","WA","6025","AU","False","",""
"WHEATBELT MID2","WHEATBELT MID2","WICKEPIN","WA","6370","AU","False","",""
"ROEBURNE/POINT SAMSON","ROEBURNE/POINT SAMSON","WICKHAM","WA","6720","AU","False","",""
"NORSEMAN","NORSEMAN","WIDGIEMOOLTHA","WA","6443","AU","False","",""
"METRO","METRO","WILLAGEE","WA","6156","AU","False","",""
"METRO","METRO","WILLETTON","WA","6155","AU","False","",""
"DENMARK","DENMARK","WILLIAM BAY","WA","6333","AU","False","",""
"KALGOORLIE","KALGOORLIE","WILLIAMSTOWN","WA","6430","AU","False","",""
"ALBANY","ALBANY","WILLYUNG","WA","6330","AU","False","",""
"METRO","METRO","WILSON","WA","6107","AU","False","",""
"MARGARET RIVER","MARGARET RIVER","WILYABRUP","WA","6280","AU","False","",""
"METRO","METRO","WINTHROP","WA","6150","AU","False","",""
"SOUTH-WEST 2","SOUTH-WEST 2","WITCHCLIFFE","WA","6286","AU","False","",""
"BUNBURY","BUNBURY","WITHERS","WA","6230","AU","False","",""
"BUNBURY OUTER","BUNBURY OUTER","WOKALUP","WA","6221","AU","False","",""
"BUSSELTON","BUSSELTON","WONNERUP","WA","6280","AU","False","",""
"GERALDTON","GERALDTON","WONTHELLA","WA","6530","AU","False","",""
"WHEATBELT MID2","WHEATBELT MID2","WOODANILLING","WA","6316","AU","False","",""
"METRO","METRO","WOODBRIDGE","WA","6056","AU","False","",""
"METRO","METRO","WOODLANDS","WA","6018","AU","False","",""
"METRO","METRO","WOODVALE","WA","6026","AU","False","",""
"ALBANY OUTER","ALBANY OUTER","WOOGENELLUP","WA","6324","AU","False","",""
"NORTHAM","NORTHAM","WOOROLOO","WA","6558","AU","False","",""
"GERALDTON","GERALDTON","WOORREE","WA","6530","AU","False","",""
"NORTHAM","NORTHAM","WUNDOWIE","WA","6560","AU","False","",""
"METRO","METRO","WUNGONG","WA","6112","AU","False","",""
"SOUTH-WEST 2","SOUTH-WEST 2","YABBERUP","WA","6239","AU","False","",""
"ALBANY","ALBANY","YAKAMIA","WA","6330","AU","False","",""
"MARGARET RIVER","MARGARET RIVER","YALLINGUP","WA","6282","AU","False","",""
"MARGARET RIVER","MARGARET RIVER","YALLINGUP SIDING","WA","6282","AU","False","",""
"BUSSELTON","BUSSELTON","YALYALUP","WA","6280","AU","False","",""
"YANCHEP-LANCELIN","YANCHEP-LANCELIN","YANCHEP","WA","6035","AU","False","",""
"METRO","METRO","YANGEBUP","WA","6164","AU","False","",""
"SOUTH-WEST 2","SOUTH-WEST 2","YANMAH","WA","6258","AU","False","",""
"DONGARRA","DONGARRA","YARDARINO","WA","6525","AU","False","",""
"PEEL","PEEL","YARLOOP","WA","6218","AU","False","",""
"MARGARET RIVER","MARGARET RIVER","YELVERTON","WA","6280","AU","False","",""
"KALGOORLIE","KALGOORLIE","YILKARI","WA","6430","AU","False","",""
"METRO","METRO","YIRRIGAN ","WA","6061","AU","False","",""
"BUSSELTON","BUSSELTON","YOGANUP","WA","6275","AU","False","",""
"METRO","METRO","YOKINE","WA","6060","AU","False","",""
"BUSSELTON","BUSSELTON","YOONGARILLUP","WA","6280","AU","False","",""
"WHEATBELT MID1","WHEATBELT MID1","YORK","WA","6302","AU","False","",""
"BRIDGETOWN","BRIDGETOWN","YORNUP","WA","6256","AU","False","",""
"ALBANY OUTER","ALBANY OUTER","YOUNGS SIDING","WA","6330","AU","False","",""
