"Zone","ParentZone","Locality","State","Postcode","CountryCode","RemoteArea","RemoteAreaFees1","RemoteAreaFees2"
"ABBOTSBURY","1","ABBOTSBURY","NSW","2176","AU","False","",""
"ABBOTSFORD","1","ABBOTSFORD","NSW","2046","AU","False","",""
"ACACIA GARDENS","1","ACACIA GARDENS","NSW","2763","AU","False","",""
"AIRDS","1","AIRDS","NSW","2560","AU","False","",""
"ALEXANDRIA","1","ALEXANDRIA","NSW","2015","AU","False","",""
"ALFORDS POINT","1","ALFORDS POINT","NSW","2234","AU","False","",""
"ALLAMBIE","1","ALLAMBIE","NSW","2100","AU","False","",""
"ALLAMBIE HEIGHTS","1","ALLAMBIE HEIGHTS","NSW","2100","AU","False","",""
"ALLAWAH","1","ALLAWAH","NSW","2218","AU","False","",""
"AMBARVALE","1","AMBARVALE","NSW","2560","AU","False","",""
"ANNANDALE","1","ANNANDALE","NSW","2038","AU","False","",""
"ANZAC VILLAGE","1","ANZAC VILLAGE ","NSW","2173","AU","False","",""
"ARNCLIFFE","1","ARNCLIFFE","NSW","2205","AU","False","",""
"ARNDELL PARK","1","ARNDELL PARK","NSW","2148","AU","False","",""
"ARTARMON","1","ARTARMON","NSW","2064","AU","False","",""
"ASHBURY","1","ASHBURY","NSW","2193","AU","False","",""
"ASHCROFT","1","ASHCROFT","NSW","2168","AU","False","",""
"ASHFIELD","1","ASHFIELD","NSW","2131","AU","False","",""
"ASQUITH","1","ASQUITH","NSW","2077","AU","False","",""
"AUBURN","1","AUBURN","NSW","2144","AU","False","",""
"AUBURN SOUTH","1","AUBURN SOUTH","NSW","2144","AU","False","",""
"AVALON","1","AVALON","NSW","2107","AU","False","",""
"AVALON BEACH","1","AVALON BEACH","NSW","2107","AU","False","",""
"BALGOWLAH","1","BALGOWLAH","NSW","2093","AU","False","",""
"BALGOWLAH HEIGHTS","1","BALGOWLAH HEIGHTS","NSW","2093","AU","False","",""
"BALMAIN","1","BALMAIN","NSW","2041","AU","False","",""
"BALMAIN EAST","1","BALMAIN EAST","NSW","2041","AU","False","",""
"BALMORAL BEACH","1","BALMORAL BEACH ","NSW","2088","AU","False","",""
"BANGOR","1","BANGOR","NSW","2234","AU","False","",""
"BANKSIA","1","BANKSIA","NSW","2216","AU","False","",""
"BANKSMEADOW","1","BANKSMEADOW","NSW","2019","AU","False","",""
"BANKSTOWN","1","BANKSTOWN","NSW","2200","AU","False","",""
"BANKSTOWN SOUTH","1","BANKSTOWN SOUTH","NSW","2200","AU","False","",""
"BANKSTOWN WEST","1","BANKSTOWN WEST","NSW","2200","AU","False","",""
"BARANGAROO","1","BARANGAROO","NSW","2000","AU","False","",""
"BARDEN RIDGE","1","BARDEN RIDGE","NSW","2234","AU","False","",""
"BARDWELL PARK","1","BARDWELL PARK","NSW","2207","AU","False","",""
"BARDWELL VALLEY","1","BARDWELL VALLEY","NSW","2207","AU","False","",""
"BASS HILL","1","BASS HILL","NSW","2197","AU","False","",""
"BAULKHAM HILLS","1","BAULKHAM HILLS","NSW","2153","AU","False","",""
"BAYVIEW","1","BAYVIEW","NSW","2104","AU","False","",""
"BEACON HILL","1","BEACON HILL","NSW","2100","AU","False","",""
"BEACONSFIELD","1","BEACONSFIELD","NSW","2015","AU","False","",""
"BEAUMONT HILLS","1","BEAUMONT HILLS","NSW","2155","AU","False","",""
"BEAUTY POINT","1","BEAUTY POINT","NSW","2088","AU","False","",""
"BEECROFT","1","BEECROFT","NSW","2119","AU","False","",""
"BELFIELD","1","BELFIELD","NSW","2191","AU","False","",""
"BELLA VISTA","1","BELLA VISTA","NSW","2153","AU","False","",""
"BELLEVUE HILL","1","BELLEVUE HILL","NSW","2023","AU","False","",""
"BELMORE","1","BELMORE","NSW","2192","AU","False","",""
"BELMORE SOUTH","1","BELMORE SOUTH","NSW","2192","AU","False","",""
"BELROSE","1","BELROSE","NSW","2085","AU","False","",""
"BENNELONG POINT","1","BENNELONG POINT","NSW","2000","AU","False","",""
"BERALA","1","BERALA","NSW","2141","AU","False","",""
"BERKSHIRE PARK","1","BERKSHIRE PARK","NSW","2765","AU","False","",""
"BEROWRA","1","BEROWRA","NSW","2081","AU","False","",""
"BEROWRA HEIGHTS","1","BEROWRA HEIGHTS","NSW","2082","AU","False","",""
"BEROWRA WATERS","1","BEROWRA WATERS","NSW","2082","AU","False","",""
"BEVERLEY PARK","1","BEVERLEY PARK","NSW","2217","AU","False","",""
"BEVERLY HILLS","1","BEVERLY HILLS","NSW","2209","AU","False","",""
"BEXLEY","1","BEXLEY","NSW","2207","AU","False","",""
"BEXLEY NORTH","1","BEXLEY NORTH","NSW","2207","AU","False","",""
"BEXLEY SOUTH","1","BEXLEY SOUTH","NSW","2207","AU","False","",""
"BIDWILL","1","BIDWILL","NSW","2770","AU","False","",""
"BILGOLA","1","BILGOLA","NSW","2107","AU","False","",""
"BILGOLA BEACH","1","BILGOLA BEACH","NSW","2107","AU","False","",""
"BILGOLA PLATEAU","1","BILGOLA PLATEAU","NSW","2107","AU","False","",""
"BIRCHGROVE","1","BIRCHGROVE","NSW","2041","AU","False","",""
"BIRRONG","1","BIRRONG","NSW","2143","AU","False","",""
"BLACKETT","1","BLACKETT","NSW","2770","AU","False","",""
"BLACKTOWN","1","BLACKTOWN","NSW","2148","AU","False","",""
"BLAIR ATHOL","1","BLAIR ATHOL","NSW","2560","AU","False","",""
"BLAIRMOUNT","1","BLAIRMOUNT","NSW","2559","AU","False","",""
"BLAKEHURST","1","BLAKEHURST","NSW","2221","AU","False","",""
"BLIGH PARK","1","BLIGH PARK","NSW","2756","AU","False","",""
"BONDI","1","BONDI","NSW","2026","AU","False","",""
"BONDI BEACH","1","BONDI BEACH","NSW","2026","AU","False","",""
"BONDI JUNCTION","1","BONDI JUNCTION","NSW","2022","AU","False","",""
"BONNET BAY","1","BONNET BAY","NSW","2226","AU","False","",""
"BONNYRIGG","1","BONNYRIGG","NSW","2177","AU","False","",""
"BONNYRIGG HEIGHTS","1","BONNYRIGG HEIGHTS","NSW","2177","AU","False","",""
"BORONIA PARK","1","BORONIA PARK","NSW","2111","AU","False","",""
"BOSSLEY PARK","1","BOSSLEY PARK","NSW","2176","AU","False","",""
"BOTANY","1","BOTANY","NSW","2019","AU","False","",""
"BOW BOWING","1","BOW BOWING","NSW","2566","AU","False","",""
"BOX HILL","1","BOX HILL","NSW","2765","AU","False","",""
"BRADBURY","1","BRADBURY","NSW","2560","AU","False","",""
"BREAKFAST POINT","1","BREAKFAST POINT","NSW","2137","AU","False","",""
"BRIGHTON-LE-SANDS","1","BRIGHTON-LE-SANDS","NSW","2216","AU","False","",""
"BROADWAY","1","BROADWAY","NSW","2007","AU","False","",""
"BRONTE","1","BRONTE","NSW","2024","AU","False","",""
"BROOKLYN","1","BROOKLYN","NSW","2083","AU","False","",""
"BROOKVALE","1","BROOKVALE","NSW","2100","AU","False","",""
"BROWNLOW HILL","1","BROWNLOW HILL","NSW","2570","AU","False","",""
"BUNGARRIBEE","1","BUNGARRIBEE","NSW","2766","AU","False","",""
"BURRANEER","1","BURRANEER","NSW","2230","AU","False","",""
"BURWOOD","1","BURWOOD","NSW","2134","AU","False","",""
"BURWOOD HEIGHTS","1","BURWOOD HEIGHTS","NSW","2136","AU","False","",""
"BUSBY","1","BUSBY","NSW","2168","AU","False","",""
"CABARITA","1","CABARITA","NSW","2137","AU","False","",""
"CABRAMATTA","1","CABRAMATTA","NSW","2166","AU","False","",""
"CABRAMATTA WEST","1","CABRAMATTA WEST","NSW","2166","AU","False","",""
"CADDENS","1","CADDENS","NSW","2747","AU","False","",""
"CAMBRIDGE GARDENS","1","CAMBRIDGE GARDENS","NSW","2747","AU","False","",""
"CAMBRIDGE PARK","1","CAMBRIDGE PARK","NSW","2747","AU","False","",""
"CAMDEN","1","CAMDEN","NSW","2570","AU","False","",""
"CAMDEN PARK","1","CAMDEN PARK","NSW","2570","AU","False","",""
"CAMDEN SOUTH","1","CAMDEN SOUTH","NSW","2570","AU","False","",""
"CAMELLIA","1","CAMELLIA","NSW","2142","AU","False","",""
"CAMMERAY","1","CAMMERAY","NSW","2062","AU","False","",""
"CAMPBELLTOWN","1","CAMPBELLTOWN","NSW","2560","AU","False","",""
"CAMPERDOWN","1","CAMPERDOWN","NSW","2050","AU","False","",""
"CAMPSIE","1","CAMPSIE","NSW","2194","AU","False","",""
"CANADA BAY","1","CANADA BAY","NSW","2046","AU","False","",""
"CANLEY HEIGHTS","1","CANLEY HEIGHTS","NSW","2166","AU","False","",""
"CANLEY VALE","1","CANLEY VALE","NSW","2166","AU","False","",""
"CANTERBURY","1","CANTERBURY","NSW","2193","AU","False","",""
"CAREEL BAY","1","CAREEL BAY","NSW","2107","AU","False","",""
"CARINGBAH","1","CARINGBAH","NSW","2229","AU","False","",""
"CARINGBAH SOUTH","1","CARINGBAH SOUTH","NSW","2229","AU","False","",""
"CARLINGFORD","1","CARLINGFORD","NSW","2118","AU","False","",""
"CARLTON","1","CARLTON","NSW","2218","AU","False","",""
"CARNES HILL","1","CARNES HILL","NSW","2171","AU","False","",""
"CARRAMAR","1","CARRAMAR","NSW","2163","AU","False","",""
"CARSS PARK","1","CARSS PARK","NSW","2221","AU","False","",""
"CARTWRIGHT","1","CARTWRIGHT","NSW","2168","AU","False","",""
"CASTLE COVE","1","CASTLE COVE","NSW","2069","AU","False","",""
"CASTLE HILL","1","CASTLE HILL","NSW","2154","AU","False","",""
"CASTLECRAG","1","CASTLECRAG","NSW","2068","AU","False","",""
"CASULA","1","CASULA","NSW","2170","AU","False","",""
"CECIL HILLS","1","CECIL HILLS","NSW","2171","AU","False","",""
"CENTENNIAL PARK","1","CENTENNIAL PARK","NSW","2021","AU","False","",""
"CENTRAL STATION","1","CENTRAL STATION","NSW","2000","AU","False","",""
"CHATSWOOD","1","CHATSWOOD","NSW","2067","AU","False","",""
"CHATSWOOD SOUTH","1","CHATSWOOD SOUTH","NSW","2067","AU","False","",""
"CHATSWOOD WEST","1","CHATSWOOD WEST","NSW","2067","AU","False","",""
"CHELTENHAM","1","CHELTENHAM","NSW","2119","AU","False","",""
"CHERRYBROOK","1","CHERRYBROOK","NSW","2126","AU","False","",""
"CHESTER HILL","1","CHESTER HILL","NSW","2162","AU","False","",""
"CHIFLEY","1","CHIFLEY","NSW","2036","AU","False","",""
"CHINATOWN","1","CHINATOWN","NSW","2000","AU","False","",""
"CHIPPENDALE","1","CHIPPENDALE","NSW","2008","AU","False","",""
"CHIPPING NORTON","1","CHIPPING NORTON","NSW","2170","AU","False","",""
"CHISWICK","1","CHISWICK","NSW","2046","AU","False","",""
"CHULLORA","1","CHULLORA","NSW","2190","AU","False","",""
"CHURCH POINT","1","CHURCH POINT","NSW","2105","AU","False","",""
"CIRCULAR QUAY","1","CIRCULAR QUAY ","NSW","2000","AU","False","",""
"CLAREMONT MEADOWS","1","CLAREMONT MEADOWS","NSW","2747","AU","False","",""
"CLARENDON","1","CLARENDON","NSW","2756","AU","False","",""
"CLAREVILLE","1","CLAREVILLE","NSW","2107","AU","False","",""
"CLAYMORE","1","CLAYMORE","NSW","2560","AU","False","",""
"CLEMTON PARK","1","CLEMTON PARK","NSW","2206","AU","False","",""
"CLONTARF","1","CLONTARF","NSW","2093","AU","False","",""
"CLOVELLY","1","CLOVELLY","NSW","2031","AU","False","",""
"CLOVELLY BAY","1","CLOVELLY BAY","NSW","2031","AU","False","",""
"CLYBURN","1","CLYBURN","NSW","2144","AU","False","",""
"CLYDE","1","CLYDE","NSW","2142","AU","False","",""
"COLEBEE","1","COLEBEE","NSW","2761","AU","False","",""
"COLLAROY","1","COLLAROY","NSW","2097","AU","False","",""
"COLLAROY BEACH","1","COLLAROY BEACH","NSW","2097","AU","False","",""
"COLLAROY PLATEAU","1","COLLAROY PLATEAU","NSW","2097","AU","False","",""
"COLYTON","1","COLYTON","NSW","2760","AU","False","",""
"COMO","1","COMO","NSW","2226","AU","False","",""
"COMO WEST","1","COMO WEST","NSW","2226","AU","False","",""
"CONCORD","1","CONCORD","NSW","2137","AU","False","",""
"CONCORD WEST","1","CONCORD WEST","NSW","2138","AU","False","",""
"CONDELL PARK","1","CONDELL PARK","NSW","2200","AU","False","",""
"CONNELLS POINT","1","CONNELLS POINT","NSW","2221","AU","False","",""
"CONSTITUTION HILL","1","CONSTITUTION HILL","NSW","2145","AU","False","",""
"COOGEE","1","COOGEE","NSW","2034","AU","False","",""
"COOGEE BAY","1","COOGEE BAY ","NSW","2034","AU","False","",""
"COWAN","1","COWAN","NSW","2081","AU","False","",""
"CREMORNE","1","CREMORNE","NSW","2090","AU","False","",""
"CREMORNE POINT","1","CREMORNE POINT","NSW","2090","AU","False","",""
"CROMER","1","CROMER","NSW","2099","AU","False","",""
"CROMER HEIGHTS","1","CROMER HEIGHTS","NSW","2099","AU","False","",""
"CRONULLA","1","CRONULLA","NSW","2230","AU","False","",""
"CROSSROADS","1","CROSSROADS","NSW","2170","AU","False","",""
"CROWS NEST","1","CROWS NEST","NSW","2065","AU","False","",""
"CROYDON","1","CROYDON","NSW","2132","AU","False","",""
"CROYDON NORTH","1","CROYDON NORTH","NSW","2132","AU","False","",""
"CROYDON PARK","1","CROYDON PARK","NSW","2133","AU","False","",""
"CURL CURL","1","CURL CURL","NSW","2096","AU","False","",""
"CURRANS HILL","1","CURRANS HILL","NSW","2567","AU","False","",""
"DACEYVILLE","1","DACEYVILLE","NSW","2032","AU","False","",""
"DARLING HARBOUR","1","DARLING HARBOUR","NSW","2000","AU","False","",""
"DARLING HARBOUR CTL","1","DARLING HARBOUR CTL","NSW","2000","AU","False","",""
"DARLING POINT","1","DARLING POINT","NSW","2027","AU","False","",""
"DARLINGHURST","1","DARLINGHURST","NSW","2010","AU","False","",""
"DARLINGTON","1","DARLINGTON","NSW","2008","AU","False","",""
"DAVIDSON","1","DAVIDSON","NSW","2085","AU","False","",""
"DAWES POINT","1","DAWES POINT","NSW","2000","AU","False","",""
"DEAN PARK","1","DEAN PARK","NSW","2761","AU","False","",""
"DEE WHY","1","DEE WHY","NSW","2099","AU","False","",""
"DEE WHY WEST","1","DEE WHY WEST ","NSW","2099","AU","False","",""
"DENISTONE","1","DENISTONE","NSW","2114","AU","False","",""
"DENISTONE EAST","1","DENISTONE EAST","NSW","2112","AU","False","",""
"DENISTONE WEST","1","DENISTONE WEST","NSW","2114","AU","False","",""
"DHARRUK","1","DHARRUK","NSW","2770","AU","False","",""
"DOBROYD POINT","1","DOBROYD POINT","NSW","2045","AU","False","",""
"DOLANS BAY","1","DOLANS BAY","NSW","2229","AU","False","",""
"DOLLS POINT","1","DOLLS POINT","NSW","2219","AU","False","",""
"DOMAIN","1","DOMAIN","NSW","2000","AU","False","",""
"DOONSIDE","1","DOONSIDE","NSW","2767","AU","False","",""
"DOUBLE BAY","1","DOUBLE BAY","NSW","2028","AU","False","",""
"DOVER HEIGHTS","1","DOVER HEIGHTS","NSW","2030","AU","False","",""
"DRUMMOYNE","1","DRUMMOYNE","NSW","2047","AU","False","",""
"DUFFYS FOREST","1","DUFFYS FOREST","NSW","2084","AU","False","",""
"DULWICH HILL","1","DULWICH HILL","NSW","2203","AU","False","",""
"DUNDAS","1","DUNDAS","NSW","2117","AU","False","",""
"DUNDAS VALLEY","1","DUNDAS VALLEY","NSW","2117","AU","False","",""
"DUNHEVED","1","DUNHEVED ","NSW","2760","AU","False","",""
"DURAL","1","DURAL","NSW","2158","AU","False","",""
"DURAL SOUTH","1","DURAL SOUTH","NSW","2158","AU","False","",""
"EAGLE VALE","1","EAGLE VALE","NSW","2558","AU","False","",""
"EARLWOOD","1","EARLWOOD","NSW","2206","AU","False","",""
"EAST BOTANY","1","EAST BOTANY ","NSW","2019","AU","False","",""
"EAST GARDENS","1","EAST GARDENS","NSW","2035","AU","False","",""
"EAST GORDON","1","EAST GORDON","NSW","2072","AU","False","",""
"EAST HILLS","1","EAST HILLS","NSW","2213","AU","False","",""
"EAST KILLARA","1","EAST KILLARA","NSW","2071","AU","False","",""
"EAST LINDFIELD","1","EAST LINDFIELD","NSW","2070","AU","False","",""
"EAST ROSEVILLE","1","EAST ROSEVILLE ","NSW","2069","AU","False","",""
"EAST RYDE","1","EAST RYDE","NSW","2113","AU","False","",""
"EAST SYDNEY","1","EAST SYDNEY","NSW","2010","AU","False","",""
"EAST WAHROONGA","1","EAST WAHROONGA","NSW","2076","AU","False","",""
"EASTERN CREEK","1","EASTERN CREEK","NSW","2766","AU","False","",""
"EASTGARDENS","1","EASTGARDENS","NSW","2036","AU","False","",""
"EASTLAKES","1","EASTLAKES","NSW","2018","AU","False","",""
"EASTWOOD","1","EASTWOOD","NSW","2122","AU","False","",""
"EDENSOR PARK","1","EDENSOR PARK","NSW","2176","AU","False","",""
"EDGECLIFF","1","EDGECLIFF","NSW","2027","AU","False","",""
"EDMONDSON PARK","1","EDMONDSON PARK","NSW","2171","AU","False","",""
"ELANORA HEIGHTS","1","ELANORA HEIGHTS","NSW","2101","AU","False","",""
"ELDERSLIE","1","ELDERSLIE","NSW","2570","AU","False","",""
"ELIZABETH BAY","1","ELIZABETH BAY","NSW","2011","AU","False","",""
"ELIZABETH HILLS","1","ELIZABETH HILLS","NSW","2171","AU","False","",""
"EMERTON","1","EMERTON","NSW","2770","AU","False","",""
"EMU HEIGHTS","1","EMU HEIGHTS","NSW","2750","AU","False","",""
"EMU PLAINS","1","EMU PLAINS","NSW","2750","AU","False","",""
"ENFIELD","1","ENFIELD","NSW","2136","AU","False","",""
"ENFIELD SOUTH","1","ENFIELD SOUTH","NSW","2133","AU","False","",""
"ENFIELD WEST","1","ENFIELD WEST","NSW","2136","AU","False","",""
"ENGADINE","1","ENGADINE","NSW","2233","AU","False","",""
"ENGLORIE PARK","1","ENGLORIE PARK","NSW","2560","AU","False","",""
"ENMORE","1","ENMORE","NSW","2042","AU","False","",""
"EPPING","1","EPPING","NSW","2121","AU","False","",""
"EPPING WEST","1","EPPING WEST","NSW","2121","AU","False","",""
"ERMINGTON","1","ERMINGTON","NSW","2115","AU","False","",""
"ERSKINE PARK","1","ERSKINE PARK","NSW","2759","AU","False","",""
"ERSKINEVILLE","1","ERSKINEVILLE","NSW","2043","AU","False","",""
"ESCHOL PARK","1","ESCHOL PARK","NSW","2558","AU","False","",""
"EVELEIGH","1","EVELEIGH","NSW","2015","AU","False","",""
"FAIRFIELD","1","FAIRFIELD","NSW","2165","AU","False","",""
"FAIRFIELD EAST","1","FAIRFIELD EAST","NSW","2165","AU","False","",""
"FAIRFIELD HEIGHTS","1","FAIRFIELD HEIGHTS","NSW","2165","AU","False","",""
"FAIRFIELD SOUTH","1","FAIRFIELD SOUTH","NSW","2165","AU","False","",""
"FAIRFIELD WEST","1","FAIRFIELD WEST","NSW","2165","AU","False","",""
"FAIRLIGHT","1","FAIRLIGHT","NSW","2094","AU","False","",""
"FIVE DOCK","1","FIVE DOCK","NSW","2046","AU","False","",""
"FLEMINGTON","1","FLEMINGTON","NSW","2140","AU","False","",""
"FLEMINGTON MARKETS","1","FLEMINGTON MARKETS ","NSW","2129","AU","False","",""
"FOREST LODGE","1","FOREST LODGE","NSW","2037","AU","False","",""
"FORESTVILLE","1","FORESTVILLE","NSW","2087","AU","False","",""
"FRENCHS FOREST","1","FRENCHS FOREST","NSW","2086","AU","False","",""
"FRENCHS FOREST EAST","1","FRENCHS FOREST EAST","NSW","2086","AU","False","",""
"FRESHWATER","1","FRESHWATER","NSW","2096","AU","False","",""
"FULLERS BRIDGE","1","FULLERS BRIDGE","NSW","2067","AU","False","",""
"GARDEN ISLAND","1","GARDEN ISLAND","NSW","2000","AU","False","",""
"GEORGES HALL","1","GEORGES HALL","NSW","2198","AU","False","",""
"GEORGES HEIGHTS","1","GEORGES HEIGHTS","NSW","2088","AU","False","",""
"GIRRAWEEN","1","GIRRAWEEN","NSW","2145","AU","False","",""
"GLADESVILLE","1","GLADESVILLE","NSW","2111","AU","False","",""
"GLEBE","1","GLEBE","NSW","2037","AU","False","",""
"GLEBE POINT","1","GLEBE POINT","NSW","2037","AU","False","",""
"GLEN ALPINE","1","GLEN ALPINE","NSW","2560","AU","False","",""
"GLENDENNING","1","GLENDENNING","NSW","2761","AU","False","",""
"GLENFIELD","1","GLENFIELD","NSW","2167","AU","False","",""
"GLENHAVEN","1","GLENHAVEN","NSW","2156","AU","False","",""
"GLENMORE PARK","1","GLENMORE PARK","NSW","2745","AU","False","",""
"GLENWOOD","1","GLENWOOD","NSW","2768","AU","False","",""
"GORDON","1","GORDON","NSW","2072","AU","False","",""
"GORDON WEST","1","GORDON WEST","NSW","2072","AU","False","",""
"GORE HILL","1","GORE HILL","NSW","2065","AU","False","",""
"GRANVILLE","1","GRANVILLE","NSW","2142","AU","False","",""
"GRANVILLE SOUTH","1","GRANVILLE SOUTH ","NSW","2142","AU","False","",""
"GRAYS POINT","1","GRAYS POINT","NSW","2232","AU","False","",""
"GREEN VALLEY","1","GREEN VALLEY","NSW","2168","AU","False","",""
"GREENACRE","1","GREENACRE","NSW","2190","AU","False","",""
"GREENFIELD PARK","1","GREENFIELD PARK","NSW","2176","AU","False","",""
"GREENHILLS BEACH","1","GREENHILLS BEACH","NSW","2230","AU","False","",""
"GREENWICH","1","GREENWICH","NSW","2065","AU","False","",""
"GREENWICH POINT","1","GREENWICH POINT ","NSW","2065","AU","False","",""
"GREGORY HILLS","1","GREGORY HILLS","NSW","2557","AU","False","",""
"GREYSTANES","1","GREYSTANES","NSW","2145","AU","False","",""
"GUILDFORD","1","GUILDFORD","NSW","2161","AU","False","",""
"GUILDFORD WEST","1","GUILDFORD WEST","NSW","2161","AU","False","",""
"GUNNAMATTA BAY","1","GUNNAMATTA BAY ","NSW","2230","AU","False","",""
"GYMEA","1","GYMEA","NSW","2227","AU","False","",""
"GYMEA BAY","1","GYMEA BAY","NSW","2227","AU","False","",""
"HABERFIELD","1","HABERFIELD","NSW","2045","AU","False","",""
"HAMMONDVILLE","1","HAMMONDVILLE","NSW","2170","AU","False","",""
"HARBORD","1","HARBORD","NSW","2096","AU","False","",""
"HARRINGTON PARK","1","HARRINGTON PARK","NSW","2567","AU","False","",""
"HARRIS PARK","1","HARRIS PARK","NSW","2150","AU","False","",""
"HASSALL GROVE","1","HASSALL GROVE","NSW","2770","AU","False","",""
"HAYMARKET","1","HAYMARKET","NSW","2000","AU","False","",""
"HEATHCOTE","1","HEATHCOTE","NSW","2233","AU","False","",""
"HEBERSHAM","1","HEBERSHAM","NSW","2770","AU","False","",""
"HECKENBERG","1","HECKENBERG","NSW","2168","AU","False","",""
"HENLEY","1","HENLEY","NSW","2111","AU","False","",""
"HILLSDALE","1","HILLSDALE","NSW","2036","AU","False","",""
"HINCHINBROOK","1","HINCHINBROOK","NSW","2171","AU","False","",""
"HOBARTVILLE","1","HOBARTVILLE","NSW","2753","AU","False","",""
"HOLROYD","1","HOLROYD","NSW","2142","AU","False","",""
"HOLSWORTHY","1","HOLSWORTHY","NSW","2173","AU","False","",""
"HOLSWORTHY BARRACKS","1","HOLSWORTHY BARRACKS","NSW","2173","AU","False","",""
"HOMEBUSH","1","HOMEBUSH","NSW","2140","AU","False","",""
"HOMEBUSH BAY","1","HOMEBUSH BAY","NSW","2140","AU","False","",""
"HOMEBUSH WEST","1","HOMEBUSH WEST","NSW","2140","AU","False","",""
"HORNINGSEA PARK","1","HORNINGSEA PARK","NSW","2171","AU","False","",""
"HORNSBY","1","HORNSBY","NSW","2077","AU","False","",""
"HORNSBY HEIGHTS","1","HORNSBY HEIGHTS","NSW","2077","AU","False","",""
"HOXTON PARK","1","HOXTON PARK","NSW","2171","AU","False","",""
"HUNTERS HILL","1","HUNTERS HILL","NSW","2110","AU","False","",""
"HUNTINGWOOD","1","HUNTINGWOOD","NSW","2148","AU","False","",""
"HUNTINGWOOD EAST","1","HUNTINGWOOD EAST","NSW","2148","AU","False","",""
"HUNTINGWOOD WEST","1","HUNTINGWOOD WEST","NSW","2148","AU","False","",""
"HUNTLEYS COVE","1","HUNTLEYS COVE","NSW","2111","AU","False","",""
"HUNTLEYS POINT","1","HUNTLEYS POINT","NSW","2111","AU","False","",""
"HURLSTONE PARK","1","HURLSTONE PARK","NSW","2193","AU","False","",""
"HURSTVILLE","1","HURSTVILLE","NSW","2220","AU","False","",""
"HURSTVILLE GROVE","1","HURSTVILLE GROVE","NSW","2220","AU","False","",""
"HURSTVILLE SOUTH","1","HURSTVILLE SOUTH ","NSW","2221","AU","False","",""
"ILLAWONG","1","ILLAWONG","NSW","2234","AU","False","",""
"INGLEBURN","1","INGLEBURN","NSW","2565","AU","False","",""
"INGLESIDE","1","INGLESIDE","NSW","2101","AU","False","",""
"JAMISONTOWN","1","JAMISONTOWN","NSW","2750","AU","False","",""
"JANNALI","1","JANNALI","NSW","2226","AU","False","",""
"KANGAROO POINT","1","KANGAROO POINT","NSW","2224","AU","False","",""
"KAREELA","1","KAREELA","NSW","2232","AU","False","",""
"KEARNS","1","KEARNS","NSW","2558","AU","False","",""
"KELLYVILLE","1","KELLYVILLE","NSW","2155","AU","False","",""
"KELLYVILLE RIDGE","1","KELLYVILLE RIDGE","NSW","2155","AU","False","",""
"KENSINGTON","1","KENSINGTON","NSW","2033","AU","False","",""
"KENTLYN","1","KENTLYN","NSW","2560","AU","False","",""
"KILLARA","1","KILLARA","NSW","2071","AU","False","",""
"KILLARNEY HEIGHTS","1","KILLARNEY HEIGHTS","NSW","2087","AU","False","",""
"KINGS CROSS","1","KINGS CROSS","NSW","2011","AU","False","",""
"KINGS LANGLEY","1","KINGS LANGLEY","NSW","2147","AU","False","",""
"KINGS PARK","1","KINGS PARK","NSW","2148","AU","False","",""
"KINGSFORD","1","KINGSFORD","NSW","2032","AU","False","",""
"KINGSGROVE","1","KINGSGROVE","NSW","2208","AU","False","",""
"KINGSWOOD","1","KINGSWOOD","NSW","2747","AU","False","",""
"KIRRAWEE","1","KIRRAWEE","NSW","2232","AU","False","",""
"KIRRIBILLI","1","KIRRIBILLI","NSW","2061","AU","False","",""
"KOGARAH","1","KOGARAH","NSW","2217","AU","False","",""
"KOGARAH BAY","1","KOGARAH BAY","NSW","2217","AU","False","",""
"KU-RING-GAI CHASE","1","KU-RING-GAI CHASE","NSW","2105","AU","False","",""
"KURMOND","1","KURMOND","NSW","2757","AU","False","",""
"KURNELL","1","KURNELL","NSW","2231","AU","False","",""
"KURRABA POINT","1","KURRABA POINT","NSW","2089","AU","False","",""
"KYEEMAGH","1","KYEEMAGH","NSW","2216","AU","False","",""
"KYLE BAY","1","KYLE BAY","NSW","2221","AU","False","",""
"LA PEROUSE","1","LA PEROUSE","NSW","2036","AU","False","",""
"LAKEMBA","1","LAKEMBA","NSW","2195","AU","False","",""
"LAKEMBA NORTH","1","LAKEMBA NORTH","NSW","2195","AU","False","",""
"LALOR PARK","1","LALOR PARK","NSW","2147","AU","False","",""
"LANE COVE","1","LANE COVE","NSW","2066","AU","False","",""
"LANE COVE NORTH","1","LANE COVE NORTH","NSW","2066","AU","False","",""
"LANE COVE WEST","1","LANE COVE WEST","NSW","2066","AU","False","",""
"LANSDOWNE","1","LANSDOWNE","NSW","2166","AU","False","",""
"LANSVALE","1","LANSVALE","NSW","2166","AU","False","",""
"LAVENDER BAY","1","LAVENDER BAY","NSW","2060","AU","False","",""
"LEICHHARDT","1","LEICHHARDT","NSW","2040","AU","False","",""
"LEIGHTONFIELD","1","LEIGHTONFIELD ","NSW","2163","AU","False","",""
"LEN WATERS ESTATE","1","LEN WATERS ESTATE","NSW","2151","AU","False","",""
"LEONAY","1","LEONAY","NSW","2750","AU","False","",""
"LETHBRIDGE PARK","1","LETHBRIDGE PARK","NSW","2770","AU","False","",""
"LEUMEAH","1","LEUMEAH","NSW","2560","AU","False","",""
"LEWISHAM","1","LEWISHAM","NSW","2049","AU","False","",""
"LIBERTY GROVE","1","LIBERTY GROVE","NSW","2130","AU","False","",""
"LIDCOMBE","1","LIDCOMBE","NSW","2141","AU","False","",""
"LILLI PILLI","1","LILLI PILLI","NSW","2229","AU","False","",""
"LILYFIELD","1","LILYFIELD","NSW","2040","AU","False","",""
"LINDFIELD","1","LINDFIELD","NSW","2070","AU","False","",""
"LINLEY POINT","1","LINLEY POINT","NSW","2066","AU","False","",""
"LITTLE BAY","1","LITTLE BAY","NSW","2036","AU","False","",""
"LIVERPOOL","1","LIVERPOOL","NSW","2170","AU","False","",""
"LIVERPOOL WEST","1","LIVERPOOL WEST","NSW","2170","AU","False","",""
"LOFTUS","1","LOFTUS","NSW","2232","AU","False","",""
"LONDONDERRY","1","LONDONDERRY","NSW","2753","AU","False","",""
"LONG BAY","1","LONG BAY ","NSW","2036","AU","False","",""
"LONG POINT","1","LONG POINT","NSW","2564","AU","False","",""
"LONGUEVILLE","1","LONGUEVILLE","NSW","2066","AU","False","",""
"LUCAS HEIGHTS","1","LUCAS HEIGHTS","NSW","2234","AU","False","",""
"LUGARNO","1","LUGARNO","NSW","2210","AU","False","",""
"LUGARNO SOUTH","1","LUGARNO SOUTH","NSW","2210","AU","False","",""
"LURNEA","1","LURNEA","NSW","2170","AU","False","",""
"MACDONALDTOWN","1","MACDONALDTOWN","NSW","2042","AU","False","",""
"MACQUARIE FIELDS","1","MACQUARIE FIELDS","NSW","2564","AU","False","",""
"MACQUARIE LINKS","1","MACQUARIE LINKS","NSW","2565","AU","False","",""
"MACQUARIE PARK","1","MACQUARIE PARK","NSW","2113","AU","False","",""
"MALABAR","1","MALABAR","NSW","2036","AU","False","",""
"MANAHAN","1","MANAHAN","NSW","2200","AU","False","",""
"MANLY","1","MANLY","NSW","2095","AU","False","",""
"MANLY VALE","1","MANLY VALE","NSW","2093","AU","False","",""
"MARAYONG","1","MARAYONG","NSW","2148","AU","False","",""
"MAROUBRA","1","MAROUBRA","NSW","2035","AU","False","",""
"MAROUBRA JUNCTION","1","MAROUBRA JUNCTION","NSW","2035","AU","False","",""
"MARRICKVILLE","1","MARRICKVILLE","NSW","2204","AU","False","",""
"MARRICKVILLE SOUTH","1","MARRICKVILLE SOUTH","NSW","2204","AU","False","",""
"MARSDEN PARK","1","MARSDEN PARK","NSW","2765","AU","False","",""
"MARSFIELD","1","MARSFIELD","NSW","2122","AU","False","",""
"MASCOT","1","MASCOT","NSW","2020","AU","False","",""
"MATRAVILLE","1","MATRAVILLE","NSW","2036","AU","False","",""
"MAYS HILL","1","MAYS HILL","NSW","2145","AU","False","",""
"MCGRATHS HILL","1","MCGRATHS HILL","NSW","2756","AU","False","",""
"MCMAHONS POINT","1","MCMAHONS POINT","NSW","2060","AU","False","",""
"MEADOWBANK","1","MEADOWBANK","NSW","2114","AU","False","",""
"MELROSE PARK","1","MELROSE PARK","NSW","2114","AU","False","",""
"MENAI","1","MENAI","NSW","2234","AU","False","",""
"MERRYLANDS","1","MERRYLANDS","NSW","2160","AU","False","",""
"MERRYLANDS WEST","1","MERRYLANDS WEST","NSW","2160","AU","False","",""
"MIDDLE COVE","1","MIDDLE COVE","NSW","2068","AU","False","",""
"MIDDLE HEAD","1","MIDDLE HEAD ","NSW","2088","AU","False","",""
"MIDDLETON GRANGE","1","MIDDLETON GRANGE","NSW","2171","AU","False","",""
"MILLER","1","MILLER","NSW","2168","AU","False","",""
"MILLERS POINT","1","MILLERS POINT","NSW","2000","AU","False","",""
"MILPERRA","1","MILPERRA","NSW","2214","AU","False","",""
"MILSONS POINT","1","MILSONS POINT","NSW","2061","AU","False","",""
"MINCHINBURY","1","MINCHINBURY","NSW","2770","AU","False","",""
"MINTO","1","MINTO","NSW","2566","AU","False","",""
"MINTO HEIGHTS","1","MINTO HEIGHTS","NSW","2566","AU","False","",""
"MIRANDA","1","MIRANDA","NSW","2228","AU","False","",""
"MONA VALE","1","MONA VALE","NSW","2103","AU","False","",""
"MONTEREY","1","MONTEREY","NSW","2217","AU","False","",""
"MOORE PARK","1","MOORE PARK","NSW","2021","AU","False","",""
"MOOREBANK","1","MOOREBANK","NSW","2170","AU","False","",""
"MORTDALE","1","MORTDALE","NSW","2223","AU","False","",""
"MORTLAKE","1","MORTLAKE","NSW","2137","AU","False","",""
"MOSMAN","1","MOSMAN","NSW","2088","AU","False","",""
"MOUNT ANNAN","1","MOUNT ANNAN","NSW","2567","AU","False","",""
"MOUNT DRUITT","1","MOUNT DRUITT","NSW","2770","AU","False","",""
"MOUNT LEWIS","1","MOUNT LEWIS","NSW","2200","AU","False","",""
"MOUNT PRITCHARD","1","MOUNT PRITCHARD","NSW","2170","AU","False","",""
"MT COLAH","1","MT COLAH ","NSW","2079","AU","False","",""
"MT KURING-GAI","1","MT KURING-GAI","NSW","2080","AU","False","",""
"MT PRITCHARD","1","MT PRITCHARD ","NSW","2170","AU","False","",""
"MULGRAVE","1","MULGRAVE","NSW","2756","AU","False","",""
"NARELLAN","1","NARELLAN","NSW","2567","AU","False","",""
"NARELLAN VALE","1","NARELLAN VALE","NSW","2567","AU","False","",""
"NAREMBURN","1","NAREMBURN","NSW","2065","AU","False","",""
"NARRABEEN","1","NARRABEEN","NSW","2101","AU","False","",""
"NARRAWEENA","1","NARRAWEENA","NSW","2099","AU","False","",""
"NARWEE","1","NARWEE","NSW","2209","AU","False","",""
"NEUTRAL BAY","1","NEUTRAL BAY","NSW","2089","AU","False","",""
"NEWINGTON","1","NEWINGTON","NSW","2127","AU","False","",""
"NEWPORT","1","NEWPORT","NSW","2106","AU","False","",""
"NEWPORT BEACH","1","NEWPORT BEACH","NSW","2106","AU","False","",""
"NEWTOWN","1","NEWTOWN","NSW","2042","AU","False","",""
"NORMANHURST","1","NORMANHURST","NSW","2076","AU","False","",""
"NORTH AUBURN","1","NORTH AUBURN ","NSW","2144","AU","False","",""
"NORTH BALGOWLAH","1","NORTH BALGOWLAH","NSW","2093","AU","False","",""
"NORTH BONDI","1","NORTH BONDI","NSW","2026","AU","False","",""
"NORTH CRONULLA","1","NORTH CRONULLA","NSW","2230","AU","False","",""
"NORTH CURL CURL","1","NORTH CURL CURL","NSW","2099","AU","False","",""
"NORTH ENGADINE","1","NORTH ENGADINE","NSW","2233","AU","False","",""
"NORTH EPPING","1","NORTH EPPING","NSW","2121","AU","False","",""
"NORTH LIDCOMBE","1","NORTH LIDCOMBE ","NSW","2141","AU","False","",""
"NORTH MANLY","1","NORTH MANLY","NSW","2100","AU","False","",""
"NORTH NARRABEEN","1","NORTH NARRABEEN","NSW","2101","AU","False","",""
"NORTH PARRAMATTA","1","NORTH PARRAMATTA","NSW","2151","AU","False","",""
"NORTH RICHMOND","1","NORTH RICHMOND","NSW","2754","AU","False","",""
"NORTH ROCKS","1","NORTH ROCKS","NSW","2151","AU","False","",""
"NORTH RYDE","1","NORTH RYDE","NSW","2113","AU","False","",""
"NORTH SEAFORTH","1","NORTH SEAFORTH","NSW","2092","AU","False","",""
"NORTH ST IVES","1","NORTH ST IVES","NSW","2075","AU","False","",""
"NORTH ST MARYS","1","NORTH ST MARYS","NSW","2760","AU","False","",""
"NORTH STRATHFIELD","1","NORTH STRATHFIELD","NSW","2137","AU","False","",""
"NORTH SYDNEY","1","NORTH SYDNEY","NSW","2060","AU","False","",""
"NORTH TURRAMURRA","1","NORTH TURRAMURRA","NSW","2074","AU","False","",""
"NORTH WAHROONGA","1","NORTH WAHROONGA","NSW","2076","AU","False","",""
"NORTH WILLOUGHBY","1","NORTH WILLOUGHBY","NSW","2068","AU","False","",""
"NORTHBRIDGE","1","NORTHBRIDGE","NSW","2063","AU","False","",""
"NORTHMEAD","1","NORTHMEAD","NSW","2152","AU","False","",""
"NORTHWOOD","1","NORTHWOOD","NSW","2066","AU","False","",""
"OAKHURST","1","OAKHURST","NSW","2770","AU","False","",""
"OATLANDS","1","OATLANDS","NSW","2117","AU","False","",""
"OATLEY","1","OATLEY","NSW","2223","AU","False","",""
"OATLEY WEST","1","OATLEY WEST","NSW","2223","","False","",""
"OLD GUILDFORD","1","OLD GUILDFORD","NSW","2161","AU","False","",""
"OLD TOONGABBIE","1","OLD TOONGABBIE","NSW","2146","AU","False","",""
"ORAN PARK","1","ORAN PARK","NSW","2570","AU","False","",""
"OXFORD FALLS","1","OXFORD FALLS","NSW","2100","AU","False","",""
"OXLEY PARK","1","OXLEY PARK","NSW","2760","AU","False","",""
"OYSTER BAY","1","OYSTER BAY","NSW","2225","AU","False","",""
"PADDINGTON","1","PADDINGTON","NSW","2021","AU","False","",""
"PADSTOW","1","PADSTOW","NSW","2211","AU","False","",""
"PADSTOW HEIGHTS","1","PADSTOW HEIGHTS","NSW","2211","AU","False","",""
"PADSTOW NORTH","1","PADSTOW NORTH","NSW","2211","AU","False","",""
"PAGEWOOD","1","PAGEWOOD","NSW","2035","AU","False","",""
"PALM BEACH","1","PALM BEACH","NSW","2108","AU","False","",""
"PANANIA","1","PANANIA","NSW","2213","AU","False","",""
"PANANIA NORTH","1","PANANIA NORTH","NSW","2213","AU","False","",""
"PARKLEA","1","PARKLEA","NSW","2155","AU","False","",""
"PARRAMATTA","1","PARRAMATTA","NSW","2150","AU","False","",""
"PEAKHURST","1","PEAKHURST","NSW","2210","AU","False","",""
"PEAKHURST HEIGHTS","1","PEAKHURST HEIGHTS","NSW","2210","AU","False","",""
"PEAKHURST SOUTH","1","PEAKHURST SOUTH","NSW","2210","AU","False","",""
"PEAKHURST WEST","1","PEAKHURST WEST","NSW","2210","AU","False","",""
"PEMULWUY","1","PEMULWUY","NSW","2145","AU","False","",""
"PENDLE HILL","1","PENDLE HILL","NSW","2145","AU","False","",""
"PENNANT HILLS","1","PENNANT HILLS","NSW","2120","AU","False","",""
"PENRITH","1","PENRITH","NSW","2750","AU","False","",""
"PENSHURST","1","PENSHURST","NSW","2222","AU","False","",""
"PETERSHAM","1","PETERSHAM","NSW","2049","AU","False","",""
"PHILLIP BAY","1","PHILLIP BAY","NSW","2036","AU","False","",""
"PICNIC POINT","1","PICNIC POINT","NSW","2213","AU","False","",""
"PLEASURE POINT","1","PLEASURE POINT","NSW","2171","AU","False","",""
"PLUMPTON","1","PLUMPTON","NSW","2761","AU","False","",""
"POINT PIPER","1","POINT PIPER","NSW","2027","AU","False","",""
"PORT BOTANY","1","PORT BOTANY","NSW","2036","AU","False","",""
"PORT HACKING","1","PORT HACKING","NSW","2229","AU","False","",""
"POTTS HILL","1","POTTS HILL","NSW","2143","AU","False","",""
"POTTS POINT","1","POTTS POINT","NSW","2011","AU","False","",""
"PRAIRIEWOOD","1","PRAIRIEWOOD","NSW","2176","AU","False","",""
"PRESTONS","1","PRESTONS","NSW","2170","AU","False","",""
"PROSPECT","1","PROSPECT","NSW","2148","AU","False","",""
"PUNCHBOWL","1","PUNCHBOWL","NSW","2196","AU","False","",""
"PUNCHBOWL SOUTH","1","PUNCHBOWL SOUTH","NSW","2196","AU","False","",""
"PUTNEY","1","PUTNEY","NSW","2112","AU","False","",""
"PYMBLE","1","PYMBLE","NSW","2073","AU","False","",""
"PYRMONT","1","PYRMONT","NSW","2009","AU","False","",""
"QUAKERS HILL","1","QUAKERS HILL","NSW","2763","AU","False","",""
"QUEENS PARK","1","QUEENS PARK","NSW","2022","AU","False","",""
"QUEENSCLIFF","1","QUEENSCLIFF","NSW","2096","AU","False","",""
"RABY","1","RABY","NSW","2566","AU","False","",""
"RAMSGATE","1","RAMSGATE","NSW","2217","AU","False","",""
"RAMSGATE BEACH","1","RAMSGATE BEACH","NSW","2217","AU","False","",""
"RANDWICK","1","RANDWICK","NSW","2031","AU","False","",""
"REDFERN","1","REDFERN","NSW","2016","AU","False","",""
"REGENTS PARK","1","REGENTS PARK","NSW","2143","AU","False","",""
"REGENTVILLE","1","REGENTVILLE","NSW","2745","AU","False","",""
"REVESBY","1","REVESBY","NSW","2212","AU","False","",""
"REVESBY HEIGHTS","1","REVESBY HEIGHTS","NSW","2212","AU","False","",""
"REVESBY NORTH","1","REVESBY NORTH","NSW","2212","AU","False","",""
"RHODES","1","RHODES","NSW","2138","AU","False","",""
"RHODES WEST","1","RHODES WEST","NSW","2138","AU","False","",""
"RICHMOND","1","RICHMOND","NSW","2753","AU","False","",""
"RICHMOND RAAF","1","RICHMOND RAAF","NSW","2755","AU","False","",""
"RIVERSTONE","1","RIVERSTONE","NSW","2765","AU","False","",""
"RIVERVIEW","1","RIVERVIEW","NSW","2066","AU","False","",""
"RIVERWOOD","1","RIVERWOOD","NSW","2210","AU","False","",""
"ROCKDALE","1","ROCKDALE","NSW","2216","AU","False","",""
"RODD POINT","1","RODD POINT","NSW","2046","AU","False","",""
"ROGANS HILL","1","ROGANS HILL","NSW","2154","AU","False","",""
"ROOKWOOD","1","ROOKWOOD","NSW","2141","AU","False","",""
"ROOTY HILL","1","ROOTY HILL","NSW","2766","AU","False","",""
"ROOTY HILL SOUTH","1","ROOTY HILL SOUTH","NSW","2766","AU","False","",""
"ROPES CROSSING","1","ROPES CROSSING","NSW","2760","AU","False","",""
"ROSE BAY","1","ROSE BAY","NSW","2029","AU","False","",""
"ROSE BAY NORTH","1","ROSE BAY NORTH","NSW","2030","AU","False","",""
"ROSEBERY","1","ROSEBERY","NSW","2018","AU","False","",""
"ROSEHILL","1","ROSEHILL","NSW","2142","AU","False","",""
"ROSELANDS","1","ROSELANDS","NSW","2196","AU","False","",""
"ROSEMEADOW","1","ROSEMEADOW","NSW","2560","AU","False","",""
"ROSEVILLE","1","ROSEVILLE","NSW","2069","AU","False","",""
"ROSEVILLE CHASE","1","ROSEVILLE CHASE","NSW","2069","AU","False","",""
"ROUND CORNER","1","ROUND CORNER","NSW","2158","AU","False","",""
"ROUSE HILL","1","ROUSE HILL","NSW","2155","AU","False","",""
"ROZELLE","1","ROZELLE","NSW","2039","AU","False","",""
"RUSE","1","RUSE","NSW","2560","AU","False","",""
"RUSHCUTTERS BAY","1","RUSHCUTTERS BAY","NSW","2011","AU","False","",""
"RUSSELL LEA","1","RUSSELL LEA","NSW","2046","AU","False","",""
"RYDALMERE","1","RYDALMERE","NSW","2116","AU","False","",""
"RYDE","1","RYDE","NSW","2112","AU","False","",""
"SADLEIR","1","SADLEIR","NSW","2168","AU","False","",""
"SANDRINGHAM","1","SANDRINGHAM","NSW","2219","AU","False","",""
"SANDY POINT","1","SANDY POINT","NSW","2171","AU","False","",""
"SANS SOUCI","1","SANS SOUCI","NSW","2219","AU","False","",""
"SCHOFIELDS","1","SCHOFIELDS","NSW","2762","AU","False","",""
"SEAFORTH","1","SEAFORTH","NSW","2092","AU","False","",""
"SEFTON","1","SEFTON","NSW","2162","AU","False","",""
"SEVEN HILLS","1","SEVEN HILLS","NSW","2147","AU","False","",""
"SEVEN HILLS NORTH","1","SEVEN HILLS NORTH","NSW","2147","AU","False","",""
"SHALVEY","1","SHALVEY","NSW","2770","AU","False","",""
"SHANES PARK","1","SHANES PARK","NSW","2760","AU","False","",""
"SHEPHERD'S BAY","1","SHEPHERD'S BAY","NSW","2112","AU","False","",""
"SILVERWATER","1","SILVERWATER","NSW","2128","AU","False","",""
"SMEATON GRANGE","1","SMEATON GRANGE","NSW","2567","AU","False","",""
"SMITHFIELD","1","SMITHFIELD","NSW","2164","AU","False","",""
"SOUTH COOGEE","1","SOUTH COOGEE","NSW","2034","AU","False","",""
"SOUTH GRANVILLE","1","SOUTH GRANVILLE","NSW","2142","AU","False","",""
"SOUTH HURSTVILLE","1","SOUTH HURSTVILLE","NSW","2221","AU","False","",""
"SOUTH MAROUBRA","1","SOUTH MAROUBRA","NSW","2035","AU","False","",""
"SOUTH PENRITH","1","SOUTH PENRITH","NSW","2750","AU","False","",""
"SOUTH RIVERWOOD","1","SOUTH RIVERWOOD","NSW","2210","AU","False","",""
"SOUTH STRATHFIELD","1","SOUTH STRATHFIELD","NSW","2136","AU","False","",""
"SOUTH TURRAMURRA","1","SOUTH TURRAMURRA","NSW","2074","AU","False","",""
"SOUTH WENTWORTHVILL","1","SOUTH WENTWORTHVILL","NSW","2145","AU","False","",""
"SOUTH WINDSOR","1","SOUTH WINDSOR","NSW","2756","AU","False","",""
"SPIT JUNCTION","1","SPIT JUNCTION","NSW","2088","AU","False","",""
"SPRING FARM","1","SPRING FARM","NSW","2570","AU","False","",""
"ST ANDREWS","1","ST ANDREWS","NSW","2566","AU","False","",""
"ST CLAIR","1","ST CLAIR","NSW","2759","AU","False","",""
"ST HELENS PARK","1","ST HELENS PARK","NSW","2560","AU","False","",""
"ST IVES","1","ST IVES","NSW","2075","AU","False","",""
"ST IVES CHASE","1","ST IVES CHASE","NSW","2075","AU","False","",""
"ST JAMES","1","ST JAMES","NSW","2000","AU","False","",""
"ST JOHNS PARK","1","ST JOHNS PARK","NSW","2176","AU","False","",""
"ST LEONARDS","1","ST LEONARDS","NSW","2065","AU","False","",""
"ST MARYS","1","ST MARYS","NSW","2760","AU","False","",""
"ST PETERS","1","ST PETERS","NSW","2044","AU","False","",""
"ST VINCENTS HOSPITA","1","ST VINCENTS HOSPITA","NSW","2011","AU","False","",""
"STANHOPE GARDENS","1","STANHOPE GARDENS","NSW","2768","AU","False","",""
"STANMORE","1","STANMORE","NSW","2048","AU","False","",""
"STRATHFIELD","1","STRATHFIELD","NSW","2135","AU","False","",""
"STRATHFIELD NORTH","1","STRATHFIELD NORTH ","NSW","2137","AU","False","",""
"STRATHFIELD WEST","1","STRATHFIELD WEST","NSW","2140","AU","False","",""
"STRAWBERRY HILLS","1","STRAWBERRY HILLS","NSW","2012","AU","False","",""
"SUMMER HILL","1","SUMMER HILL","NSW","2130","AU","False","",""
"SURRY HILLS","1","SURRY HILLS","NSW","2010","AU","False","",""
"SUTHERLAND","1","SUTHERLAND","NSW","2232","AU","False","",""
"SYDENHAM","1","SYDENHAM","NSW","2044","AU","False","",""
"SYDNEY","1","SYDNEY","NSW","2000","AU","False","",""
"SYDNEY CBD","1","SYDNEY CBD","NSW","2000","AU","False","",""
"SYDNEY MARKETS","1","SYDNEY MARKETS","NSW","2140","AU","False","",""
"SYDNEY OLYMPIC PARK","1","SYDNEY OLYMPIC PARK","NSW","2127","AU","False","",""
"SYDNEY SOUTH","1","SYDNEY SOUTH","NSW","2000","AU","False","",""
"SYDNEY UNIVERSITY","1","SYDNEY UNIVERSITY","NSW","2006","AU","False","",""
"SYLVANIA","1","SYLVANIA","NSW","2224","AU","False","",""
"SYLVANIA HEIGHTS","1","SYLVANIA HEIGHTS","NSW","2224","AU","False","",""
"SYLVANIA WATERS","1","SYLVANIA WATERS","NSW","2224","AU","False","",""
"TAMARAMA","1","TAMARAMA","NSW","2026","AU","False","",""
"TAMARAMA BAY","1","TAMARAMA BAY ","NSW","2026","AU","False","",""
"TAREN POINT","1","TAREN POINT","NSW","2229","AU","False","",""
"TAYLORS POINT","1","TAYLORS POINT","NSW","2107","AU","False","",""
"TELOPEA","1","TELOPEA","NSW","2117","AU","False","",""
"TEMPE","1","TEMPE","NSW","2044","AU","False","",""
"TENNYSON POINT","1","TENNYSON POINT","NSW","2111","AU","False","",""
"TERREY HILLS","1","TERREY HILLS","NSW","2084","AU","False","",""
"THE PONDS","1","THE PONDS","NSW","2769","AU","False","",""
"THE ROCKS","1","THE ROCKS","NSW","2000","AU","False","",""
"THE SPIT","1","THE SPIT","NSW","2088","AU","False","",""
"THORNLEIGH","1","THORNLEIGH","NSW","2120","AU","False","",""
"TOONGABBIE","1","TOONGABBIE","NSW","2146","AU","False","",""
"TREGEAR","1","TREGEAR","NSW","2770","AU","False","",""
"TURRAMURRA","1","TURRAMURRA","NSW","2074","AU","False","",""
"TURRAMURRA NORTH SY","1","TURRAMURRA NORTH SY","NSW","2074","AU","False","",""
"TURRAMURRA SOUTH","1","TURRAMURRA SOUTH","NSW","2074","AU","False","",""
"TURRELLA","1","TURRELLA","NSW","2205","AU","False","",""
"ULTIMO","1","ULTIMO","NSW","2007","AU","False","",""
"UNDERCLIFFE","1","UNDERCLIFFE","NSW","2206","AU","False","",""
"UNIVERSITY OF NSW","1","UNIVERSITY OF NSW","NSW","2033","AU","False","",""
"UNIVERSITY OF SYDNE","1","UNIVERSITY OF SYDNE","NSW","2006","AU","False","",""
"VAUCLUSE","1","VAUCLUSE","NSW","2030","AU","False","",""
"VILLAWOOD","1","VILLAWOOD","NSW","2163","AU","False","",""
"VILLAWOOD EAST","1","VILLAWOOD EAST","NSW","2163","AU","False","",""
"VINEYARD","1","VINEYARD","NSW","2765","AU","False","",""
"VOYAGER POINT","1","VOYAGER POINT","NSW","2171","","False","",""
"WAHROONGA","1","WAHROONGA","NSW","2076","AU","False","",""
"WAITARA","1","WAITARA","NSW","2077","AU","False","",""
"WAKELEY","1","WAKELEY","NSW","2176","AU","False","",""
"WALSH BAY","1","WALSH BAY ","NSW","2000","AU","False","",""
"WAREEMBA","1","WAREEMBA","NSW","2046","AU","False","",""
"WARRAWEE","1","WARRAWEE","NSW","2074","AU","False","",""
"WARRIEWOOD","1","WARRIEWOOD","NSW","2102","AU","False","",""
"WARWICK FARM","1","WARWICK FARM","NSW","2170","AU","False","",""
"WATERLOO","1","WATERLOO","NSW","2017","AU","False","",""
"WATSONS BAY","1","WATSONS BAY","NSW","2030","AU","False","",""
"WATTLE GROVE","1","WATTLE GROVE","NSW","2173","AU","False","",""
"WAVERLEY","1","WAVERLEY","NSW","2024","AU","False","",""
"WAVERTON","1","WAVERTON","NSW","2060","AU","False","",""
"WENTWORTH POINT","1","WENTWORTH POINT","NSW","2127","AU","False","",""
"WENTWORTHVILLE","1","WENTWORTHVILLE","NSW","2145","AU","False","",""
"WERRINGTON","1","WERRINGTON","NSW","2747","AU","False","",""
"WERRINGTON COUNTY","1","WERRINGTON COUNTY","NSW","2747","AU","False","",""
"WERRINGTON DOWNS","1","WERRINGTON DOWNS","NSW","2747","AU","False","",""
"WEST HOXTON","1","WEST HOXTON","NSW","2171","AU","False","",""
"WEST KILLARA","1","WEST KILLARA","NSW","2071","AU","False","",""
"WEST LINDFIELD","1","WEST LINDFIELD","NSW","2070","AU","False","",""
"WEST PENNANT HILLS","1","WEST PENNANT HILLS","NSW","2125","AU","False","",""
"WEST PYMBLE","1","WEST PYMBLE","NSW","2073","AU","False","",""
"WEST RYDE","1","WEST RYDE","NSW","2114","AU","False","",""
"WEST RYDE","1","WEST RYDE","NSW","2154","AU","False","",""
"WESTLEIGH","1","WESTLEIGH","NSW","2120","AU","False","",""
"WESTMEAD","1","WESTMEAD","NSW","2145","AU","False","",""
"WETHERILL PARK","1","WETHERILL PARK","NSW","2164","AU","False","",""
"WHALAN","1","WHALAN","NSW","2770","AU","False","",""
"WHALE BEACH","1","WHALE BEACH","NSW","2107","AU","False","",""
"WHEELER HEIGHTS","1","WHEELER HEIGHTS","NSW","2097","AU","False","",""
"WILEY PARK","1","WILEY PARK","NSW","2195","AU","False","",""
"WILLMOT","1","WILLMOT","NSW","2770","AU","False","",""
"WILLOUGHBY","1","WILLOUGHBY","NSW","2068","AU","False","",""
"WILLOUGHBY EAST","1","WILLOUGHBY EAST","NSW","2068","AU","False","",""
"WILLOUGHBY NORTH","1","WILLOUGHBY NORTH","NSW","2068","AU","False","",""
"WINDSOR","1","WINDSOR","NSW","2756","AU","False","",""
"WINDSOR DOWNS","1","WINDSOR DOWNS","NSW","2756","AU","False","",""
"WINSTON HILLS","1","WINSTON HILLS","NSW","2153","AU","False","",""
"WOLLI CREEK","1","WOLLI CREEK","NSW","2205","AU","False","",""
"WOLLSTONECRAFT","1","WOLLSTONECRAFT","NSW","2065","AU","False","",""
"WOODBINE","1","WOODBINE","NSW","2560","AU","False","",""
"WOODCROFT","1","WOODCROFT","NSW","2767","AU","False","",""
"WOODPARK","1","WOODPARK","NSW","2164","AU","False","",""
"WOOLLAHRA","1","WOOLLAHRA","NSW","2025","AU","False","",""
"WOOLLOOMOOLOO","1","WOOLLOOMOOLOO","NSW","2011","AU","False","",""
"WOOLOOWARE","1","WOOLOOWARE","NSW","2230","AU","False","",""
"WOOLOOWARE SOUTH","1","WOOLOOWARE SOUTH","NSW","2230","AU","False","",""
"WOOLWICH","1","WOOLWICH","NSW","2110","AU","False","",""
"WORONORA","1","WORONORA","NSW","2232","AU","False","",""
"WORONORA HEIGHTS","1","WORONORA HEIGHTS","NSW","2233","AU","False","",""
"WYNYARD","1","Wynyard","NSW","2000","AU","False","",""
"YAGOONA","1","YAGOONA","NSW","2199","AU","False","",""
"YAGOONA WEST","1","YAGOONA WEST","NSW","2199","AU","False","",""
"YARRAWARRAH","1","YARRAWARRAH","NSW","2233","AU","False","",""
"YENNORA","1","YENNORA","NSW","2161","AU","False","",""
"YOWIE BAY","1","YOWIE BAY","NSW","2228","AU","False","",""
"ZETLAND","1","ZETLAND","NSW","2017","AU","False","",""
