"Zone","ParentZone","Locality","State","Postcode","CountryCode","RemoteArea","RemoteAreaFees1","RemoteAreaFees2"
"ADE","ADE","ABERFOYLE PARK","SA","5159","AU","False","",""
"ADE","ADE","ADELAIDE","SA","5000","AU","False","",""
"ADE","ADE","ADELAIDE","SA","5001","AU","False","",""
"ADE","ADE","ADELAIDE","SA","5800","AU","False","",""
"ADE","ADE","ADELAIDE","SA","5810","AU","False","",""
"ADE","ADE","ADELAIDE","SA","5839","AU","False","",""
"ADE","ADE","ADELAIDE AIRPORT","SA","5950","AU","False","",""
"ADE","ADE","ADELAIDE BC","SA","5000","AU","False","",""
"ADE","ADE","ADELAIDE MAIL CENTRE","SA","5860","AU","False","",""
"ADE","ADE","ADELAIDE MAIL CENTRE","SA","5861","AU","False","",""
"ADE","ADE","ADELAIDE MAIL CENTRE","SA","5862","AU","False","",""
"ADE","ADE","ADELAIDE MAIL CENTRE","SA","5863","AU","False","",""
"ADE","ADE","ADELAIDE MAIL CENTRE","SA","5864","AU","False","",""
"ADE","ADE","ADELAIDE MAIL CENTRE","SA","5865","AU","False","",""
"ADE","ADE","ADELAIDE MAIL CENTRE","SA","5866","AU","False","",""
"ADE","ADE","ADELAIDE MAIL CENTRE","SA","5867","AU","False","",""
"ADE","ADE","ADELAIDE MAIL CENTRE","SA","5868","AU","False","",""
"ADE","ADE","ADELAIDE MAIL CENTRE","SA","5869","AU","False","",""
"ADE","ADE","ADELAIDE MAIL CENTRE","SA","5870","AU","False","",""
"ADE","ADE","ADELAIDE MAIL CENTRE","SA","5871","AU","False","",""
"ADE","ADE","ADELAIDE MAIL CENTRE","SA","5872","AU","False","",""
"ADE","ADE","ADELAIDE MAIL CENTRE","SA","5873","AU","False","",""
"ADE","ADE","ADELAIDE MAIL CENTRE","SA","5874","AU","False","",""
"ADE","ADE","ADELAIDE MAIL CENTRE","SA","5875","AU","False","",""
"ADE","ADE","ADELAIDE MAIL CENTRE","SA","5876","AU","False","",""
"ADE","ADE","ADELAIDE MAIL CENTRE","SA","5877","AU","False","",""
"ADE","ADE","ADELAIDE MAIL CENTRE","SA","5878","AU","False","",""
"ADE","ADE","ADELAIDE MAIL CENTRE","SA","5879","AU","False","",""
"ADE","ADE","ADELAIDE MAIL CENTRE","SA","5880","AU","False","",""
"ADE","ADE","ADELAIDE MAIL CENTRE","SA","5881","AU","False","",""
"ADE","ADE","ADELAIDE MAIL CENTRE","SA","5882","AU","False","",""
"ADE","ADE","ADELAIDE MAIL CENTRE","SA","5883","AU","False","",""
"ADE","ADE","ADELAIDE MAIL CENTRE","SA","5884","AU","False","",""
"ADE","ADE","ADELAIDE MAIL CENTRE","SA","5885","AU","False","",""
"ADE","ADE","ADELAIDE MAIL CENTRE","SA","5886","AU","False","",""
"ADE","ADE","ADELAIDE MAIL CENTRE","SA","5887","AU","False","",""
"ADE","ADE","ADELAIDE MAIL CENTRE","SA","5888","AU","False","",""
"ADE","ADE","ADELAIDE MAIL CENTRE","SA","5889","AU","False","",""
"ADE","ADE","ADELAIDE MAIL CENTRE","SA","5890","AU","False","",""
"ADE","ADE","ADELAIDE MAIL CENTRE","SA","5891","AU","False","",""
"ADE","ADE","ADELAIDE MAIL CENTRE","SA","5892","AU","False","",""
"ADE","ADE","ADELAIDE MAIL CENTRE","SA","5893","AU","False","",""
"ADE","ADE","ADELAIDE MAIL CENTRE","SA","5894","AU","False","",""
"ADE","ADE","ADELAIDE MAIL CENTRE","SA","5895","AU","False","",""
"ADE","ADE","ADELAIDE MAIL CENTRE","SA","5896","AU","False","",""
"ADE","ADE","ADELAIDE MAIL CENTRE","SA","5897","AU","False","",""
"ADE","ADE","ADELAIDE MAIL CENTRE","SA","5898","AU","False","",""
"ADE","ADE","ADELAIDE MAIL CENTRE","SA","5899","AU","False","",""
"ADE","ADE","ADELAIDE MAIL CENTRE","SA","5900","AU","False","",""
"ADE","ADE","ADELAIDE MAIL CENTRE","SA","5901","AU","False","",""
"ADE","ADE","ADELAIDE MAIL CENTRE","SA","5902","AU","False","",""
"ADE","ADE","ADELAIDE MAIL CENTRE","SA","5903","AU","False","",""
"ADE","ADE","ADELAIDE MAIL CENTRE","SA","5904","AU","False","",""
"ADE","ADE","ADELAIDE MAIL CENTRE","SA","5920","AU","False","",""
"ADE","ADE","ADELAIDE UNIVERSITY","SA","5005","AU","False","",""
"ADE","ADE","ALBERT PARK","SA","5014","AU","False","",""
"ADE","ADE","ALBERTON","SA","5014","AU","False","",""
"ADE","ADE","ALDINGA","SA","5173","AU","False","",""
"ADE","ADE","ALDINGA BEACH","SA","5173","AU","False","",""
"ADE","ADE","ALLENBY GARDENS","SA","5009","AU","False","",""
"ADE","ADE","ANDREWS FARM","SA","5114","AU","False","",""
"ADE","ADE","ANGLE PARK","SA","5010","AU","False","",""
"ADE","ADE","ASCOT PARK","SA","5043","AU","False","",""
"ADE","ADE","ASHFORD","SA","5035","AU","False","",""
"ADE","ADE","ATHELSTONE","SA","5076","AU","False","",""
"ADE","ADE","ATHOL PARK","SA","5012","AU","False","",""
"ADE","ADE","AULDANA","SA","5072","AU","False","",""
"ADE","ADE","BANKSIA PARK","SA","5091","AU","False","",""
"ADE","ADE","BEAUMONT","SA","5066","AU","False","",""
"ADE","ADE","BEDFORD PARK","SA","5042","AU","False","",""
"ADE","ADE","BELAIR","SA","5052","AU","False","",""
"ADE","ADE","BELLEVUE HEIGHTS","SA","5050","AU","False","",""
"ADE","ADE","BEULAH PARK","SA","5067","AU","False","",""
"ADE","ADE","BEVERLEY","SA","5009","AU","False","",""
"ADE","ADE","BIRKENHEAD","SA","5015","AU","False","",""
"ADE","ADE","BLACK FOREST","SA","5035","AU","False","",""
"ADE","ADE","BLACKWOOD","SA","5051","AU","False","",""
"ADE","ADE","BLAIR ATHOL","SA","5084","AU","False","",""
"ADE","ADE","BLAIR ATHOL WEST","SA","5084","AU","False","",""
"ADE","ADE","BLAKEVIEW","SA","5114","AU","False","",""
"ADE","ADE","BOLIVAR","SA","5110","AU","False","",""
"ADE","ADE","BOWDEN","SA","5007","AU","False","",""
"ADE","ADE","BRAHMA LODGE","SA","5109","AU","False","",""
"ADE","ADE","BRIGHTON","SA","5048","AU","False","",""
"ADE","ADE","BROADVIEW","SA","5083","AU","False","",""
"ADE","ADE","BROMPTON","SA","5007","AU","False","",""
"ADE","ADE","BROOKLYN PARK","SA","5032","AU","False","",""
"ADE","ADE","BROWN HILL CREEK","SA","5062","AU","False","",""
"ADE","ADE","BURNSIDE","SA","5066","AU","False","",""
"ADE","ADE","BURTON","SA","5110","AU","False","",""
"ADE","ADE","CAMDEN PARK","SA","5038","AU","False","",""
"ADE","ADE","CAMPBELLTOWN","SA","5074","AU","False","",""
"ADE","ADE","CASTAMBUL","SA","5076","AU","False","",""
"ADE","ADE","CAVAN","SA","5094","AU","False","",""
"ADE","ADE","CHANDLERS HILL","SA","5159","AU","False","",""
"ADE","ADE","CHELTENHAM","SA","5014","AU","False","",""
"ADE","ADE","CHRISTIE DOWNS","SA","5164","AU","False","",""
"ADE","ADE","CHRISTIES BEACH","SA","5165","AU","False","",""
"ADE","ADE","CHRISTIES BEACH NORTH","SA","5165","AU","False","",""
"ADE","ADE","CITY WEST CAMPUS","SA","5000","AU","False","",""
"ADE","ADE","CLAPHAM","SA","5062","AU","False","",""
"ADE","ADE","CLARENCE GARDENS","SA","5039","AU","False","",""
"ADE","ADE","CLARENCE PARK","SA","5034","AU","False","",""
"ADE","ADE","CLEARVIEW","SA","5085","AU","False","",""
"ADE","ADE","CLOVELLY PARK","SA","5042","AU","False","",""
"ADE","ADE","COLLEGE PARK","SA","5069","AU","False","",""
"ADE","ADE","COLLINSWOOD","SA","5081","AU","False","",""
"ADE","ADE","COLONEL LIGHT GARDENS","SA","5041","AU","False","",""
"ADE","ADE","COROMANDEL VALLEY","SA","5051","AU","False","",""
"ADE","ADE","COWANDILLA","SA","5033","AU","False","",""
"ADE","ADE","CRAIGBURN FARM","SA","5051","AU","False","",""
"ADE","ADE","CRAIGMORE","SA","5114","AU","False","",""
"ADE","ADE","CROYDON","SA","5008","AU","False","",""
"ADE","ADE","CROYDON PARK","SA","5008","AU","False","",""
"ADE","ADE","CROYDON PARK SOUTH","SA","5008","AU","False","",""
"ADE","ADE","CUMBERLAND PARK","SA","5041","AU","False","",""
"ADE","ADE","DARLINGTON","SA","5047","AU","False","",""
"ADE","ADE","DAVOREN PARK","SA","5113","AU","False","",""
"ADE","ADE","DAVOREN PARK NORTH","SA","5113","AU","False","",""
"ADE","ADE","DAVOREN PARK SOUTH","SA","5113","AU","False","",""
"ADE","ADE","DAW PARK","SA","5041","AU","False","",""
"ADE","ADE","DERNANCOURT","SA","5075","AU","False","",""
"ADE","ADE","DEVON PARK","SA","5008","AU","False","",""
"ADE","ADE","DIREK","SA","5110","AU","False","",""
"ADE","ADE","DOVER GARDENS","SA","5048","AU","False","",""
"ADE","ADE","DRY CREEK","SA","5094","AU","False","",""
"ADE","ADE","DUDLEY PARK","SA","5008","AU","False","",""
"ADE","ADE","DULWICH","SA","5065","AU","False","",""
"ADE","ADE","EASTWOOD","SA","5063","AU","False","",""
"ADE","ADE","EDEN HILLS","SA","5050","AU","False","",""
"ADE","ADE","EDINBURGH","SA","5111","AU","False","",""
"ADE","ADE","EDWARDSTOWN","SA","5039","AU","False","",""
"ADE","ADE","ELIZABETH","SA","5112","AU","False","",""
"ADE","ADE","ELIZABETH DOWNS","SA","5113","AU","False","",""
"ADE","ADE","ELIZABETH EAST","SA","5112","AU","False","",""
"ADE","ADE","ELIZABETH GROVE","SA","5112","AU","False","",""
"ADE","ADE","ELIZABETH NORTH","SA","5113","AU","False","",""
"ADE","ADE","ELIZABETH PARK","SA","5113","AU","False","",""
"ADE","ADE","ELIZABETH SOUTH","SA","5112","AU","False","",""
"ADE","ADE","ELIZABETH VALE","SA","5112","AU","False","",""
"ADE","ADE","ELIZABETH WEST","SA","5113","AU","False","",""
"ADE","ADE","ELIZABETH WEST DC","SA","5113","AU","False","",""
"ADE","ADE","ENFIELD","SA","5085","AU","False","",""
"ADE","ADE","ENFIELD PLAZA","SA","5085","AU","False","",""
"ADE","ADE","ERINDALE","SA","5066","AU","False","",""
"ADE","ADE","ETHELTON","SA","5015","AU","False","",""
"ADE","ADE","EVANDALE","SA","5069","AU","False","",""
"ADE","ADE","EVERARD PARK","SA","5035","AU","False","",""
"ADE","ADE","EXETER","SA","5019","AU","False","",""
"ADE","ADE","EXPORT PARK","SA","5950","AU","False","",""
"ADE","ADE","FAIRVIEW PARK","SA","5126","AU","False","",""
"ADE","ADE","FELIXSTOW","SA","5070","AU","False","",""
"ADE","ADE","FERRYDEN PARK","SA","5010","AU","False","",""
"ADE","ADE","FINDON","SA","5023","AU","False","",""
"ADE","ADE","FIRLE","SA","5070","AU","False","",""
"ADE","ADE","FITZROY","SA","5082","AU","False","",""
"ADE","ADE","FLAGSTAFF HILL","SA","5159","AU","False","",""
"ADE","ADE","FLINDERS PARK","SA","5025","AU","False","",""
"ADE","ADE","FLINDERS UNIVERSITY","SA","5042","AU","False","",""
"ADE","ADE","FORESTVILLE","SA","5035","AU","False","",""
"ADE","ADE","FREWVILLE","SA","5063","AU","False","",""
"ADE","ADE","FULHAM","SA","5024","AU","False","",""
"ADE","ADE","FULHAM GARDENS","SA","5024","AU","False","",""
"ADE","ADE","FULLARTON","SA","5063","AU","False","",""
"ADE","ADE","GEPPS CROSS","SA","5094","AU","False","",""
"ADE","ADE","GILBERTON","SA","5081","AU","False","",""
"ADE","ADE","GILLES PLAINS","SA","5086","AU","False","",""
"ADE","ADE","GILLMAN","SA","5013","AU","False","",""
"ADE","ADE","GLANDORE","SA","5037","AU","False","",""
"ADE","ADE","GLANVILLE","SA","5015","AU","False","",""
"ADE","ADE","GLEN OSMOND","SA","5064","AU","False","",""
"ADE","ADE","GLENALTA","SA","5052","AU","False","",""
"ADE","ADE","GLENELG","SA","5045","AU","False","",""
"ADE","ADE","GLENELG EAST","SA","5045","AU","False","",""
"ADE","ADE","GLENELG JETTY ROAD","SA","5045","AU","False","",""
"ADE","ADE","GLENELG NORTH","SA","5045","AU","False","",""
"ADE","ADE","GLENELG SOUTH","SA","5045","AU","False","",""
"ADE","ADE","GLENGOWRIE","SA","5044","AU","False","",""
"ADE","ADE","GLENSIDE","SA","5065","AU","False","",""
"ADE","ADE","GLENUNGA","SA","5064","AU","False","",""
"ADE","ADE","GLOBE DERBY PARK","SA","5110","AU","False","",""
"ADE","ADE","GLYNDE","SA","5070","AU","False","",""
"ADE","ADE","GLYNDE DC","SA","5070","AU","False","",""
"ADE","ADE","GLYNDE PLAZA","SA","5070","AU","False","",""
"ADE","ADE","GOLDEN GROVE","SA","5125","AU","False","",""
"ADE","ADE","GOLDEN GROVE VILLAGE","SA","5125","AU","False","",""
"ADE","ADE","GOODWOOD","SA","5034","AU","False","",""
"ADE","ADE","GOULD CREEK","SA","5114","AU","False","",""
"ADE","ADE","GRANGE","SA","5022","AU","False","",""
"ADE","ADE","GREEN FIELDS","SA","5107","AU","False","",""
"ADE","ADE","GREENACRES","SA","5086","AU","False","",""
"ADE","ADE","GREENWITH","SA","5125","AU","False","",""
"ADE","ADE","GULFVIEW HEIGHTS","SA","5096","AU","False","",""
"ADE","ADE","HACKHAM","SA","5163","AU","False","",""
"ADE","ADE","HACKHAM WEST","SA","5163","AU","False","",""
"ADE","ADE","HACKNEY","SA","5069","AU","False","",""
"ADE","ADE","HALIFAX STREET","SA","5000","AU","False","",""
"ADE","ADE","HALLETT COVE","SA","5158","AU","False","",""
"ADE","ADE","HAMPSTEAD GARDENS","SA","5086","AU","False","",""
"ADE","ADE","HAPPY VALLEY","SA","5159","AU","False","",""
"ADE","ADE","HAWTHORN","SA","5062","AU","False","",""
"ADE","ADE","HAWTHORNDENE","SA","5051","AU","False","",""
"ADE","ADE","HAZELWOOD PARK","SA","5066","AU","False","",""
"ADE","ADE","HEATHPOOL","SA","5068","AU","False","",""
"ADE","ADE","HECTORVILLE","SA","5073","AU","False","",""
"ADE","ADE","HENDON","SA","5014","AU","False","",""
"ADE","ADE","HENLEY BEACH","SA","5022","AU","False","",""
"ADE","ADE","HENLEY BEACH SOUTH","SA","5022","AU","False","",""
"ADE","ADE","HIGHBURY","SA","5089","AU","False","",""
"ADE","ADE","HIGHGATE","SA","5063","AU","False","",""
"ADE","ADE","HILLBANK","SA","5112","AU","False","",""
"ADE","ADE","HILLCREST","SA","5086","AU","False","",""
"ADE","ADE","HILTON","SA","5033","AU","False","",""
"ADE","ADE","HILTON PLAZA","SA","5033","AU","False","",""
"ADE","ADE","HINDMARSH","SA","5007","AU","False","",""
"ADE","ADE","HOLDEN HILL","SA","5088","AU","False","",""
"ADE","ADE","HOPE VALLEY","SA","5090","AU","False","",""
"ADE","ADE","HOUGHTON","SA","5131","AU","False","",""
"ADE","ADE","HOVE","SA","5048","AU","False","",""
"ADE","ADE","HUMBUG SCRUB","SA","5114","AU","False","",""
"ADE","ADE","HUNTFIELD HEIGHTS","SA","5163","AU","False","",""
"ADE","ADE","HUTT STREET","SA","5000","AU","False","",""
"ADE","ADE","HYDE PARK","SA","5061","AU","False","",""
"ADE","ADE","INGLE FARM","SA","5098","AU","False","",""
"ADE","ADE","JOSLIN","SA","5070","AU","False","",""
"ADE","ADE","KENSINGTON","SA","5068","AU","False","",""
"ADE","ADE","KENSINGTON GARDENS","SA","5068","AU","False","",""
"ADE","ADE","KENSINGTON PARK","SA","5068","AU","False","",""
"ADE","ADE","KENT TOWN","SA","5067","AU","False","",""
"ADE","ADE","KENT TOWN","SA","5071","AU","False","",""
"ADE","ADE","KENT TOWN DC","SA","5071","AU","False","",""
"ADE","ADE","KESWICK","SA","5035","AU","False","",""
"ADE","ADE","KESWICK TERMINAL","SA","5035","AU","False","",""
"ADE","ADE","KIDMAN PARK","SA","5025","AU","False","",""
"ADE","ADE","KILBURN","SA","5084","AU","False","",""
"ADE","ADE","KILBURN NORTH","SA","5084","AU","False","",""
"ADE","ADE","KILKENNY","SA","5009","AU","False","",""
"ADE","ADE","KINGS PARK","SA","5034","AU","False","",""
"ADE","ADE","KINGSTON PARK","SA","5049","AU","False","",""
"ADE","ADE","KINGSWOOD","SA","5062","AU","False","",""
"ADE","ADE","KIRKCALDY","SA","5022","AU","False","",""
"ADE","ADE","KLEMZIG","SA","5087","AU","False","",""
"ADE","ADE","KURRALTA PARK","SA","5037","AU","False","",""
"ADE","ADE","LARGS BAY","SA","5016","AU","False","",""
"ADE","ADE","LARGS NORTH","SA","5016","AU","False","",""
"ADE","ADE","LEABROOK","SA","5068","AU","False","",""
"ADE","ADE","LINDEN PARK","SA","5065","AU","False","",""
"ADE","ADE","LOCKLEYS","SA","5032","AU","False","",""
"ADE","ADE","LONSDALE","SA","5160","AU","False","",""
"ADE","ADE","LONSDALE DC","SA","5160","AU","False","",""
"ADE","ADE","LOWER HERMITAGE","SA","5131","AU","False","",""
"ADE","ADE","LOWER MITCHAM","SA","5062","AU","False","",""
"ADE","ADE","LYNTON","SA","5062","AU","False","",""
"ADE","ADE","MAGILL","SA","5072","AU","False","",""
"ADE","ADE","MAGILL NORTH","SA","5072","AU","False","",""
"ADE","ADE","MAGILL SOUTH","SA","5072","AU","False","",""
"ADE","ADE","MALVERN","SA","5061","AU","False","",""
"ADE","ADE","MANNINGHAM","SA","5086","AU","False","",""
"ADE","ADE","MANSFIELD PARK","SA","5012","AU","False","",""
"ADE","ADE","MARDEN","SA","5070","AU","False","",""
"ADE","ADE","MARINO","SA","5049","AU","False","",""
"ADE","ADE","MARION","SA","5043","AU","False","",""
"ADE","ADE","MARLESTON","SA","5033","AU","False","",""
"ADE","ADE","MARLESTON DC","SA","5033","AU","False","",""
"ADE","ADE","MARRYATVILLE","SA","5068","AU","False","",""
"ADE","ADE","MAWSON LAKES","SA","5095","AU","False","",""
"ADE","ADE","MAYLANDS","SA","5069","AU","False","",""
"ADE","ADE","MCLAREN FLAT","SA","5171","AU","False","",""
"ADE","ADE","MCLAREN VALE","SA","5171","AU","False","",""
"ADE","ADE","MEDINDIE","SA","5081","AU","False","",""
"ADE","ADE","MEDINDIE GARDENS","SA","5081","AU","False","",""
"ADE","ADE","MELROSE PARK","SA","5039","AU","False","",""
"ADE","ADE","MELROSE PARK DC","SA","5039","AU","False","",""
"ADE","ADE","MILE END","SA","5031","AU","False","",""
"ADE","ADE","MILE END SOUTH","SA","5031","AU","False","",""
"ADE","ADE","MILLSWOOD","SA","5034","AU","False","",""
"ADE","ADE","MITCHAM","SA","5062","AU","False","",""
"ADE","ADE","MITCHAM SHOPPING CENTRE","SA","5062","AU","False","",""
"ADE","ADE","MITCHELL PARK","SA","5043","AU","False","",""
"ADE","ADE","MOANA","SA","5169","AU","False","",""
"ADE","ADE","MODBURY","SA","5092","AU","False","",""
"ADE","ADE","MODBURY HEIGHTS","SA","5092","AU","False","",""
"ADE","ADE","MODBURY NORTH","SA","5092","AU","False","",""
"ADE","ADE","MODBURY NORTH DC","SA","5092","AU","False","",""
"ADE","ADE","MORPHETT VALE","SA","5162","AU","False","",""
"ADE","ADE","MORPHETTVILLE","SA","5043","AU","False","",""
"ADE","ADE","MOUNT OSMOND","SA","5064","AU","False","",""
"ADE","ADE","MUNNO PARA","SA","5115","AU","False","",""
"ADE","ADE","MUNNO PARA DOWNS","SA","5115","AU","False","",""
"ADE","ADE","MUNNO PARA WEST","SA","5115","AU","False","",""
"ADE","ADE","MYRTLE BANK","SA","5064","AU","False","",""
"ADE","ADE","NAILSWORTH","SA","5083","AU","False","",""
"ADE","ADE","NETHERBY","SA","5062","AU","False","",""
"ADE","ADE","NETLEY","SA","5037","AU","False","",""
"ADE","ADE","NEWTON","SA","5074","AU","False","",""
"ADE","ADE","NOARLUNGA CENTRE","SA","5168","AU","False","",""
"ADE","ADE","NOARLUNGA DOWNS","SA","5168","AU","False","",""
"ADE","ADE","NORTH ADELAIDE","SA","5006","AU","False","",""
"ADE","ADE","NORTH ADELAIDE MELBOURNE ST","SA","5006","AU","False","",""
"ADE","ADE","NORTH BRIGHTON","SA","5048","AU","False","",""
"ADE","ADE","NORTH HAVEN","SA","5018","AU","False","",""
"ADE","ADE","NORTH PLYMPTON","SA","5037","AU","False","",""
"ADE","ADE","NORTHFIELD","SA","5085","AU","False","",""
"ADE","ADE","NORTHGATE","SA","5085","AU","False","",""
"ADE","ADE","NORWOOD","SA","5067","AU","False","",""
"ADE","ADE","NORWOOD SOUTH","SA","5067","AU","False","",""
"ADE","ADE","NOVAR GARDENS","SA","5040","AU","False","",""
"ADE","ADE","O'HALLORAN HILL","SA","5158","AU","False","",""
"ADE","ADE","O'HALLORAN HILL DC","SA","5158","AU","False","",""
"ADE","ADE","O'SULLIVAN BEACH","SA","5166","AU","False","",""
"ADE","ADE","OAKDEN","SA","5086","AU","False","",""
"ADE","ADE","OAKLANDS PARK","SA","5046","AU","False","",""
"ADE","ADE","OLD NOARLUNGA","SA","5168","AU","False","",""
"ADE","ADE","OLD REYNELLA","SA","5161","AU","False","",""
"ADE","ADE","ONE TREE HILL","SA","5114","AU","False","",""
"ADE","ADE","ONKAPARINGA HILLS","SA","5163","AU","False","",""
"ADE","ADE","OSBORNE","SA","5017","AU","False","",""
"ADE","ADE","OTTOWAY","SA","5013","AU","False","",""
"ADE","ADE","OUTER HARBOR","SA","5018","AU","False","",""
"ADE","ADE","OVINGHAM","SA","5082","AU","False","",""
"ADE","ADE","PANORAMA","SA","5041","AU","False","",""
"ADE","ADE","PARA HILLS","SA","5096","AU","False","",""
"ADE","ADE","PARA HILLS WEST","SA","5096","AU","False","",""
"ADE","ADE","PARA VISTA","SA","5093","AU","False","",""
"ADE","ADE","PARADISE","SA","5075","AU","False","",""
"ADE","ADE","PARAFIELD","SA","5106","AU","False","",""
"ADE","ADE","PARAFIELD AIRPORT","SA","5106","AU","False","",""
"ADE","ADE","PARAFIELD GARDENS","SA","5107","AU","False","",""
"ADE","ADE","PARALOWIE","SA","5108","AU","False","",""
"ADE","ADE","PARK HOLME","SA","5043","AU","False","",""
"ADE","ADE","PARKSIDE","SA","5063","AU","False","",""
"ADE","ADE","PARLIAMENT HOUSE","SA","5000","AU","False","",""
"ADE","ADE","PASADENA","SA","5042","AU","False","",""
"ADE","ADE","PAYNEHAM","SA","5070","AU","False","",""
"ADE","ADE","PAYNEHAM SOUTH","SA","5070","AU","False","",""
"ADE","ADE","PENFIELD","SA","5121","AU","False","",""
"ADE","ADE","PENFIELD GARDENS","SA","5121","AU","False","",""
"ADE","ADE","PENNINGTON","SA","5013","AU","False","",""
"ADE","ADE","PETERHEAD","SA","5016","AU","False","",""
"ADE","ADE","PLYMPTON","SA","5038","AU","False","",""
"ADE","ADE","PLYMPTON PARK","SA","5038","AU","False","",""
"ADE","ADE","POORAKA","SA","5095","AU","False","",""
"ADE","ADE","PORT ADELAIDE","SA","5015","AU","False","",""
"ADE","ADE","PORT ADELAIDE BC","SA","5015","AU","False","",""
"ADE","ADE","PORT ADELAIDE DC","SA","5015","AU","False","",""
"ADE","ADE","PORT NOARLUNGA","SA","5167","AU","False","",""
"ADE","ADE","PORT NOARLUNGA SOUTH","SA","5167","AU","False","",""
"ADE","ADE","PORT STANVAC","SA","5160","AU","False","",""
"ADE","ADE","PORT WILLUNGA","SA","5173","AU","False","",""
"ADE","ADE","PROSPECT","SA","5082","AU","False","",""
"ADE","ADE","PROSPECT EAST","SA","5082","AU","False","",""
"ADE","ADE","PROSPECT WEST","SA","5082","AU","False","",""
"ADE","ADE","QUEENSTOWN","SA","5014","AU","False","",""
"ADE","ADE","REDWOOD PARK","SA","5097","AU","False","",""
"ADE","ADE","REGENCY PARK","SA","5010","AU","False","",""
"ADE","ADE","REGENCY PARK","SA","5942","AU","False","",""
"ADE","ADE","REGENCY PARK BC","SA","5010","AU","False","",""
"ADE","ADE","RENOWN PARK","SA","5008","AU","False","",""
"ADE","ADE","REYNELLA","SA","5161","AU","False","",""
"ADE","ADE","REYNELLA EAST","SA","5161","AU","False","",""
"ADE","ADE","RICHMOND","SA","5033","AU","False","",""
"ADE","ADE","RIDGEHAVEN","SA","5097","AU","False","",""
"ADE","ADE","RIDLEYTON","SA","5008","AU","False","",""
"ADE","ADE","ROSE PARK","SA","5067","AU","False","",""
"ADE","ADE","ROSEWATER","SA","5013","AU","False","",""
"ADE","ADE","ROSEWATER EAST","SA","5013","AU","False","",""
"ADE","ADE","ROSSLYN PARK","SA","5072","AU","False","",""
"ADE","ADE","ROSTREVOR","SA","5073","AU","False","",""
"ADE","ADE","ROYAL PARK","SA","5014","AU","False","",""
"ADE","ADE","ROYSTON PARK","SA","5070","AU","False","",""
"ADE","ADE","RUNDLE MALL","SA","5000","AU","False","",""
"ADE","ADE","SALISBURY","SA","5108","AU","False","",""
"ADE","ADE","SALISBURY DOWNS","SA","5108","AU","False","",""
"ADE","ADE","SALISBURY EAST","SA","5109","AU","False","",""
"ADE","ADE","SALISBURY EAST NORTHBRI AVE","SA","5109","AU","False","",""
"ADE","ADE","SALISBURY HEIGHTS","SA","5109","AU","False","",""
"ADE","ADE","SALISBURY NORTH","SA","5108","AU","False","",""
"ADE","ADE","SALISBURY NORTH WHITES ROAD","SA","5108","AU","False","",""
"ADE","ADE","SALISBURY PARK","SA","5109","AU","False","",""
"ADE","ADE","SALISBURY PLAIN","SA","5109","AU","False","",""
"ADE","ADE","SALISBURY SOUTH","SA","5106","AU","False","",""
"ADE","ADE","SALISBURY SOUTH BC","SA","5106","AU","False","",""
"ADE","ADE","SALISBURY SOUTH DC","SA","5106","AU","False","",""
"ADE","ADE","SAMPSON FLAT","SA","5114","AU","False","",""
"ADE","ADE","SEACLIFF","SA","5049","AU","False","",""
"ADE","ADE","SEACLIFF PARK","SA","5049","AU","False","",""
"ADE","ADE","SEACOMBE GARDENS","SA","5047","AU","False","",""
"ADE","ADE","SEACOMBE HEIGHTS","SA","5047","AU","False","",""
"ADE","ADE","SEAFORD","SA","5169","AU","False","",""
"ADE","ADE","SEAFORD HEIGHTS","SA","5169","AU","False","",""
"ADE","ADE","SEAFORD MEADOWS","SA","5169","AU","False","",""
"ADE","ADE","SEAFORD RISE","SA","5169","AU","False","",""
"ADE","ADE","SEATON","SA","5023","AU","False","",""
"ADE","ADE","SEATON NORTH","SA","5023","AU","False","",""
"ADE","ADE","SEAVIEW DOWNS","SA","5049","AU","False","",""
"ADE","ADE","SEFTON PARK","SA","5083","AU","False","",""
"ADE","ADE","SEMAPHORE","SA","5019","AU","False","",""
"ADE","ADE","SEMAPHORE PARK","SA","5019","AU","False","",""
"ADE","ADE","SEMAPHORE SOUTH","SA","5019","AU","False","",""
"ADE","ADE","SHEIDOW PARK","SA","5158","AU","False","",""
"ADE","ADE","SKYE","SA","5072","AU","False","",""
"ADE","ADE","SMITHFIELD","SA","5114","AU","False","",""
"ADE","ADE","SMITHFIELD PLAINS","SA","5114","AU","False","",""
"ADE","ADE","SMITHFIELD WEST","SA","5114","AU","False","",""
"ADE","ADE","SOMERTON PARK","SA","5044","AU","False","",""
"ADE","ADE","SOUTH BRIGHTON","SA","5048","AU","False","",""
"ADE","ADE","SOUTH PLYMPTON","SA","5038","AU","False","",""
"ADE","ADE","SPRINGFIELD","SA","5062","AU","False","",""
"ADE","ADE","ST AGNES","SA","5097","AU","False","",""
"ADE","ADE","ST GEORGES","SA","5064","AU","False","",""
"ADE","ADE","ST KILDA","SA","5110","AU","False","",""
"ADE","ADE","ST MARYS","SA","5042","AU","False","",""
"ADE","ADE","ST MORRIS","SA","5068","AU","False","",""
"ADE","ADE","ST PETERS","SA","5069","AU","False","",""
"ADE","ADE","STATION ARCADE","SA","5000","AU","False","",""
"ADE","ADE","STEPNEY","SA","5069","AU","False","",""
"ADE","ADE","STONYFELL","SA","5066","AU","False","",""
"ADE","ADE","STURT","SA","5047","AU","False","",""
"ADE","ADE","STURT STREET","SA","5000","AU","False","",""
"ADE","ADE","SURREY DOWNS","SA","5126","AU","False","",""
"ADE","ADE","TAPEROO","SA","5017","AU","False","",""
"ADE","ADE","TATACHILLA","SA","5171","AU","False","",""
"ADE","ADE","TEA TREE GULLY","SA","5091","AU","False","",""
"ADE","ADE","TENNYSON","SA","5022","AU","False","",""
"ADE","ADE","TERINGIE","SA","5072","AU","False","",""
"ADE","ADE","THE LEVELS","SA","5095","AU","False","",""
"ADE","ADE","THE UNIVERSITY OF ADELAIDE","SA","5005","AU","False","",""
"ADE","ADE","THEBARTON","SA","5031","AU","False","",""
"ADE","ADE","THORNGATE","SA","5082","AU","False","",""
"ADE","ADE","TOORAK GARDENS","SA","5065","AU","False","",""
"ADE","ADE","TORRENS ISLAND","SA","5960","AU","False","",""
"ADE","ADE","TORRENS PARK","SA","5062","AU","False","",""
"ADE","ADE","TORRENSVILLE","SA","5031","AU","False","",""
"ADE","ADE","TORRENSVILLE PLAZA","SA","5031","AU","False","",""
"ADE","ADE","TRANMERE","SA","5073","AU","False","",""
"ADE","ADE","TRANMERE NORTH","SA","5073","AU","False","",""
"ADE","ADE","TRINITY GARDENS","SA","5068","AU","False","",""
"ADE","ADE","TROTT PARK","SA","5158","AU","False","",""
"ADE","ADE","TUSMORE","SA","5065","AU","False","",""
"ADE","ADE","ULEYBURY","SA","5114","AU","False","",""
"ADE","ADE","UNDERDALE","SA","5032","AU","False","",""
"ADE","ADE","UNIVERSITY OF ADELAIDE","SA","5005","AU","False","",""
"ADE","ADE","UNLEY","SA","5061","AU","False","",""
"ADE","ADE","UNLEY BC","SA","5061","AU","False","",""
"ADE","ADE","UNLEY DC","SA","5061","AU","False","",""
"ADE","ADE","UNLEY PARK","SA","5061","AU","False","",""
"ADE","ADE","UPPER HERMITAGE","SA","5131","AU","False","",""
"ADE","ADE","URRBRAE","SA","5064","AU","False","",""
"ADE","ADE","VALE PARK","SA","5081","AU","False","",""
"ADE","ADE","VALLEY VIEW","SA","5093","AU","False","",""
"ADE","ADE","VISTA","SA","5091","AU","False","",""
"ADE","ADE","WALKERVILLE","SA","5081","AU","False","",""
"ADE","ADE","WALKLEY HEIGHTS","SA","5098","AU","False","",""
"ADE","ADE","WARRADALE","SA","5046","AU","False","",""
"ADE","ADE","WARRADALE NORTH","SA","5046","AU","False","",""
"ADE","ADE","WATERFALL GULLY","SA","5066","AU","False","",""
"ADE","ADE","WATERLOO CORNER","SA","5110","AU","False","",""
"ADE","ADE","WATTLE PARK","SA","5066","AU","False","",""
"ADE","ADE","WAYVILLE","SA","5034","AU","False","",""
"ADE","ADE","WELLAND","SA","5007","AU","False","",""
"ADE","ADE","WEST BEACH","SA","5024","AU","False","",""
"ADE","ADE","WEST CROYDON","SA","5008","AU","False","",""
"ADE","ADE","WEST HINDMARSH","SA","5007","AU","False","",""
"ADE","ADE","WEST LAKES","SA","5021","AU","False","",""
"ADE","ADE","WEST LAKES SHORE","SA","5020","AU","False","",""
"ADE","ADE","WEST RICHMOND","SA","5033","AU","False","",""
"ADE","ADE","WESTBOURNE PARK","SA","5041","AU","False","",""
"ADE","ADE","WINDSOR GARDENS","SA","5087","AU","False","",""
"ADE","ADE","WINGFIELD","SA","5013","AU","False","",""
"ADE","ADE","WOODCROFT","SA","5162","AU","False","",""
"ADE","ADE","WOODFORDE","SA","5072","AU","False","",""
"ADE","ADE","WOODVILLE","SA","5011","AU","False","",""
"ADE","ADE","WOODVILLE GARDENS","SA","5012","AU","False","",""
"ADE","ADE","WOODVILLE NORTH","SA","5012","AU","False","",""
"ADE","ADE","WOODVILLE PARK","SA","5011","AU","False","",""
"ADE","ADE","WOODVILLE SOUTH","SA","5011","AU","False","",""
"ADE","ADE","WOODVILLE WEST","SA","5011","AU","False","",""
"ADE","ADE","WYNN VALE","SA","5127","AU","False","",""
"ADE","ADE","YATALA VALE","SA","5126","AU","False","",""
"BNE","BNE","ACACIA RIDGE","QLD","4110","AU","False","",""
"BNE","BNE","ACACIA RIDGE BC","QLD","4110","AU","False","",""
"BNE","BNE","ACACIA RIDGE DC","QLD","4110","AU","False","",""
"BNE","BNE","ALBANY CREEK","QLD","4035","AU","False","",""
"BNE","BNE","ALBERTON","QLD","4207","AU","False","",""
"BNE","BNE","ALBION","QLD","4010","AU","False","",""
"BNE","BNE","ALBION BC","QLD","4010","AU","False","",""
"BNE","BNE","ALBION DC","QLD","4010","AU","False","",""
"BNE","BNE","ALDERLEY","QLD","4051","AU","False","",""
"BNE","BNE","ALEXANDRA HILLS","QLD","4161","AU","False","",""
"BNE","BNE","ALGESTER","QLD","4115","AU","False","",""
"BNE","BNE","ANNERLEY","QLD","4103","AU","False","",""
"BNE","BNE","ANNERLEY DC","QLD","4103","AU","False","",""
"BNE","BNE","ANSTEAD","QLD","4070","AU","False","",""
"BNE","BNE","ARANA HILLS","QLD","4054","AU","False","",""
"BNE","BNE","ARCHERFIELD","QLD","4108","AU","False","",""
"BNE","BNE","ARCHERFIELD BC","QLD","4108","AU","False","",""
"BNE","BNE","ASCOT","QLD","4007","AU","False","",""
"BNE","BNE","ASHGROVE","QLD","4060","AU","False","",""
"BNE","BNE","ASHGROVE WEST","QLD","4060","AU","False","",""
"BNE","BNE","ASPLEY","QLD","4034","AU","False","",""
"BNE","BNE","AUCHENFLOWER","QLD","4066","AU","False","",""
"BNE","BNE","AUGUSTINE HEIGHTS","QLD","4300","AU","False","",""
"BNE","BNE","BAHRS SCRUB","QLD","4207","AU","False","",""
"BNE","BNE","BALD HILLS","QLD","4036","AU","False","",""
"BNE","BNE","BALMORAL","QLD","4171","AU","False","",""
"BNE","BNE","BANNOCKBURN","QLD","4207","AU","False","",""
"BNE","BNE","BANYO","QLD","4014","AU","False","",""
"BNE","BNE","BARDON","QLD","4065","AU","False","",""
"BNE","BNE","BASIN POCKET","QLD","4305","AU","False","",""
"BNE","BNE","BEENLEIGH","QLD","4207","AU","False","",""
"BNE","BNE","BELIVAH","QLD","4207","AU","False","",""
"BNE","BNE","BELLBIRD PARK","QLD","4300","AU","False","",""
"BNE","BNE","BELLBOWRIE","QLD","4070","AU","False","",""
"BNE","BNE","BELMONT","QLD","4153","AU","False","",""
"BNE","BNE","BERRINBA","QLD","4117","AU","False","",""
"BNE","BNE","BETHANIA","QLD","4205","AU","False","",""
"BNE","BNE","BIRKDALE","QLD","4159","AU","False","",""
"BNE","BNE","BLACKSTONE","QLD","4304","AU","False","",""
"BNE","BNE","BOONDALL","QLD","4034","AU","False","",""
"BNE","BNE","BOOVAL","QLD","4304","AU","False","",""
"BNE","BNE","BOOVAL BC","QLD","4304","AU","False","",""
"BNE","BNE","BOOVAL DC","QLD","4304","AU","False","",""
"BNE","BNE","BOOVAL FAIR","QLD","4304","AU","False","",""
"BNE","BNE","BORONIA HEIGHTS","QLD","4124","AU","False","",""
"BNE","BNE","BOWEN HILLS","QLD","4006","AU","False","",""
"BNE","BNE","BRACKEN RIDGE","QLD","4017","AU","False","",""
"BNE","BNE","BRASSALL","QLD","4305","AU","False","",""
"BNE","BNE","BRAY PARK","QLD","4500","AU","False","",""
"BNE","BNE","BREMER","QLD","4305","AU","False","",""
"BNE","BNE","BRENDALE","QLD","4500","AU","False","",""
"BNE","BNE","BRENDALE BC","QLD","4500","AU","False","",""
"BNE","BNE","BRENDALE DC","QLD","4500","AU","False","",""
"BNE","BNE","BRIDGEMAN DOWNS","QLD","4035","AU","False","",""
"BNE","BNE","BRIGHTON","QLD","4017","AU","False","",""
"BNE","BNE","BRIGHTON EVENTIDE","QLD","4017","AU","False","",""
"BNE","BNE","BRIGHTON NATHAN STREET","QLD","4017","AU","False","",""
"BNE","BNE","BRISBANE","QLD","4000","AU","False","",""
"BNE","BNE","BRISBANE","QLD","4001","AU","False","",""
"BNE","BNE","BRISBANE","QLD","9000","AU","False","",""
"BNE","BNE","BRISBANE","QLD","9001","AU","False","",""
"BNE","BNE","BRISBANE","QLD","9002","AU","False","",""
"BNE","BNE","BRISBANE","QLD","9005","AU","False","",""
"BNE","BNE","BRISBANE","QLD","9007","AU","False","",""
"BNE","BNE","BRISBANE","QLD","9008","AU","False","",""
"BNE","BNE","BRISBANE","QLD","9009","AU","False","",""
"BNE","BNE","BRISBANE","QLD","9010","AU","False","",""
"BNE","BNE","BRISBANE","QLD","9013","AU","False","",""
"BNE","BNE","BRISBANE","QLD","9015","AU","False","",""
"BNE","BNE","BRISBANE","QLD","9020","AU","False","",""
"BNE","BNE","BRISBANE ADELAIDE STREET","QLD","4000","AU","False","",""
"BNE","BNE","BRISBANE GPO","QLD","4000","AU","False","",""
"BNE","BNE","BRISBANE GPO BOXES","QLD","9016","AU","False","",""
"BNE","BNE","BRISBANE GPO BOXES","QLD","9017","AU","False","",""
"BNE","BNE","BRISBANE GPO BOXES","QLD","9018","AU","False","",""
"BNE","BNE","BRISBANE GPO BOXES","QLD","9019","AU","False","",""
"BNE","BNE","BRISBANE GPO BOXES","QLD","9021","AU","False","",""
"BNE","BNE","BRISBANE GPO BOXES","QLD","9022","AU","False","",""
"BNE","BNE","BRISBANE GPO BOXES","QLD","9023","AU","False","",""
"BNE","BNE","BRISBANE MARKET","QLD","4106","AU","False","",""
"BNE","BNE","BROOKFIELD","QLD","4069","AU","False","",""
"BNE","BNE","BROOKSIDE CENTRE","QLD","4053","AU","False","",""
"BNE","BNE","BROOKWATER","QLD","4300","AU","False","",""
"BNE","BNE","BROWNS PLAINS","QLD","4118","AU","False","",""
"BNE","BNE","BROWNS PLAINS BC","QLD","4118","AU","False","",""
"BNE","BNE","BUCCAN","QLD","4207","AU","False","",""
"BNE","BNE","BULIMBA","QLD","4171","AU","False","",""
"BNE","BNE","BUNDAMBA","QLD","4304","AU","False","",""
"BNE","BNE","BUNYA","QLD","4055","AU","False","",""
"BNE","BNE","BURANDA","QLD","4102","AU","False","",""
"BNE","BNE","BURBANK","QLD","4156","AU","False","",""
"BNE","BNE","CALAMVALE","QLD","4116","AU","False","",""
"BNE","BNE","CAMIRA","QLD","4300","AU","False","",""
"BNE","BNE","CAMP HILL","QLD","4152","AU","False","",""
"BNE","BNE","CANNON HILL","QLD","4170","AU","False","",""
"BNE","BNE","CAPALABA","QLD","4157","AU","False","",""
"BNE","BNE","CAPALABA BC","QLD","4157","AU","False","",""
"BNE","BNE","CAPALABA DC","QLD","4157","AU","False","",""
"BNE","BNE","CAPALABA WEST","QLD","4157","AU","False","",""
"BNE","BNE","CARBROOK","QLD","4130","AU","False","",""
"BNE","BNE","CARINA","QLD","4152","AU","False","",""
"BNE","BNE","CARINA HEIGHTS","QLD","4152","AU","False","",""
"BNE","BNE","CARINDALE","QLD","4152","AU","False","",""
"BNE","BNE","CAROLE PARK","QLD","4300","AU","False","",""
"BNE","BNE","CARSELDINE","QLD","4034","AU","False","",""
"BNE","BNE","CASHMERE","QLD","4500","AU","False","",""
"BNE","BNE","CEDAR CREEK","QLD","4207","AU","False","",""
"BNE","BNE","CENTRAL PLAZA","QLD","4001","AU","False","",""
"BNE","BNE","CHAMBERS FLAT","QLD","4133","AU","False","",""
"BNE","BNE","CHANDLER","QLD","4155","AU","False","",""
"BNE","BNE","CHAPEL HILL","QLD","4069","AU","False","",""
"BNE","BNE","CHELMER","QLD","4068","AU","False","",""
"BNE","BNE","CHERMSIDE","QLD","4032","AU","False","",""
"BNE","BNE","CHERMSIDE BC","QLD","4032","AU","False","",""
"BNE","BNE","CHERMSIDE CENTRE","QLD","4032","AU","False","",""
"BNE","BNE","CHERMSIDE SOUTH","QLD","4032","AU","False","",""
"BNE","BNE","CHERMSIDE WEST","QLD","4032","AU","False","",""
"BNE","BNE","CHURCHILL","QLD","4305","AU","False","",""
"BNE","BNE","CITY EAST","QLD","4002","AU","False","",""
"BNE","BNE","CLAYFIELD","QLD","4011","AU","False","",""
"BNE","BNE","CLEAR MOUNTAIN","QLD","4500","AU","False","",""
"BNE","BNE","CLEVELAND","QLD","4163","AU","False","",""
"BNE","BNE","CLEVELAND DC","QLD","4163","AU","False","",""
"BNE","BNE","CLONTARF","QLD","4019","AU","False","",""
"BNE","BNE","CLONTARF BEACH","QLD","4019","AU","False","",""
"BNE","BNE","CLONTARF DC","QLD","4019","AU","False","",""
"BNE","BNE","COALFALLS","QLD","4305","AU","False","",""
"BNE","BNE","COLLINGWOOD PARK","QLD","4301","AU","False","",""
"BNE","BNE","COOPERS PLAINS","QLD","4108","AU","False","",""
"BNE","BNE","COORPAROO","QLD","4151","AU","False","",""
"BNE","BNE","COORPAROO BC","QLD","4151","AU","False","",""
"BNE","BNE","COORPAROO DC","QLD","4151","AU","False","",""
"BNE","BNE","CORINDA","QLD","4075","AU","False","",""
"BNE","BNE","CORNUBIA","QLD","4130","AU","False","",""
"BNE","BNE","CRESTMEAD","QLD","4132","AU","False","",""
"BNE","BNE","CRESTMEAD DC","QLD","4132","AU","False","",""
"BNE","BNE","DAISY HILL","QLD","4127","AU","False","",""
"BNE","BNE","DARRA","QLD","4076","AU","False","",""
"BNE","BNE","DEAGON","QLD","4017","AU","False","",""
"BNE","BNE","DINMORE","QLD","4303","AU","False","",""
"BNE","BNE","DOOLANDELLA","QLD","4077","AU","False","",""
"BNE","BNE","DREWVALE","QLD","4116","AU","False","",""
"BNE","BNE","DURACK","QLD","4077","AU","False","",""
"BNE","BNE","DUTTON PARK","QLD","4102","AU","False","",""
"BNE","BNE","EAGLE FARM","QLD","4009","AU","False","",""
"BNE","BNE","EAGLE FARM BC","QLD","4009","AU","False","",""
"BNE","BNE","EAGLEBY","QLD","4207","AU","False","",""
"BNE","BNE","EAST BRISBANE","QLD","4169","AU","False","",""
"BNE","BNE","EAST IPSWICH","QLD","4305","AU","False","",""
"BNE","BNE","EASTERN HEIGHTS","QLD","4305","AU","False","",""
"BNE","BNE","EATONS HILL","QLD","4037","AU","False","",""
"BNE","BNE","EBBW VALE","QLD","4304","AU","False","",""
"BNE","BNE","EDENS LANDING","QLD","4207","AU","False","",""
"BNE","BNE","EIGHT MILE PLAINS","QLD","4113","AU","False","",""
"BNE","BNE","ELLEN GROVE","QLD","4078","AU","False","",""
"BNE","BNE","ENOGGERA","QLD","4051","AU","False","",""
"BNE","BNE","EVERTON HILLS","QLD","4053","AU","False","",""
"BNE","BNE","EVERTON PARK","QLD","4053","AU","False","",""
"BNE","BNE","FAIRFIELD","QLD","4103","AU","False","",""
"BNE","BNE","FAIRFIELD GARDENS","QLD","4103","AU","False","",""
"BNE","BNE","FERNY GROVE","QLD","4055","AU","False","",""
"BNE","BNE","FERNY HILLS","QLD","4055","AU","False","",""
"BNE","BNE","FERNY HILLS DC","QLD","4055","AU","False","",""
"BNE","BNE","FIG TREE POCKET","QLD","4069","AU","False","",""
"BNE","BNE","FITZGIBBON","QLD","4018","AU","False","",""
"BNE","BNE","FLINDERS VIEW","QLD","4305","AU","False","",""
"BNE","BNE","FOREST LAKE","QLD","4078","AU","False","",""
"BNE","BNE","FORESTDALE","QLD","4118","AU","False","",""
"BNE","BNE","FORTITUDE VALLEY","QLD","4006","AU","False","",""
"BNE","BNE","FORTITUDE VALLEY BC","QLD","4006","AU","False","",""
"BNE","BNE","GAILES","QLD","4300","AU","False","",""
"BNE","BNE","GAYTHORNE","QLD","4051","AU","False","",""
"BNE","BNE","GEEBUNG","QLD","4034","AU","False","",""
"BNE","BNE","GEORGE STREET","QLD","4003","AU","False","",""
"BNE","BNE","GILBERTON","QLD","4208","AU","False","",""
"BNE","BNE","GOODNA","QLD","4300","AU","False","",""
"BNE","BNE","GOODNA DC","QLD","4300","AU","False","",""
"BNE","BNE","GORDON PARK","QLD","4031","AU","False","",""
"BNE","BNE","GRACEVILLE","QLD","4075","AU","False","",""
"BNE","BNE","GRACEVILLE EAST","QLD","4075","AU","False","",""
"BNE","BNE","GRANGE","QLD","4051","AU","False","",""
"BNE","BNE","GREENBANK","QLD","4124","AU","False","",""
"BNE","BNE","GREENSLOPES","QLD","4120","AU","False","",""
"BNE","BNE","GUMDALE","QLD","4154","AU","False","",""
"BNE","BNE","HAMILTON","QLD","4007","AU","False","",""
"BNE","BNE","HAMILTON CENTRAL","QLD","4007","AU","False","",""
"BNE","BNE","HAWTHORNE","QLD","4171","AU","False","",""
"BNE","BNE","HEATHWOOD","QLD","4110","AU","False","",""
"BNE","BNE","HEMMANT","QLD","4174","AU","False","",""
"BNE","BNE","HENDRA","QLD","4011","AU","False","",""
"BNE","BNE","HERITAGE PARK","QLD","4118","AU","False","",""
"BNE","BNE","HERSTON","QLD","4006","AU","False","",""
"BNE","BNE","HIGHGATE HILL","QLD","4101","AU","False","",""
"BNE","BNE","HILLCREST","QLD","4118","AU","False","",""
"BNE","BNE","HOLLAND PARK","QLD","4121","AU","False","",""
"BNE","BNE","HOLLAND PARK EAST","QLD","4121","AU","False","",""
"BNE","BNE","HOLLAND PARK WEST","QLD","4121","AU","False","",""
"BNE","BNE","HOLMVIEW","QLD","4207","AU","False","",""
"BNE","BNE","INALA","QLD","4077","AU","False","",""
"BNE","BNE","INALA EAST","QLD","4077","AU","False","",""
"BNE","BNE","INALA HEIGHTS","QLD","4077","AU","False","",""
"BNE","BNE","INDOOROOPILLY","QLD","4068","AU","False","",""
"BNE","BNE","INDOOROOPILLY CENTRE","QLD","4068","AU","False","",""
"BNE","BNE","IPSWICH","QLD","4305","AU","False","",""
"BNE","BNE","JACOBS WELL","QLD","4208","AU","False","",""
"BNE","BNE","JAMBOREE HEIGHTS","QLD","4074","AU","False","",""
"BNE","BNE","JINDALEE","QLD","4074","AU","False","",""
"BNE","BNE","JOYNER","QLD","4500","AU","False","",""
"BNE","BNE","KANGAROO POINT","QLD","4169","AU","False","",""
"BNE","BNE","KARAWATHA","QLD","4117","AU","False","",""
"BNE","BNE","KEDRON","QLD","4031","AU","False","",""
"BNE","BNE","KELVIN GROVE","QLD","4059","AU","False","",""
"BNE","BNE","KELVIN GROVE BC","QLD","4059","AU","False","",""
"BNE","BNE","KELVIN GROVE DC","QLD","4059","AU","False","",""
"BNE","BNE","KENMORE","QLD","4069","AU","False","",""
"BNE","BNE","KENMORE DC","QLD","4069","AU","False","",""
"BNE","BNE","KENMORE EAST","QLD","4069","AU","False","",""
"BNE","BNE","KENMORE HILLS","QLD","4069","AU","False","",""
"BNE","BNE","KEPERRA","QLD","4054","AU","False","",""
"BNE","BNE","KINGSHOLME","QLD","4208","AU","False","",""
"BNE","BNE","KINGSTON","QLD","4114","AU","False","",""
"BNE","BNE","KIPPA-RING","QLD","4021","AU","False","",""
"BNE","BNE","KURABY","QLD","4112","AU","False","",""
"BNE","BNE","LARAPINTA","QLD","4110","AU","False","",""
"BNE","BNE","LAWNTON","QLD","4501","AU","False","",""
"BNE","BNE","LEICHHARDT","QLD","4305","AU","False","",""
"BNE","BNE","LIMESTONE RIDGES","QLD","4305","AU","False","",""
"BNE","BNE","LOGAN CENTRAL","QLD","4114","AU","False","",""
"BNE","BNE","LOGAN CITY BC","QLD","4114","AU","False","",""
"BNE","BNE","LOGAN CITY DC","QLD","4114","AU","False","",""
"BNE","BNE","LOGAN RESERVE","QLD","4133","AU","False","",""
"BNE","BNE","LOGAN VILLAGE","QLD","4207","AU","False","",""
"BNE","BNE","LOGANHOLME","QLD","4129","AU","False","",""
"BNE","BNE","LOGANHOLME BC","QLD","4129","AU","False","",""
"BNE","BNE","LOGANHOLME DC","QLD","4129","AU","False","",""
"BNE","BNE","LOGANLEA","QLD","4131","AU","False","",""
"BNE","BNE","LOTA","QLD","4179","AU","False","",""
"BNE","BNE","LUSCOMBE","QLD","4207","AU","False","",""
"BNE","BNE","LUTWYCHE","QLD","4030","AU","False","",""
"BNE","BNE","LYONS","QLD","4124","AU","False","",""
"BNE","BNE","LYTTON","QLD","4178","AU","False","",""
"BNE","BNE","MACGREGOR","QLD","4109","AU","False","",""
"BNE","BNE","MACKENZIE","QLD","4156","AU","False","",""
"BNE","BNE","MANLY","QLD","4179","AU","False","",""
"BNE","BNE","MANLY WEST","QLD","4179","AU","False","",""
"BNE","BNE","MANSFIELD","QLD","4122","AU","False","",""
"BNE","BNE","MANSFIELD BC","QLD","4122","AU","False","",""
"BNE","BNE","MANSFIELD DC","QLD","4122","AU","False","",""
"BNE","BNE","MARGATE","QLD","4019","AU","False","",""
"BNE","BNE","MARGATE BEACH","QLD","4019","AU","False","",""
"BNE","BNE","MARSDEN","QLD","4132","AU","False","",""
"BNE","BNE","MCDOWALL","QLD","4053","AU","False","",""
"BNE","BNE","MEADOWBROOK","QLD","4131","AU","False","",""
"BNE","BNE","MIDDLE PARK","QLD","4074","AU","False","",""
"BNE","BNE","MILTON","QLD","4064","AU","False","",""
"BNE","BNE","MILTON BC","QLD","4064","AU","False","",""
"BNE","BNE","MITCHELTON","QLD","4053","AU","False","",""
"BNE","BNE","MOGGILL","QLD","4070","AU","False","",""
"BNE","BNE","MOORES POCKET","QLD","4305","AU","False","",""
"BNE","BNE","MOOROOKA","QLD","4105","AU","False","",""
"BNE","BNE","MORNINGSIDE","QLD","4170","AU","False","",""
"BNE","BNE","MOUNT COOT-THA","QLD","4066","AU","False","",""
"BNE","BNE","MOUNT COTTON","QLD","4165","AU","False","",""
"BNE","BNE","MOUNT GRAVATT","QLD","4122","AU","False","",""
"BNE","BNE","MOUNT GRAVATT EAST","QLD","4122","AU","False","",""
"BNE","BNE","MOUNT OMMANEY","QLD","4074","AU","False","",""
"BNE","BNE","MOUNT WARREN PARK","QLD","4207","AU","False","",""
"BNE","BNE","MUNRUBEN","QLD","4125","AU","False","",""
"BNE","BNE","MURARRIE","QLD","4172","AU","False","",""
"BNE","BNE","NARANGBA","QLD","4504","AU","False","",""
"BNE","BNE","NATHAN","QLD","4111","AU","False","",""
"BNE","BNE","NEW BEITH","QLD","4124","AU","False","",""
"BNE","BNE","NEW CHUM","QLD","4303","AU","False","",""
"BNE","BNE","NEW FARM","QLD","4005","AU","False","",""
"BNE","BNE","NEWMARKET","QLD","4051","AU","False","",""
"BNE","BNE","NEWSTEAD","QLD","4006","AU","False","",""
"BNE","BNE","NEWTOWN","QLD","4305","AU","False","",""
"BNE","BNE","NORMAN PARK","QLD","4170","AU","False","",""
"BNE","BNE","NORTH BOOVAL","QLD","4304","AU","False","",""
"BNE","BNE","NORTH IPSWICH","QLD","4305","AU","False","",""
"BNE","BNE","NORTH TIVOLI","QLD","4305","AU","False","",""
"BNE","BNE","NORTHGATE","QLD","4013","AU","False","",""
"BNE","BNE","NORTHGATE MC","QLD","9464","AU","False","",""
"BNE","BNE","NORWELL","QLD","4208","AU","False","",""
"BNE","BNE","NUDGEE","QLD","4014","AU","False","",""
"BNE","BNE","NUDGEE BEACH","QLD","4014","AU","False","",""
"BNE","BNE","NUNDAH","QLD","4012","AU","False","",""
"BNE","BNE","ONE MILE","QLD","4305","AU","False","",""
"BNE","BNE","ORMEAU","QLD","4208","AU","False","",""
"BNE","BNE","ORMEAU HILLS","QLD","4208","AU","False","",""
"BNE","BNE","ORMISTON","QLD","4160","AU","False","",""
"BNE","BNE","OXLEY","QLD","4075","AU","False","",""
"BNE","BNE","PADDINGTON","QLD","4064","AU","False","",""
"BNE","BNE","PALLARA","QLD","4110","AU","False","",""
"BNE","BNE","PARK RIDGE","QLD","4125","AU","False","",""
"BNE","BNE","PARK RIDGE SOUTH","QLD","4125","AU","False","",""
"BNE","BNE","PARKINSON","QLD","4115","AU","False","",""
"BNE","BNE","PETRIE","QLD","4502","AU","False","",""
"BNE","BNE","PINJARRA HILLS","QLD","4069","AU","False","",""
"BNE","BNE","PINKENBA","QLD","4008","AU","False","",""
"BNE","BNE","PORT OF BRISBANE","QLD","4178","AU","False","",""
"BNE","BNE","PRIESTDALE","QLD","4127","AU","False","",""
"BNE","BNE","PULLENVALE","QLD","4069","AU","False","",""
"BNE","BNE","RACEVIEW","QLD","4305","AU","False","",""
"BNE","BNE","RANSOME","QLD","4154","AU","False","",""
"BNE","BNE","RED HILL","QLD","4059","AU","False","",""
"BNE","BNE","REDBANK","QLD","4301","AU","False","",""
"BNE","BNE","REDBANK PLAINS","QLD","4301","AU","False","",""
"BNE","BNE","REDCLIFFE","QLD","4020","AU","False","",""
"BNE","BNE","REDCLIFFE NORTH","QLD","4020","AU","False","",""
"BNE","BNE","REDLAND BAY","QLD","4165","AU","False","",""
"BNE","BNE","REGENTS PARK","QLD","4118","AU","False","",""
"BNE","BNE","RICHLANDS","QLD","4077","AU","False","",""
"BNE","BNE","RICHLANDS DC","QLD","4077","AU","False","",""
"BNE","BNE","RIVERHILLS","QLD","4074","AU","False","",""
"BNE","BNE","RIVERSIDE CENTRE","QLD","4001","AU","False","",""
"BNE","BNE","RIVERVIEW","QLD","4303","AU","False","",""
"BNE","BNE","ROBERTSON","QLD","4109","AU","False","",""
"BNE","BNE","ROCHEDALE","QLD","4123","AU","False","",""
"BNE","BNE","ROCHEDALE SOUTH","QLD","4123","AU","False","",""
"BNE","BNE","ROCKLEA","QLD","4106","AU","False","",""
"BNE","BNE","ROCKLEA DC","QLD","4106","AU","False","",""
"BNE","BNE","ROTHWELL","QLD","4022","AU","False","",""
"BNE","BNE","ROYAL BRISBANE HOSPITAL","QLD","4029","AU","False","",""
"BNE","BNE","RUNCORN","QLD","4113","AU","False","",""
"BNE","BNE","SADLIERS CROSSING","QLD","4305","AU","False","",""
"BNE","BNE","SALISBURY","QLD","4107","AU","False","",""
"BNE","BNE","SALISBURY EAST","QLD","4107","AU","False","",""
"BNE","BNE","SANDGATE","QLD","4017","AU","False","",""
"BNE","BNE","SANDGATE DC","QLD","4017","AU","False","",""
"BNE","BNE","SCARBOROUGH","QLD","4020","AU","False","",""
"BNE","BNE","SEVEN HILLS","QLD","4170","AU","False","",""
"BNE","BNE","SEVENTEEN MILE ROCKS","QLD","4073","AU","False","",""
"BNE","BNE","SHAILER PARK","QLD","4128","AU","False","",""
"BNE","BNE","SHELDON","QLD","4157","AU","False","",""
"BNE","BNE","SHERWOOD","QLD","4075","AU","False","",""
"BNE","BNE","SHORNCLIFFE","QLD","4017","AU","False","",""
"BNE","BNE","SILKSTONE","QLD","4304","AU","False","",""
"BNE","BNE","SINNAMON PARK","QLD","4073","AU","False","",""
"BNE","BNE","SLACKS CREEK","QLD","4127","AU","False","",""
"BNE","BNE","SOUTH BRISBANE","QLD","4101","AU","False","",""
"BNE","BNE","SOUTH BRISBANE BC","QLD","4101","AU","False","",""
"BNE","BNE","SPRING HILL","QLD","4000","AU","False","",""
"BNE","BNE","SPRING HILL","QLD","4004","AU","False","",""
"BNE","BNE","SPRING MOUNTAIN","QLD","4124","AU","False","",""
"BNE","BNE","SPRINGFIELD","QLD","4300","AU","False","",""
"BNE","BNE","SPRINGFIELD LAKES","QLD","4300","AU","False","",""
"BNE","BNE","SPRINGWOOD","QLD","4127","AU","False","",""
"BNE","BNE","ST LUCIA","QLD","4067","AU","False","",""
"BNE","BNE","ST LUCIA SOUTH","QLD","4067","AU","False","",""
"BNE","BNE","STAFFORD","QLD","4053","AU","False","",""
"BNE","BNE","STAFFORD BC","QLD","4053","AU","False","",""
"BNE","BNE","STAFFORD DC","QLD","4053","AU","False","",""
"BNE","BNE","STAFFORD HEIGHTS","QLD","4053","AU","False","",""
"BNE","BNE","STAPYLTON","QLD","4207","AU","False","",""
"BNE","BNE","STEIGLITZ","QLD","4207","AU","False","",""
"BNE","BNE","STONES CORNER","QLD","4120","AU","False","",""
"BNE","BNE","STRATHPINE","QLD","4500","AU","False","",""
"BNE","BNE","STRATHPINE CENTRE","QLD","4500","AU","False","",""
"BNE","BNE","STRETTON","QLD","4116","AU","False","",""
"BNE","BNE","SUMNER","QLD","4074","AU","False","",""
"BNE","BNE","SUMNER PARK BC","QLD","4074","AU","False","",""
"BNE","BNE","SUNNYBANK","QLD","4109","AU","False","",""
"BNE","BNE","SUNNYBANK HILLS","QLD","4109","AU","False","",""
"BNE","BNE","SUNNYBANK SOUTH","QLD","4109","AU","False","",""
"BNE","BNE","TAIGUM","QLD","4018","AU","False","",""
"BNE","BNE","TANAH MERAH","QLD","4128","AU","False","",""
"BNE","BNE","TARINGA","QLD","4068","AU","False","",""
"BNE","BNE","TARRAGINDI","QLD","4121","AU","False","",""
"BNE","BNE","TENNYSON","QLD","4105","AU","False","",""
"BNE","BNE","THE GAP","QLD","4061","AU","False","",""
"BNE","BNE","THORNESIDE","QLD","4158","AU","False","",""
"BNE","BNE","THORNLANDS","QLD","4164","AU","False","",""
"BNE","BNE","TINGALPA","QLD","4173","AU","False","",""
"BNE","BNE","TINGALPA BC","QLD","4173","AU","False","",""
"BNE","BNE","TINGALPA DC","QLD","4173","AU","False","",""
"BNE","BNE","TIVOLI","QLD","4305","AU","False","",""
"BNE","BNE","TOOMBUL","QLD","4012","AU","False","",""
"BNE","BNE","TOOWONG","QLD","4066","AU","False","",""
"BNE","BNE","TOOWONG BC","QLD","4066","AU","False","",""
"BNE","BNE","TOOWONG DC","QLD","4066","AU","False","",""
"BNE","BNE","UNDERWOOD","QLD","4119","AU","False","",""
"BNE","BNE","UNIVERSITY OF QUEENSLAND","QLD","4072","AU","False","",""
"BNE","BNE","UPPER BROOKFIELD","QLD","4069","AU","False","",""
"BNE","BNE","UPPER KEDRON","QLD","4055","AU","False","",""
"BNE","BNE","UPPER MOUNT GRAVATT","QLD","4122","AU","False","",""
"BNE","BNE","UPPER MOUNT GRAVATT BC","QLD","4122","AU","False","",""
"BNE","BNE","VICTORIA POINT","QLD","4165","AU","False","",""
"BNE","BNE","VICTORIA POINT WEST","QLD","4165","AU","False","",""
"BNE","BNE","VIRGINIA","QLD","4014","AU","False","",""
"BNE","BNE","VIRGINIA BC","QLD","4014","AU","False","",""
"BNE","BNE","VIRGINIA DC","QLD","4014","AU","False","",""
"BNE","BNE","WACOL","QLD","4076","AU","False","",""
"BNE","BNE","WAKERLEY","QLD","4154","AU","False","",""
"BNE","BNE","WARNER","QLD","4500","AU","False","",""
"BNE","BNE","WATERFORD","QLD","4133","AU","False","",""
"BNE","BNE","WATERFORD WEST","QLD","4133","AU","False","",""
"BNE","BNE","WATERFRONT PLACE","QLD","4001","AU","False","",""
"BNE","BNE","WAVELL HEIGHTS","QLD","4012","AU","False","",""
"BNE","BNE","WAVELL HEIGHTS NORTH","QLD","4012","AU","False","",""
"BNE","BNE","WELLERS HILL","QLD","4121","AU","False","",""
"BNE","BNE","WELLINGTON POINT","QLD","4160","AU","False","",""
"BNE","BNE","WEST END","QLD","4101","AU","False","",""
"BNE","BNE","WEST IPSWICH","QLD","4305","AU","False","",""
"BNE","BNE","WESTLAKE","QLD","4074","AU","False","",""
"BNE","BNE","WILLAWONG","QLD","4110","AU","False","",""
"BNE","BNE","WILSTON","QLD","4051","AU","False","",""
"BNE","BNE","WINDAROO","QLD","4207","AU","False","",""
"BNE","BNE","WINDSOR","QLD","4030","AU","False","",""
"BNE","BNE","WINTERGARDEN","QLD","4002","AU","False","",""
"BNE","BNE","WISHART","QLD","4122","AU","False","",""
"BNE","BNE","WOLFFDENE","QLD","4207","AU","False","",""
"BNE","BNE","WOODEND","QLD","4305","AU","False","",""
"BNE","BNE","WOODRIDGE","QLD","4114","AU","False","",""
"BNE","BNE","WOODY POINT","QLD","4019","AU","False","",""
"BNE","BNE","WOOLLOONGABBA","QLD","4102","AU","False","",""
"BNE","BNE","WOOLOOWIN","QLD","4030","AU","False","",""
"BNE","BNE","WOONGOOLBA","QLD","4207","AU","False","",""
"BNE","BNE","WULKURAKA","QLD","4305","AU","False","",""
"BNE","BNE","WYNNUM","QLD","4178","AU","False","",""
"BNE","BNE","WYNNUM NORTH","QLD","4178","AU","False","",""
"BNE","BNE","WYNNUM PLAZA","QLD","4178","AU","False","",""
"BNE","BNE","WYNNUM WEST","QLD","4178","AU","False","",""
"BNE","BNE","YAMANTO","QLD","4305","AU","False","",""
"BNE","BNE","YARRABILBA","QLD","4207","AU","False","",""
"BNE","BNE","YATALA","QLD","4207","AU","False","",""
"BNE","BNE","YATALA DC","QLD","4207","AU","False","",""
"BNE","BNE","YEERONGPILLY","QLD","4105","AU","False","",""
"BNE","BNE","YERONGA","QLD","4104","AU","False","",""
"BNE","BNE","ZILLMERE","QLD","4034","AU","False","",""
"MEL","MEL","ABBOTSFORD","VIC","3067","AU","False","",""
"MEL","MEL","ABERFELDIE","VIC","3040","AU","False","",""
"MEL","MEL","AIRPORT WEST","VIC","3042","AU","False","",""
"MEL","MEL","ALBANVALE","VIC","3021","AU","False","",""
"MEL","MEL","ALBERT PARK","VIC","3206","AU","False","",""
"MEL","MEL","ALBION","VIC","3020","AU","False","",""
"MEL","MEL","ALPHINGTON","VIC","3078","AU","False","",""
"MEL","MEL","ALTONA","VIC","3018","AU","False","",""
"MEL","MEL","ALTONA EAST","VIC","3025","AU","False","",""
"MEL","MEL","ALTONA GATE","VIC","3025","AU","False","",""
"MEL","MEL","ALTONA MEADOWS","VIC","3028","AU","False","",""
"MEL","MEL","ALTONA NORTH","VIC","3025","AU","False","",""
"MEL","MEL","ARDEER","VIC","3022","AU","False","",""
"MEL","MEL","ARMADALE","VIC","3143","AU","False","",""
"MEL","MEL","ARMADALE NORTH","VIC","3143","AU","False","",""
"MEL","MEL","ASCOT VALE","VIC","3032","AU","False","",""
"MEL","MEL","ASHBURTON","VIC","3147","AU","False","",""
"MEL","MEL","ASHWOOD","VIC","3147","AU","False","",""
"MEL","MEL","ASPENDALE","VIC","3195","AU","False","",""
"MEL","MEL","ASPENDALE GARDENS","VIC","3195","AU","False","",""
"MEL","MEL","ATTWOOD","VIC","3049","AU","False","",""
"MEL","MEL","AUBURN","VIC","3123","AU","False","",""
"MEL","MEL","AUBURN SOUTH","VIC","3122","AU","False","",""
"MEL","MEL","AVONDALE HEIGHTS","VIC","3034","AU","False","",""
"MEL","MEL","BALACLAVA","VIC","3183","AU","False","",""
"MEL","MEL","BALWYN","VIC","3103","AU","False","",""
"MEL","MEL","BALWYN EAST","VIC","3103","AU","False","",""
"MEL","MEL","BALWYN NORTH","VIC","3104","AU","False","",""
"MEL","MEL","BANGHOLME","VIC","3175","AU","False","",""
"MEL","MEL","BANYULE","VIC","3084","AU","False","",""
"MEL","MEL","BATMAN","VIC","3058","AU","False","",""
"MEL","MEL","BAYSWATER","VIC","3153","AU","False","",""
"MEL","MEL","BAYSWATER NORTH","VIC","3153","AU","False","",""
"MEL","MEL","BEAUMARIS","VIC","3193","AU","False","",""
"MEL","MEL","BEDFORD ROAD","VIC","3135","AU","False","",""
"MEL","MEL","BELGRAVE HEIGHTS","VIC","3160","AU","False","",""
"MEL","MEL","BELGRAVE SOUTH","VIC","3160","AU","False","",""
"MEL","MEL","BELLFIELD","VIC","3081","AU","False","",""
"MEL","MEL","BELVEDERE PARK","VIC","3198","AU","False","",""
"MEL","MEL","BEND OF ISLANDS","VIC","3097","AU","False","",""
"MEL","MEL","BENNETTSWOOD","VIC","3125","AU","False","",""
"MEL","MEL","BENTLEIGH","VIC","3204","AU","False","",""
"MEL","MEL","BENTLEIGH EAST","VIC","3165","AU","False","",""
"MEL","MEL","BLACK ROCK","VIC","3193","AU","False","",""
"MEL","MEL","BLACK ROCK NORTH","VIC","3193","AU","False","",""
"MEL","MEL","BLACKBURN","VIC","3130","AU","False","",""
"MEL","MEL","BLACKBURN NORTH","VIC","3130","AU","False","",""
"MEL","MEL","BLACKBURN SOUTH","VIC","3130","AU","False","",""
"MEL","MEL","BONBEACH","VIC","3196","AU","False","",""
"MEL","MEL","BOORAN ROAD PO","VIC","3163","AU","False","",""
"MEL","MEL","BORONIA","VIC","3155","AU","False","",""
"MEL","MEL","BOX HILL","VIC","3128","AU","False","",""
"MEL","MEL","BOX HILL CENTRAL","VIC","3128","AU","False","",""
"MEL","MEL","BOX HILL NORTH","VIC","3129","AU","False","",""
"MEL","MEL","BOX HILL SOUTH","VIC","3128","AU","False","",""
"MEL","MEL","BRAESIDE","VIC","3195","AU","False","",""
"MEL","MEL","BRAYBROOK","VIC","3019","AU","False","",""
"MEL","MEL","BRAYBROOK NORTH","VIC","3019","AU","False","",""
"MEL","MEL","BRENTFORD SQUARE","VIC","3131","AU","False","",""
"MEL","MEL","BRIAR HILL","VIC","3088","AU","False","",""
"MEL","MEL","BRIGHTON","VIC","3186","AU","False","",""
"MEL","MEL","BRIGHTON EAST","VIC","3187","AU","False","",""
"MEL","MEL","BRIGHTON NORTH","VIC","3186","AU","False","",""
"MEL","MEL","BRIGHTON ROAD","VIC","3184","AU","False","",""
"MEL","MEL","BROADMEADOWS","VIC","3047","AU","False","",""
"MEL","MEL","BROOKLYN","VIC","3012","AU","False","",""
"MEL","MEL","BRUNSWICK","VIC","3056","AU","False","",""
"MEL","MEL","BRUNSWICK EAST","VIC","3057","AU","False","",""
"MEL","MEL","BRUNSWICK LOWER","VIC","3056","AU","False","",""
"MEL","MEL","BRUNSWICK NORTH","VIC","3056","AU","False","",""
"MEL","MEL","BRUNSWICK SOUTH","VIC","3055","AU","False","",""
"MEL","MEL","BRUNSWICK WEST","VIC","3055","AU","False","",""
"MEL","MEL","BULLEEN","VIC","3105","AU","False","",""
"MEL","MEL","BULLEEN SOUTH","VIC","3105","AU","False","",""
"MEL","MEL","BUNDOORA","VIC","3083","AU","False","",""
"MEL","MEL","BURNLEY","VIC","3121","AU","False","",""
"MEL","MEL","BURNLEY NORTH","VIC","3121","AU","False","",""
"MEL","MEL","BURNSIDE HEIGHTS","VIC","3023","AU","False","",""
"MEL","MEL","BURWOOD","VIC","3125","AU","False","",""
"MEL","MEL","BURWOOD EAST","VIC","3151","AU","False","",""
"MEL","MEL","BURWOOD HEIGHTS","VIC","3151","AU","False","",""
"MEL","MEL","CAIRNLEA","VIC","3023","AU","False","",""
"MEL","MEL","CALDER PARK","VIC","3049","AU","False","",""
"MEL","MEL","CAMBERWELL","VIC","3124","AU","False","",""
"MEL","MEL","CAMBERWELL EAST","VIC","3126","AU","False","",""
"MEL","MEL","CAMBERWELL NORTH","VIC","3124","AU","False","",""
"MEL","MEL","CAMBERWELL SOUTH","VIC","3124","AU","False","",""
"MEL","MEL","CAMBERWELL WEST","VIC","3124","AU","False","",""
"MEL","MEL","CAMPBELLFIELD","VIC","3061","AU","False","",""
"MEL","MEL","CANTERBURY","VIC","3126","AU","False","",""
"MEL","MEL","CARLTON","VIC","3053","AU","False","",""
"MEL","MEL","CARLTON NORTH","VIC","3054","AU","False","",""
"MEL","MEL","CARLTON SOUTH","VIC","3053","AU","False","",""
"MEL","MEL","CARNEGIE","VIC","3163","AU","False","",""
"MEL","MEL","CAROLINE SPRINGS","VIC","3023","AU","False","",""
"MEL","MEL","CARRUM","VIC","3197","AU","False","",""
"MEL","MEL","CARRUM DOWNS","VIC","3201","AU","False","",""
"MEL","MEL","CAULFIELD","VIC","3162","AU","False","",""
"MEL","MEL","CAULFIELD EAST","VIC","3145","AU","False","",""
"MEL","MEL","CAULFIELD JUNCTION","VIC","3161","AU","False","",""
"MEL","MEL","CAULFIELD NORTH","VIC","3161","AU","False","",""
"MEL","MEL","CAULFIELD SOUTH","VIC","3162","AU","False","",""
"MEL","MEL","CENTRAL PARK","VIC","3145","AU","False","",""
"MEL","MEL","CHADSTONE","VIC","3148","AU","False","",""
"MEL","MEL","CHADSTONE CENTRE","VIC","3148","AU","False","",""
"MEL","MEL","CHAPEL STREET NORTH","VIC","3141","AU","False","",""
"MEL","MEL","CHELSEA","VIC","3196","AU","False","",""
"MEL","MEL","CHELSEA HEIGHTS","VIC","3196","AU","False","",""
"MEL","MEL","CHELTENHAM","VIC","3192","AU","False","",""
"MEL","MEL","CHELTENHAM EAST","VIC","3192","AU","False","",""
"MEL","MEL","CHELTENHAM NORTH","VIC","3192","AU","False","",""
"MEL","MEL","CHIRNSIDE PARK","VIC","3116","AU","False","",""
"MEL","MEL","CLARINDA","VIC","3169","AU","False","",""
"MEL","MEL","CLAYTON","VIC","3168","AU","False","",""
"MEL","MEL","CLAYTON SOUTH","VIC","3169","AU","False","",""
"MEL","MEL","CLIFTON HILL","VIC","3068","AU","False","",""
"MEL","MEL","COATESVILLE","VIC","3165","AU","False","",""
"MEL","MEL","COBURG","VIC","3058","AU","False","",""
"MEL","MEL","COBURG NORTH","VIC","3058","AU","False","",""
"MEL","MEL","COCOROC","VIC","3030","AU","False","",""
"MEL","MEL","COLLINGWOOD","VIC","3066","AU","False","",""
"MEL","MEL","COLLINGWOOD NORTH","VIC","3066","AU","False","",""
"MEL","MEL","COOLAROO","VIC","3048","AU","False","",""
"MEL","MEL","COTHAM","VIC","3101","AU","False","",""
"MEL","MEL","CREMORNE","VIC","3121","AU","False","",""
"MEL","MEL","CROMER","VIC","3193","AU","False","",""
"MEL","MEL","CROYDON","VIC","3136","AU","False","",""
"MEL","MEL","CROYDON HILLS","VIC","3136","AU","False","",""
"MEL","MEL","CROYDON NORTH","VIC","3136","AU","False","",""
"MEL","MEL","CROYDON SOUTH","VIC","3136","AU","False","",""
"MEL","MEL","DALLAS","VIC","3047","AU","False","",""
"MEL","MEL","DANDENONG","VIC","3175","AU","False","",""
"MEL","MEL","DANDENONG EAST","VIC","3175","AU","False","",""
"MEL","MEL","DANDENONG NORTH","VIC","3175","AU","False","",""
"MEL","MEL","DANDENONG SOUTH","VIC","3164","AU","False","",""
"MEL","MEL","DANDENONG SOUTH","VIC","3175","AU","False","",""
"MEL","MEL","DARLING","VIC","3145","AU","False","",""
"MEL","MEL","DARLING SOUTH","VIC","3145","AU","False","",""
"MEL","MEL","DEEPDENE DC","VIC","3103","AU","False","",""
"MEL","MEL","DEER PARK","VIC","3023","AU","False","",""
"MEL","MEL","DEER PARK EAST","VIC","3022","AU","False","",""
"MEL","MEL","DEER PARK NORTH","VIC","3023","AU","False","",""
"MEL","MEL","DELAHEY","VIC","3037","AU","False","",""
"MEL","MEL","DENDY","VIC","3186","AU","False","",""
"MEL","MEL","DERRIMUT","VIC","3026","AU","False","",""
"MEL","MEL","DERRIMUT","VIC","3030","AU","False","",""
"MEL","MEL","DINGLEY VILLAGE","VIC","3172","AU","False","",""
"MEL","MEL","DOCKLANDS","VIC","3008","AU","False","",""
"MEL","MEL","DOMAIN ROAD PO","VIC","3141","AU","False","",""
"MEL","MEL","DONCASTER","VIC","3108","AU","False","",""
"MEL","MEL","DONCASTER EAST","VIC","3109","AU","False","",""
"MEL","MEL","DONCASTER HEIGHTS","VIC","3109","AU","False","",""
"MEL","MEL","DONVALE","VIC","3111","AU","False","",""
"MEL","MEL","DOVETON","VIC","3177","AU","False","",""
"MEL","MEL","DUNEARN","VIC","3175","AU","False","",""
"MEL","MEL","EAGLEMONT","VIC","3084","AU","False","",""
"MEL","MEL","EAST MELBOURNE","VIC","3002","AU","False","",""
"MEL","MEL","EDITHVALE","VIC","3196","AU","False","",""
"MEL","MEL","ELSTERNWICK","VIC","3185","AU","False","",""
"MEL","MEL","ELTHAM","VIC","3095","AU","False","",""
"MEL","MEL","ELTHAM NORTH","VIC","3095","AU","False","",""
"MEL","MEL","ELWOOD","VIC","3184","AU","False","",""
"MEL","MEL","ENDEAVOUR HILLS","VIC","3802","AU","False","",""
"MEL","MEL","EPPING","VIC","3076","AU","False","",""
"MEL","MEL","EPPING DC","VIC","3076","AU","False","",""
"MEL","MEL","ESSENDON","VIC","3040","AU","False","",""
"MEL","MEL","ESSENDON NORTH","VIC","3041","AU","False","",""
"MEL","MEL","ESSENDON WEST","VIC","3040","AU","False","",""
"MEL","MEL","EUMEMMERRING","VIC","3177","AU","False","",""
"MEL","MEL","FAIRFIELD","VIC","3078","AU","False","",""
"MEL","MEL","FAWKNER","VIC","3060","AU","False","",""
"MEL","MEL","FAWKNER EAST","VIC","3060","AU","False","",""
"MEL","MEL","FAWKNER NORTH","VIC","3060","AU","False","",""
"MEL","MEL","FERNTREE GULLY","VIC","3156","AU","False","",""
"MEL","MEL","FITZROY","VIC","3065","AU","False","",""
"MEL","MEL","FITZROY NORTH","VIC","3068","AU","False","",""
"MEL","MEL","FLEMINGTON","VIC","3031","AU","False","",""
"MEL","MEL","FOOTSCRAY","VIC","3011","AU","False","",""
"MEL","MEL","FOREST HILL","VIC","3131","AU","False","",""
"MEL","MEL","FOUNTAIN GATE","VIC","3805","AU","False","",""
"MEL","MEL","FRANKSTON","VIC","3199","AU","False","",""
"MEL","MEL","FRANKSTON EAST","VIC","3199","AU","False","",""
"MEL","MEL","FRANKSTON HEIGHTS","VIC","3199","AU","False","",""
"MEL","MEL","FRANKSTON NORTH","VIC","3200","AU","False","",""
"MEL","MEL","FRANKSTON SOUTH","VIC","3199","AU","False","",""
"MEL","MEL","GARDEN CITY","VIC","3207","AU","False","",""
"MEL","MEL","GARDENVALE","VIC","3185","AU","False","",""
"MEL","MEL","GILBERTON","VIC","3072","AU","False","",""
"MEL","MEL","GLADSTONE PARK","VIC","3043","AU","False","",""
"MEL","MEL","GLEN HUNTLY","VIC","3163","AU","False","",""
"MEL","MEL","GLEN IRIS","VIC","3146","AU","False","",""
"MEL","MEL","GLEN WAVERLEY","VIC","3150","AU","False","",""
"MEL","MEL","GLENFERRIE SOUTH","VIC","3122","AU","False","",""
"MEL","MEL","GLENGALA","VIC","3020","AU","False","",""
"MEL","MEL","GLENROY","VIC","3046","AU","False","",""
"MEL","MEL","GOWANBRAE","VIC","3043","AU","False","",""
"MEL","MEL","GREENSBOROUGH","VIC","3088","AU","False","",""
"MEL","MEL","GREENVALE","VIC","3059","AU","False","",""
"MEL","MEL","GREYTHORN","VIC","3104","AU","False","",""
"MEL","MEL","HADFIELD","VIC","3046","AU","False","",""
"MEL","MEL","HALLAM","VIC","3803","AU","False","",""
"MEL","MEL","HAMPTON","VIC","3188","AU","False","",""
"MEL","MEL","HAMPTON EAST","VIC","3188","AU","False","",""
"MEL","MEL","HAMPTON NORTH","VIC","3188","AU","False","",""
"MEL","MEL","HAMPTON PARK","VIC","3976","AU","False","",""
"MEL","MEL","HARTWELL","VIC","3124","AU","False","",""
"MEL","MEL","HAWKSBURN","VIC","3142","AU","False","",""
"MEL","MEL","HAWTHORN","VIC","3122","AU","False","",""
"MEL","MEL","HAWTHORN EAST","VIC","3123","AU","False","",""
"MEL","MEL","HAWTHORN NORTH","VIC","3122","AU","False","",""
"MEL","MEL","HAWTHORN WEST","VIC","3122","AU","False","",""
"MEL","MEL","HEATHERTON","VIC","3202","AU","False","",""
"MEL","MEL","HEATHMONT","VIC","3135","AU","False","",""
"MEL","MEL","HEIDELBERG","VIC","3084","AU","False","",""
"MEL","MEL","HEIDELBERG HEIGHTS","VIC","3081","AU","False","",""
"MEL","MEL","HEIDELBERG RGH","VIC","3081","AU","False","",""
"MEL","MEL","HEIDELBERG WEST","VIC","3081","AU","False","",""
"MEL","MEL","HIGHETT","VIC","3190","AU","False","",""
"MEL","MEL","HIGHPOINT CITY","VIC","3032","AU","False","",""
"MEL","MEL","HILLSIDE","VIC","3037","AU","False","",""
"MEL","MEL","HOLMESGLEN","VIC","3148","AU","False","",""
"MEL","MEL","HOPETOUN GARDENS","VIC","3162","AU","False","",""
"MEL","MEL","HOPPERS CROSSING","VIC","3029","AU","False","",""
"MEL","MEL","HOTHAM HILL","VIC","3051","AU","False","",""
"MEL","MEL","HOUSTON","VIC","3128","AU","False","",""
"MEL","MEL","HUGHESDALE","VIC","3166","AU","False","",""
"MEL","MEL","HUNTINGDALE","VIC","3166","AU","False","",""
"MEL","MEL","IVANHOE","VIC","3079","AU","False","",""
"MEL","MEL","IVANHOE EAST","VIC","3079","AU","False","",""
"MEL","MEL","IVANHOE NORTH","VIC","3079","AU","False","",""
"MEL","MEL","JACANA","VIC","3047","AU","False","",""
"MEL","MEL","KARINGAL","VIC","3199","AU","False","",""
"MEL","MEL","KARINGAL CENTRE","VIC","3199","AU","False","",""
"MEL","MEL","KEALBA","VIC","3021","AU","False","",""
"MEL","MEL","KEILOR","VIC","3036","AU","False","",""
"MEL","MEL","KEILOR DOWNS","VIC","3038","AU","False","",""
"MEL","MEL","KEILOR EAST","VIC","3033","AU","False","",""
"MEL","MEL","KEILOR LODGE","VIC","3038","AU","False","",""
"MEL","MEL","KEILOR NORTH","VIC","3036","AU","False","",""
"MEL","MEL","KEILOR PARK","VIC","3042","AU","False","",""
"MEL","MEL","KENSINGTON","VIC","3031","AU","False","",""
"MEL","MEL","KEON PARK","VIC","3073","AU","False","",""
"MEL","MEL","KERRIMUIR","VIC","3129","AU","False","",""
"MEL","MEL","KEW","VIC","3101","AU","False","",""
"MEL","MEL","KEW EAST","VIC","3102","AU","False","",""
"MEL","MEL","KEYSBOROUGH","VIC","3173","AU","False","",""
"MEL","MEL","KILSYTH","VIC","3137","AU","False","",""
"MEL","MEL","KILSYTH SOUTH","VIC","3137","AU","False","",""
"MEL","MEL","KINGS PARK","VIC","3021","AU","False","",""
"MEL","MEL","KINGSBURY","VIC","3083","AU","False","",""
"MEL","MEL","KINGSVILLE","VIC","3012","AU","False","",""
"MEL","MEL","KINGSVILLE WEST","VIC","3012","AU","False","",""
"MEL","MEL","KNOX CITY CENTRE","VIC","3152","AU","False","",""
"MEL","MEL","KNOXFIELD","VIC","3180","AU","False","",""
"MEL","MEL","KOOYONG","VIC","3144","AU","False","",""
"MEL","MEL","KURUNJANG","VIC","3337","AU","False","",""
"MEL","MEL","LA TROBE UNIVERSITY","VIC","3083","AU","False","",""
"MEL","MEL","LA TROBE UNIVERSITY","VIC","3086","AU","False","",""
"MEL","MEL","LABURNUM","VIC","3130","AU","False","",""
"MEL","MEL","LALOR","VIC","3075","AU","False","",""
"MEL","MEL","LALOR PLAZA","VIC","3075","AU","False","",""
"MEL","MEL","LAVERTON","VIC","3028","AU","False","",""
"MEL","MEL","LAVERTON NORTH","VIC","3026","AU","False","",""
"MEL","MEL","LAVERTON RAAF","VIC","3027","AU","False","",""
"MEL","MEL","LILYDALE","VIC","3140","AU","False","",""
"MEL","MEL","LYGON STREET NORTH","VIC","3057","AU","False","",""
"MEL","MEL","LYSTERFIELD","VIC","3156","AU","False","",""
"MEL","MEL","LYSTERFIELD SOUTH","VIC","3156","AU","False","",""
"MEL","MEL","MACLEOD","VIC","3085","AU","False","",""
"MEL","MEL","MACLEOD WEST","VIC","3085","AU","False","",""
"MEL","MEL","MAIDSTONE","VIC","3012","AU","False","",""
"MEL","MEL","MALVERN","VIC","3144","AU","False","",""
"MEL","MEL","MALVERN EAST","VIC","3145","AU","False","",""
"MEL","MEL","MALVERN NORTH","VIC","3144","AU","False","",""
"MEL","MEL","MAMBOURIN","VIC","3024","AU","False","",""
"MEL","MEL","MARIBYRNONG","VIC","3032","AU","False","",""
"MEL","MEL","MCKINNON","VIC","3204","AU","False","",""
"MEL","MEL","MEADOW HEIGHTS","VIC","3048","AU","False","",""
"MEL","MEL","MELBOURNE","VIC","3000","AU","False","",""
"MEL","MEL","MELBOURNE","VIC","3001","AU","False","",""
"MEL","MEL","MELBOURNE","VIC","3004","AU","False","",""
"MEL","MEL","MELBOURNE AIRPORT","VIC","3045","AU","False","",""
"MEL","MEL","MELBOURNE UNIVERSITY","VIC","3052","AU","False","",""
"MEL","MEL","MELTON","VIC","3337","AU","False","",""
"MEL","MEL","MELTON WEST","VIC","3337","AU","False","",""
"MEL","MEL","MENTONE","VIC","3194","AU","False","",""
"MEL","MEL","MENTONE EAST","VIC","3194","AU","False","",""
"MEL","MEL","MERLYNSTON","VIC","3058","AU","False","",""
"MEL","MEL","MIDDLE CAMBERWELL","VIC","3124","AU","False","",""
"MEL","MEL","MIDDLE PARK","VIC","3206","AU","False","",""
"MEL","MEL","MILL PARK","VIC","3082","AU","False","",""
"MEL","MEL","MITCHAM","VIC","3132","AU","False","",""
"MEL","MEL","MITCHAM NORTH","VIC","3132","AU","False","",""
"MEL","MEL","MONASH UNIVERSITY","VIC","3800","AU","False","",""
"MEL","MEL","MONT ALBERT NORTH","VIC","3129","AU","False","",""
"MEL","MEL","MONTMORENCY","VIC","3094","AU","False","",""
"MEL","MEL","MOONEE PONDS","VIC","3039","AU","False","",""
"MEL","MEL","MOONEE VALE","VIC","3055","AU","False","",""
"MEL","MEL","MOORABBIN","VIC","3189","AU","False","",""
"MEL","MEL","MOORABBIN AIRPORT","VIC","3194","AU","False","",""
"MEL","MEL","MOORABBIN EAST","VIC","3189","AU","False","",""
"MEL","MEL","MOOROOLBARK","VIC","3138","AU","False","",""
"MEL","MEL","MORDIALLOC","VIC","3195","AU","False","",""
"MEL","MEL","MORDIALLOC NORTH","VIC","3195","AU","False","",""
"MEL","MEL","MORELAND","VIC","3058","AU","False","",""
"MEL","MEL","MORELAND WEST","VIC","3055","AU","False","",""
"MEL","MEL","MOUNT WAVERLEY","VIC","3149","AU","False","",""
"MEL","MEL","MOUNTAIN GATE","VIC","3156","AU","False","",""
"MEL","MEL","MULGRAVE","VIC","3170","AU","False","",""
"MEL","MEL","MURRUMBEENA","VIC","3163","AU","False","",""
"MEL","MEL","NARRE WARREN EAST","VIC","3804","AU","False","",""
"MEL","MEL","NARRE WARREN NORTH","VIC","3804","AU","False","",""
"MEL","MEL","NARRE WARREN SOUTH","VIC","3805","AU","False","",""
"MEL","MEL","NEWPORT","VIC","3015","AU","False","",""
"MEL","MEL","NIDDRIE","VIC","3042","AU","False","",""
"MEL","MEL","NOBLE PARK","VIC","3174","AU","False","",""
"MEL","MEL","NOBLE PARK EAST","VIC","3174","AU","False","",""
"MEL","MEL","NOBLE PARK NORTH","VIC","3174","AU","False","",""
"MEL","MEL","NORTH MELBOURNE","VIC","3051","AU","False","",""
"MEL","MEL","NORTH ROAD","VIC","3187","AU","False","",""
"MEL","MEL","NORTH WARRANDYTE","VIC","3113","AU","False","",""
"MEL","MEL","NORTHCOTE","VIC","3070","AU","False","",""
"MEL","MEL","NORTHCOTE SOUTH","VIC","3070","AU","False","",""
"MEL","MEL","NORTHLAND CENTRE","VIC","3072","AU","False","",""
"MEL","MEL","NOTTING HILL","VIC","3168","AU","False","",""
"MEL","MEL","NUNAWADING","VIC","3131","AU","False","",""
"MEL","MEL","NUNAWADING BC","VIC","3110","AU","False","",""
"MEL","MEL","OAK PARK","VIC","3046","AU","False","",""
"MEL","MEL","OAKLANDS JUNCTION","VIC","3063","AU","False","",""
"MEL","MEL","OAKLEIGH","VIC","3166","AU","False","",""
"MEL","MEL","OAKLEIGH EAST","VIC","3166","AU","False","",""
"MEL","MEL","OAKLEIGH SOUTH","VIC","3167","AU","False","",""
"MEL","MEL","ORMOND","VIC","3204","AU","False","",""
"MEL","MEL","PARKDALE","VIC","3195","AU","False","",""
"MEL","MEL","PARKVILLE","VIC","3052","AU","False","",""
"MEL","MEL","PASCOE VALE","VIC","3044","AU","False","",""
"MEL","MEL","PASCOE VALE SOUTH","VIC","3044","AU","False","",""
"MEL","MEL","PATTERSON","VIC","3204","AU","False","",""
"MEL","MEL","PATTERSON LAKES","VIC","3197","AU","False","",""
"MEL","MEL","PINES FOREST","VIC","3200","AU","False","",""
"MEL","MEL","PINEWOOD","VIC","3149","AU","False","",""
"MEL","MEL","PLUMPTON","VIC","3335","AU","False","",""
"MEL","MEL","POINT COOK","VIC","3030","AU","False","",""
"MEL","MEL","PORT MELBOURNE","VIC","3207","AU","False","",""
"MEL","MEL","PRAHRAN","VIC","3181","AU","False","",""
"MEL","MEL","PRAHRAN EAST","VIC","3181","AU","False","",""
"MEL","MEL","PRESTON","VIC","3072","AU","False","",""
"MEL","MEL","PRESTON LOWER","VIC","3072","AU","False","",""
"MEL","MEL","PRESTON SOUTH","VIC","3072","AU","False","",""
"MEL","MEL","PRESTON WEST","VIC","3072","AU","False","",""
"MEL","MEL","PRINCES HILL","VIC","3054","AU","False","",""
"MEL","MEL","QUANDONG","VIC","3030","AU","False","",""
"MEL","MEL","RANGEVIEW","VIC","3132","AU","False","",""
"MEL","MEL","RAVENHALL","VIC","3023","AU","False","",""
"MEL","MEL","REGENT WEST","VIC","3072","AU","False","",""
"MEL","MEL","RESERVOIR","VIC","3073","AU","False","",""
"MEL","MEL","RESERVOIR EAST","VIC","3073","AU","False","",""
"MEL","MEL","RESERVOIR NORTH","VIC","3073","AU","False","",""
"MEL","MEL","RESERVOIR SOUTH","VIC","3073","AU","False","",""
"MEL","MEL","RICHMOND","VIC","3121","AU","False","",""
"MEL","MEL","RICHMOND EAST","VIC","3121","AU","False","",""
"MEL","MEL","RICHMOND NORTH","VIC","3121","AU","False","",""
"MEL","MEL","RICHMOND SOUTH","VIC","3121","AU","False","",""
"MEL","MEL","RINGWOOD","VIC","3134","AU","False","",""
"MEL","MEL","RINGWOOD EAST","VIC","3135","AU","False","",""
"MEL","MEL","RINGWOOD NORTH","VIC","3134","AU","False","",""
"MEL","MEL","RIPPONLEA","VIC","3185","AU","False","",""
"MEL","MEL","ROBINSON","VIC","3019","AU","False","",""
"MEL","MEL","ROCKBANK","VIC","3335","AU","False","",""
"MEL","MEL","ROSANNA","VIC","3084","AU","False","",""
"MEL","MEL","ROWVILLE","VIC","3178","AU","False","",""
"MEL","MEL","ROYAL MELBOURNE HOSPITAL","VIC","3050","AU","False","",""
"MEL","MEL","SAINT HELENA","VIC","3088","AU","False","",""
"MEL","MEL","SANDOWN VILLAGE","VIC","3171","AU","False","",""
"MEL","MEL","SANDRINGHAM","VIC","3191","AU","False","",""
"MEL","MEL","SCORESBY","VIC","3179","AU","False","",""
"MEL","MEL","SCORESBY BC","VIC","3176","AU","False","",""
"MEL","MEL","SEAFORD","VIC","3198","AU","False","",""
"MEL","MEL","SEAHOLME","VIC","3018","AU","False","",""
"MEL","MEL","SEDDON","VIC","3011","AU","False","",""
"MEL","MEL","SEDDON WEST","VIC","3011","AU","False","",""
"MEL","MEL","SEVILLE EAST","VIC","3139","AU","False","",""
"MEL","MEL","SOMERTON","VIC","3062","AU","False","",""
"MEL","MEL","SOUTH KINGSVILLE","VIC","3015","AU","False","",""
"MEL","MEL","SOUTH MELBOURNE","VIC","3205","AU","False","",""
"MEL","MEL","SOUTH MELBOURNE DC","VIC","3205","AU","False","",""
"MEL","MEL","SOUTH YARRA","VIC","3141","AU","False","",""
"MEL","MEL","SOUTHBANK","VIC","3006","AU","False","",""
"MEL","MEL","SOUTHLAND CENTRE","VIC","3192","AU","False","",""
"MEL","MEL","SPOTSWOOD","VIC","3015","AU","False","",""
"MEL","MEL","SPRINGVALE","VIC","3171","AU","False","",""
"MEL","MEL","SPRINGVALE SOUTH","VIC","3172","AU","False","",""
"MEL","MEL","ST ALBANS","VIC","3021","AU","False","",""
"MEL","MEL","ST KILDA","VIC","3182","AU","False","",""
"MEL","MEL","ST KILDA EAST","VIC","3183","AU","False","",""
"MEL","MEL","ST KILDA ROAD CENTRAL","VIC","3004","AU","False","",""
"MEL","MEL","ST KILDA SOUTH","VIC","3182","AU","False","",""
"MEL","MEL","ST KILDA WEST","VIC","3182","AU","False","",""
"MEL","MEL","STRATHMORE","VIC","3041","AU","False","",""
"MEL","MEL","STRATHMORE HEIGHTS","VIC","3041","AU","False","",""
"MEL","MEL","STUDFIELD","VIC","3152","AU","False","",""
"MEL","MEL","SUNSHINE","VIC","3020","AU","False","",""
"MEL","MEL","SUNSHINE NORTH","VIC","3020","AU","False","",""
"MEL","MEL","SUNSHINE WEST","VIC","3020","AU","False","",""
"MEL","MEL","SURREY HILLS","VIC","3127","AU","False","",""
"MEL","MEL","SURREY HILLS NORTH","VIC","3127","AU","False","",""
"MEL","MEL","SURREY HILLS SOUTH","VIC","3125","AU","False","",""
"MEL","MEL","SYDENHAM","VIC","3037","AU","False","",""
"MEL","MEL","SYNDAL","VIC","3149","AU","False","",""
"MEL","MEL","TARNEIT","VIC","3029","AU","False","",""
"MEL","MEL","TAYLORS HILL","VIC","3037","AU","False","",""
"MEL","MEL","TAYLORS LAKES","VIC","3038","AU","False","",""
"MEL","MEL","TEMPLESTOWE","VIC","3106","AU","False","",""
"MEL","MEL","TEMPLESTOWE LOWER","VIC","3107","AU","False","",""
"MEL","MEL","THE PINES","VIC","3109","AU","False","",""
"MEL","MEL","THOMASTOWN","VIC","3074","AU","False","",""
"MEL","MEL","THORNBURY","VIC","3071","AU","False","",""
"MEL","MEL","TOOLERN VALE","VIC","3337","AU","False","",""
"MEL","MEL","TOORAK","VIC","3142","AU","False","",""
"MEL","MEL","TOTTENHAM","VIC","3012","AU","False","",""
"MEL","MEL","TRAVANCORE","VIC","3032","AU","False","",""
"MEL","MEL","TRUGANINA","VIC","3029","AU","False","",""
"MEL","MEL","TULLAMARINE","VIC","3043","AU","False","",""
"MEL","MEL","TUNSTALL SQUARE PO","VIC","3109","AU","False","",""
"MEL","MEL","UNIVERSITY OF MELBOURNE","VIC","3010","AU","False","",""
"MEL","MEL","VERMONT","VIC","3133","AU","False","",""
"MEL","MEL","VERMONT SOUTH","VIC","3133","AU","False","",""
"MEL","MEL","VIEWBANK","VIC","3084","AU","False","",""
"MEL","MEL","WANDIN EAST","VIC","3139","AU","False","",""
"MEL","MEL","WANTIRNA","VIC","3152","AU","False","",""
"MEL","MEL","WANTIRNA SOUTH","VIC","3152","AU","False","",""
"MEL","MEL","WARRANDYTE SOUTH","VIC","3134","AU","False","",""
"MEL","MEL","WARRANWOOD","VIC","3134","AU","False","",""
"MEL","MEL","WATERGARDENS","VIC","3038","AU","False","",""
"MEL","MEL","WATERWAYS","VIC","3195","AU","False","",""
"MEL","MEL","WATSONIA","VIC","3087","AU","False","",""
"MEL","MEL","WATSONIA NORTH","VIC","3087","AU","False","",""
"MEL","MEL","WATTLE PARK","VIC","3128","AU","False","",""
"MEL","MEL","WATTLETREE ROAD PO","VIC","3145","AU","False","",""
"MEL","MEL","WAVERLEY GARDENS","VIC","3170","AU","False","",""
"MEL","MEL","WERE STREET PO","VIC","3186","AU","False","",""
"MEL","MEL","WERRIBEE","VIC","3030","AU","False","",""
"MEL","MEL","WERRIBEE SOUTH","VIC","3030","AU","False","",""
"MEL","MEL","WEST FOOTSCRAY","VIC","3012","AU","False","",""
"MEL","MEL","WEST MELBOURNE","VIC","3003","AU","False","",""
"MEL","MEL","WESTMEADOWS","VIC","3049","AU","False","",""
"MEL","MEL","WHEELERS HILL","VIC","3150","AU","False","",""
"MEL","MEL","WILLIAMS RAAF","VIC","3027","AU","False","",""
"MEL","MEL","WILLIAMSTOWN","VIC","3016","AU","False","",""
"MEL","MEL","WILLIAMSTOWN NORTH","VIC","3016","AU","False","",""
"MEL","MEL","WINDSOR","VIC","3181","AU","False","",""
"MEL","MEL","WISHART","VIC","3189","AU","False","",""
"MEL","MEL","WORLD TRADE CENTRE","VIC","3005","AU","False","",""
"MEL","MEL","WYNDHAM VALE","VIC","3024","AU","False","",""
"MEL","MEL","YALLAMBIE","VIC","3085","AU","False","",""
"MEL","MEL","YARRAVILLE","VIC","3013","AU","False","",""
"MEL","MEL","YARRAVILLE WEST","VIC","3013","AU","False","",""
"MEL","MEL","YUROKE","VIC","3063","AU","False","",""
"PER","PER","ALEXANDER HEIGHTS","WA","6064","AU","False","",""
"PER","PER","ALFRED COVE","WA","6154","AU","False","",""
"PER","PER","ALKIMOS","WA","6038","AU","False","",""
"PER","PER","ANKETELL","WA","6167","AU","False","",""
"PER","PER","APPLECROSS","WA","6153","AU","False","",""
"PER","PER","APPLECROSS","WA","6953","AU","False","",""
"PER","PER","APPLECROSS NORTH","WA","6153","AU","False","",""
"PER","PER","ARDROSS","WA","6153","AU","False","",""
"PER","PER","ARMADALE","WA","6112","AU","False","",""
"PER","PER","ARMADALE","WA","6992","AU","False","",""
"PER","PER","ASCOT","WA","6104","AU","False","",""
"PER","PER","ASHBY","WA","6065","AU","False","",""
"PER","PER","ASHENDON","WA","6111","AU","False","",""
"PER","PER","ASHFIELD","WA","6054","AU","False","",""
"PER","PER","ATTADALE","WA","6156","AU","False","",""
"PER","PER","ATWELL","WA","6164","AU","False","",""
"PER","PER","AUBIN GROVE","WA","6164","AU","False","",""
"PER","PER","BALCATTA","WA","6021","AU","False","",""
"PER","PER","BALCATTA","WA","6914","AU","False","",""
"PER","PER","BALDIVIS","WA","6171","AU","False","",""
"PER","PER","BALGA","WA","6061","AU","False","",""
"PER","PER","BALLAJURA","WA","6066","AU","False","",""
"PER","PER","BANJUP","WA","6164","AU","False","",""
"PER","PER","BANKSIA GROVE","WA","6031","AU","False","",""
"PER","PER","BASKERVILLE","WA","6056","AU","False","",""
"PER","PER","BASSENDEAN","WA","6054","AU","False","",""
"PER","PER","BASSENDEAN","WA","6934","AU","False","",""
"PER","PER","BASSENDEAN DC","WA","6054","AU","False","",""
"PER","PER","BASSENDEAN DC","WA","6942","AU","False","",""
"PER","PER","BATEMAN","WA","6150","AU","False","",""
"PER","PER","BAYSWATER","WA","6053","AU","False","",""
"PER","PER","BAYSWATER","WA","6933","AU","False","",""
"PER","PER","BEACONSFIELD","WA","6162","AU","False","",""
"PER","PER","BECKENHAM","WA","6107","AU","False","",""
"PER","PER","BEDFORD","WA","6052","AU","False","",""
"PER","PER","BEDFORDALE","WA","6112","AU","False","",""
"PER","PER","BEECHBORO","WA","6063","AU","False","",""
"PER","PER","BEELIAR","WA","6164","AU","False","",""
"PER","PER","BELDON","WA","6027","AU","False","",""
"PER","PER","BELLEVUE","WA","6056","AU","False","",""
"PER","PER","BELMONT","WA","6104","AU","False","",""
"PER","PER","BELMONT","WA","6984","AU","False","",""
"PER","PER","BENTLEY","WA","6102","AU","False","",""
"PER","PER","BENTLEY","WA","6982","AU","False","",""
"PER","PER","BENTLEY DC","WA","6102","AU","False","",""
"PER","PER","BENTLEY DC","WA","6983","AU","False","",""
"PER","PER","BENTLEY SOUTH","WA","6102","AU","False","",""
"PER","PER","BERTRAM","WA","6167","AU","False","",""
"PER","PER","BIBRA LAKE","WA","6163","AU","False","",""
"PER","PER","BIBRA LAKE DC","WA","6163","AU","False","",""
"PER","PER","BIBRA LAKE DC","WA","6965","AU","False","",""
"PER","PER","BICKLEY","WA","6076","AU","False","",""
"PER","PER","BICTON","WA","6157","AU","False","",""
"PER","PER","BOORAGOON","WA","6154","AU","False","",""
"PER","PER","BOORAGOON","WA","6954","AU","False","",""
"PER","PER","BOYA","WA","6056","AU","False","",""
"PER","PER","BRENTWOOD","WA","6153","AU","False","",""
"PER","PER","BROADWAY NEDLANDS","WA","6009","AU","False","",""
"PER","PER","BROOKDALE","WA","6112","AU","False","",""
"PER","PER","BULL CREEK","WA","6149","AU","False","",""
"PER","PER","BURNS BEACH","WA","6028","AU","False","",""
"PER","PER","BURSWOOD","WA","6100","AU","False","",""
"PER","PER","BUTLER","WA","6036","AU","False","",""
"PER","PER","BYFORD","WA","6122","AU","False","",""
"PER","PER","CALISTA","WA","6167","AU","False","",""
"PER","PER","CANNING BRIDGE APPLECROSS","WA","6153","AU","False","",""
"PER","PER","CANNING MILLS","WA","6111","AU","False","",""
"PER","PER","CANNING VALE","WA","6155","AU","False","",""
"PER","PER","CANNING VALE DC","WA","6155","AU","False","",""
"PER","PER","CANNING VALE DC","WA","6970","AU","False","",""
"PER","PER","CANNING VALE EAST","WA","6155","AU","False","",""
"PER","PER","CANNING VALE SOUTH","WA","6155","AU","False","",""
"PER","PER","CANNINGTON","WA","6107","AU","False","",""
"PER","PER","CANNINGTON","WA","6980","AU","False","",""
"PER","PER","CANNINGTON","WA","6987","AU","False","",""
"PER","PER","CARABOODA","WA","6033","AU","False","",""
"PER","PER","CARDUP","WA","6122","AU","False","",""
"PER","PER","CARINE","WA","6020","AU","False","",""
"PER","PER","CARLISLE","WA","6101","AU","False","",""
"PER","PER","CARLISLE NORTH","WA","6101","AU","False","",""
"PER","PER","CARLISLE SOUTH","WA","6101","AU","False","",""
"PER","PER","CARMEL","WA","6076","AU","False","",""
"PER","PER","CARRAMAR","WA","6031","AU","False","",""
"PER","PER","CASUARINA","WA","6167","AU","False","",""
"PER","PER","CAVERSHAM","WA","6055","AU","False","",""
"PER","PER","CHAMPION LAKES","WA","6111","AU","False","",""
"PER","PER","CHITTERING","WA","6084","AU","False","",""
"PER","PER","CHURCHLANDS","WA","6018","AU","False","",""
"PER","PER","CITY BEACH","WA","6015","AU","False","",""
"PER","PER","CITY DELIVERY CENTRE","WA","6000","AU","False","",""
"PER","PER","CLAREMONT","WA","6010","AU","False","",""
"PER","PER","CLAREMONT","WA","6910","AU","False","",""
"PER","PER","CLAREMONT NORTH","WA","6010","AU","False","",""
"PER","PER","CLARKSON","WA","6030","AU","False","",""
"PER","PER","CLOISTERS SQUARE","WA","6850","AU","False","",""
"PER","PER","CLOVERDALE","WA","6105","AU","False","",""
"PER","PER","CLOVERDALE","WA","6985","AU","False","",""
"PER","PER","COCKBURN CENTRAL","WA","6164","AU","False","",""
"PER","PER","COMO","WA","6152","AU","False","",""
"PER","PER","COMO","WA","6952","AU","False","",""
"PER","PER","CONNOLLY","WA","6027","AU","False","",""
"PER","PER","COOGEE","WA","6166","AU","False","",""
"PER","PER","COOLBELLUP","WA","6163","AU","False","",""
"PER","PER","COOLBINIA","WA","6050","AU","False","",""
"PER","PER","COOLOONGUP","WA","6168","AU","False","",""
"PER","PER","COTTESLOE","WA","6011","AU","False","",""
"PER","PER","COTTESLOE","WA","6911","AU","False","",""
"PER","PER","CRAIGIE","WA","6025","AU","False","",""
"PER","PER","CRAWLEY","WA","6009","AU","False","",""
"PER","PER","CURRAMBINE","WA","6028","AU","False","",""
"PER","PER","DAGLISH","WA","6008","AU","False","",""
"PER","PER","DALKEITH","WA","6009","AU","False","",""
"PER","PER","DARCH","WA","6065","AU","False","",""
"PER","PER","DARLING DOWNS","WA","6122","AU","False","",""
"PER","PER","DARLINGTON","WA","6070","AU","False","",""
"PER","PER","DIANELLA","WA","6059","AU","False","",""
"PER","PER","DOG SWAMP","WA","6060","AU","False","",""
"PER","PER","DOUBLEVIEW","WA","6018","AU","False","",""
"PER","PER","DUNCRAIG","WA","6023","AU","False","",""
"PER","PER","EAST CANNINGTON","WA","6107","AU","False","",""
"PER","PER","EAST FREMANTLE","WA","6158","AU","False","",""
"PER","PER","EAST PERTH","WA","6004","AU","False","",""
"PER","PER","EAST PERTH","WA","6892","AU","False","",""
"PER","PER","EAST ROCKINGHAM","WA","6168","AU","False","",""
"PER","PER","EAST VICTORIA PARK","WA","6101","AU","False","",""
"PER","PER","EAST VICTORIA PARK","WA","6981","AU","False","",""
"PER","PER","EDEN HILL","WA","6054","AU","False","",""
"PER","PER","EDGEWATER","WA","6027","AU","False","",""
"PER","PER","EGLINTON","WA","6034","AU","False","",""
"PER","PER","ELLENBROOK","WA","6069","AU","False","",""
"PER","PER","EMBLETON","WA","6062","AU","False","",""
"PER","PER","FERNDALE","WA","6148","AU","False","",""
"PER","PER","FLOREAT","WA","6014","AU","False","",""
"PER","PER","FLOREAT FORUM","WA","6014","AU","False","",""
"PER","PER","FORRESTDALE","WA","6112","AU","False","",""
"PER","PER","FORRESTFIELD","WA","6058","AU","False","",""
"PER","PER","FREMANTLE","WA","6160","AU","False","",""
"PER","PER","FREMANTLE","WA","6959","AU","False","",""
"PER","PER","GARDEN ISLAND","WA","6168","AU","False","",""
"PER","PER","GIRRAWHEEN","WA","6064","AU","False","",""
"PER","PER","GLEN FORREST","WA","6071","AU","False","",""
"PER","PER","GLENDALOUGH","WA","6016","AU","False","",""
"PER","PER","GNANGARA","WA","6065","AU","False","",""
"PER","PER","GOOSEBERRY HILL","WA","6076","AU","False","",""
"PER","PER","GOSNELLS","WA","6110","AU","False","",""
"PER","PER","GOSNELLS","WA","6990","AU","False","",""
"PER","PER","GREENMOUNT","WA","6056","AU","False","",""
"PER","PER","GREENWOOD","WA","6024","AU","False","",""
"PER","PER","GREENWOOD","WA","6924","AU","False","",""
"PER","PER","GUILDFORD","WA","6055","AU","False","",""
"PER","PER","GUILDFORD","WA","6935","AU","False","",""
"PER","PER","GWELUP","WA","6018","AU","False","",""
"PER","PER","GWELUP DC","WA","6018","AU","False","",""
"PER","PER","HACKETTS GULLY","WA","6076","AU","False","",""
"PER","PER","HAMERSLEY","WA","6022","AU","False","",""
"PER","PER","HAMILTON HILL","WA","6163","AU","False","",""
"PER","PER","HAMILTON HILL","WA","6963","AU","False","",""
"PER","PER","HAMMOND PARK","WA","6164","AU","False","",""
"PER","PER","HARRISDALE","WA","6112","AU","False","",""
"PER","PER","HAZELMERE","WA","6055","AU","False","",""
"PER","PER","HEATHRIDGE","WA","6027","AU","False","",""
"PER","PER","HELENA VALLEY","WA","6056","AU","False","",""
"PER","PER","HENDERSON","WA","6166","AU","False","",""
"PER","PER","HENLEY BROOK","WA","6055","AU","False","",""
"PER","PER","HERDSMAN","WA","6017","AU","False","",""
"PER","PER","HERNE HILL","WA","6056","AU","False","",""
"PER","PER","HIGH WYCOMBE","WA","6057","AU","False","",""
"PER","PER","HIGHGATE","WA","6003","AU","False","",""
"PER","PER","HILLARYS","WA","6025","AU","False","",""
"PER","PER","HILLARYS","WA","6923","AU","False","",""
"PER","PER","HILLMAN","WA","6168","AU","False","",""
"PER","PER","HILTON","WA","6163","AU","False","",""
"PER","PER","HOCKING","WA","6065","AU","False","",""
"PER","PER","HOPE VALLEY","WA","6165","AU","False","",""
"PER","PER","HOPELAND","WA","6125","AU","False","",""
"PER","PER","HOVEA","WA","6071","AU","False","",""
"PER","PER","HUNTINGDALE","WA","6110","AU","False","",""
"PER","PER","ILUKA","WA","6028","AU","False","",""
"PER","PER","INGLEWOOD","WA","6052","AU","False","",""
"PER","PER","INGLEWOOD","WA","6932","AU","False","",""
"PER","PER","INNALOO","WA","6018","AU","False","",""
"PER","PER","INNALOO","WA","6918","AU","False","",""
"PER","PER","JANDABUP","WA","6065","AU","False","",""
"PER","PER","JANDAKOT","WA","6164","AU","False","",""
"PER","PER","JANE BROOK","WA","6056","AU","False","",""
"PER","PER","JARRAHDALE","WA","6124","AU","False","",""
"PER","PER","JINDALEE","WA","6036","AU","False","",""
"PER","PER","JOLIMONT","WA","6014","AU","False","",""
"PER","PER","JOONDALUP","WA","6027","AU","False","",""
"PER","PER","JOONDALUP DC","WA","6027","AU","False","",""
"PER","PER","JOONDALUP DC","WA","6919","AU","False","",""
"PER","PER","JOONDANNA","WA","6060","AU","False","",""
"PER","PER","KALAMUNDA","WA","6076","AU","False","",""
"PER","PER","KALAMUNDA","WA","6926","AU","False","",""
"PER","PER","KALLAROO","WA","6025","AU","False","",""
"PER","PER","KARAWARA","WA","6152","AU","False","",""
"PER","PER","KARDINYA","WA","6163","AU","False","",""
"PER","PER","KARRAGULLEN","WA","6111","AU","False","",""
"PER","PER","KARRAKATTA","WA","6010","AU","False","",""
"PER","PER","KARRAKUP","WA","6122","AU","False","",""
"PER","PER","KARRINYUP","WA","6018","AU","False","",""
"PER","PER","KARRINYUP","WA","6921","AU","False","",""
"PER","PER","KELMSCOTT","WA","6111","AU","False","",""
"PER","PER","KELMSCOTT","WA","6991","AU","False","",""
"PER","PER","KELMSCOTT DC","WA","6111","AU","False","",""
"PER","PER","KELMSCOTT DC","WA","6997","AU","False","",""
"PER","PER","KENSINGTON","WA","6151","AU","False","",""
"PER","PER","KENWICK","WA","6107","AU","False","",""
"PER","PER","KEWDALE","WA","6105","AU","False","",""
"PER","PER","KEYSBROOK","WA","6126","AU","False","",""
"PER","PER","KIARA","WA","6054","AU","False","",""
"PER","PER","KINGS PARK","WA","6005","AU","False","",""
"PER","PER","KINGSLEY","WA","6026","AU","False","",""
"PER","PER","KINGSWAY","WA","6065","AU","False","",""
"PER","PER","KINROSS","WA","6028","AU","False","",""
"PER","PER","KOONDOOLA","WA","6064","AU","False","",""
"PER","PER","KOONGAMIA","WA","6056","AU","False","",""
"PER","PER","KWINANA BEACH","WA","6167","AU","False","",""
"PER","PER","KWINANA TOWN CENTRE","WA","6167","AU","False","",""
"PER","PER","LANDSDALE","WA","6065","AU","False","",""
"PER","PER","LANGFORD","WA","6147","AU","False","",""
"PER","PER","LATHLAIN","WA","6100","AU","False","",""
"PER","PER","LEDA","WA","6170","AU","False","",""
"PER","PER","LEEDERVILLE","WA","6007","AU","False","",""
"PER","PER","LEEDERVILLE","WA","6900","AU","False","",""
"PER","PER","LEEDERVILLE","WA","6902","AU","False","",""
"PER","PER","LEEDERVILLE","WA","6903","AU","False","",""
"PER","PER","LEEMING","WA","6149","AU","False","",""
"PER","PER","LESLEY","WA","6111","AU","False","",""
"PER","PER","LESMURDIE","WA","6076","AU","False","",""
"PER","PER","LEXIA","WA","6065","AU","False","",""
"PER","PER","LOCKRIDGE","WA","6054","AU","False","",""
"PER","PER","LOWER CHITTERING","WA","6084","AU","False","",""
"PER","PER","LYNWOOD","WA","6147","AU","False","",""
"PER","PER","MADDINGTON","WA","6109","AU","False","",""
"PER","PER","MADDINGTON","WA","6989","AU","False","",""
"PER","PER","MADELEY","WA","6065","AU","False","",""
"PER","PER","MAIDA VALE","WA","6057","AU","False","",""
"PER","PER","MALAGA","WA","6090","AU","False","",""
"PER","PER","MALAGA","WA","6944","AU","False","",""
"PER","PER","MALAGA DC","WA","6945","AU","False","",""
"PER","PER","MANDOGALUP","WA","6167","AU","False","",""
"PER","PER","MANNING","WA","6152","AU","False","",""
"PER","PER","MARANGAROO","WA","6064","AU","False","",""
"PER","PER","MARDELLA","WA","6125","AU","False","",""
"PER","PER","MARIGINIUP","WA","6065","AU","False","",""
"PER","PER","MARIGINIUP","WA","6078","AU","False","",""
"PER","PER","MARMION","WA","6020","AU","False","",""
"PER","PER","MARTIN","WA","6110","AU","False","",""
"PER","PER","MAYLANDS","WA","6051","AU","False","",""
"PER","PER","MAYLANDS","WA","6931","AU","False","",""
"PER","PER","MEDINA","WA","6167","AU","False","",""
"PER","PER","MELALEUCA","WA","6065","AU","False","",""
"PER","PER","MELVILLE","WA","6156","AU","False","",""
"PER","PER","MELVILLE","WA","6956","AU","False","",""
"PER","PER","MENORA","WA","6050","AU","False","",""
"PER","PER","MERRIWA","WA","6030","AU","False","",""
"PER","PER","MIDDLE SWAN","WA","6056","AU","False","",""
"PER","PER","MIDLAND","WA","6056","AU","False","",""
"PER","PER","MIDLAND DC","WA","6936","AU","False","",""
"PER","PER","MIDVALE","WA","6056","AU","False","",""
"PER","PER","MILLENDON","WA","6056","AU","False","",""
"PER","PER","MINDARIE","WA","6030","AU","False","",""
"PER","PER","MIRRABOOKA","WA","6061","AU","False","",""
"PER","PER","MIRRABOOKA","WA","6941","AU","False","",""
"PER","PER","MORLEY","WA","6062","AU","False","",""
"PER","PER","MORLEY","WA","6943","AU","False","",""
"PER","PER","MOSMAN PARK","WA","6012","AU","False","",""
"PER","PER","MOSMAN PARK","WA","6912","AU","False","",""
"PER","PER","MOUNT CLAREMONT","WA","6010","AU","False","",""
"PER","PER","MOUNT HAWTHORN","WA","6016","AU","False","",""
"PER","PER","MOUNT HAWTHORN","WA","6915","AU","False","",""
"PER","PER","MOUNT HELENA","WA","6082","AU","False","",""
"PER","PER","MOUNT LAWLEY","WA","6050","AU","False","",""
"PER","PER","MOUNT LAWLEY","WA","6929","AU","False","",""
"PER","PER","MOUNT NASURA","WA","6112","AU","False","",""
"PER","PER","MOUNT PLEASANT","WA","6153","AU","False","",""
"PER","PER","MOUNT RICHON","WA","6112","AU","False","",""
"PER","PER","MULLALOO","WA","6027","AU","False","",""
"PER","PER","MUNDARING","WA","6073","AU","False","",""
"PER","PER","MUNDARING DC","WA","6073","AU","False","",""
"PER","PER","MUNDIJONG","WA","6123","AU","False","",""
"PER","PER","MUNSTER","WA","6166","AU","False","",""
"PER","PER","MURDOCH","WA","6150","AU","False","",""
"PER","PER","MYAREE","WA","6154","AU","False","",""
"PER","PER","MYAREE BC","WA","6960","AU","False","",""
"PER","PER","NAVAL BASE","WA","6165","AU","False","",""
"PER","PER","NEDLANDS","WA","6009","AU","False","",""
"PER","PER","NEDLANDS","WA","6907","AU","False","",""
"PER","PER","NEDLANDS","WA","6909","AU","False","",""
"PER","PER","NEDLANDS DC","WA","6009","AU","False","",""
"PER","PER","NEERABUP","WA","6031","AU","False","",""
"PER","PER","NOLLAMARA","WA","6061","AU","False","",""
"PER","PER","NORANDA","WA","6062","AU","False","",""
"PER","PER","NORTH BEACH","WA","6020","AU","False","",""
"PER","PER","NORTH BEACH","WA","6920","AU","False","",""
"PER","PER","NORTH COOGEE","WA","6163","AU","False","",""
"PER","PER","NORTH FREMANTLE","WA","6159","AU","False","",""
"PER","PER","NORTH LAKE","WA","6163","AU","False","",""
"PER","PER","NORTH PERTH","WA","6006","AU","False","",""
"PER","PER","NORTH PERTH","WA","6906","AU","False","",""
"PER","PER","NORTHBRIDGE","WA","6003","AU","False","",""
"PER","PER","NORTHBRIDGE","WA","6803","AU","False","",""
"PER","PER","NORTHBRIDGE","WA","6865","AU","False","",""
"PER","PER","NORTHLANDS","WA","6905","AU","False","",""
"PER","PER","NOWERGUP","WA","6032","AU","False","",""
"PER","PER","O'CONNOR","WA","6163","AU","False","",""
"PER","PER","OAKFORD","WA","6121","AU","False","",""
"PER","PER","OCEAN REEF","WA","6027","AU","False","",""
"PER","PER","OLDBURY","WA","6121","AU","False","",""
"PER","PER","ORANGE GROVE","WA","6109","AU","False","",""
"PER","PER","ORELIA","WA","6167","AU","False","",""
"PER","PER","OSBORNE PARK","WA","6017","AU","False","",""
"PER","PER","OSBORNE PARK","WA","6916","AU","False","",""
"PER","PER","OSBORNE PARK","WA","6917","AU","False","",""
"PER","PER","OSBORNE PARK DC","WA","6017","AU","False","",""
"PER","PER","OSBORNE PARK DC","WA","6916","AU","False","",""
"PER","PER","PADBURY","WA","6025","AU","False","",""
"PER","PER","PALMYRA","WA","6157","AU","False","",""
"PER","PER","PALMYRA","WA","6957","AU","False","",""
"PER","PER","PALMYRA DC","WA","6157","AU","False","",""
"PER","PER","PALMYRA DC","WA","6961","AU","False","",""
"PER","PER","PARKWOOD","WA","6147","AU","False","",""
"PER","PER","PARMELIA","WA","6167","AU","False","",""
"PER","PER","PAULLS VALLEY","WA","6076","AU","False","",""
"PER","PER","PEARSALL","WA","6065","AU","False","",""
"PER","PER","PEPPERMINT GROVE","WA","6011","AU","False","",""
"PER","PER","PERON","WA","6168","AU","False","",""
"PER","PER","PERTH","WA","6000","AU","False","",""
"PER","PER","PERTH","WA","6001","AU","False","",""
"PER","PER","PERTH","WA","6800","AU","False","",""
"PER","PER","PERTH","WA","6809","AU","False","",""
"PER","PER","PERTH","WA","6817","AU","False","",""
"PER","PER","PERTH","WA","6820","AU","False","",""
"PER","PER","PERTH","WA","6827","AU","False","",""
"PER","PER","PERTH","WA","6830","AU","False","",""
"PER","PER","PERTH","WA","6837","AU","False","",""
"PER","PER","PERTH","WA","6838","AU","False","",""
"PER","PER","PERTH","WA","6839","AU","False","",""
"PER","PER","PERTH","WA","6840","AU","False","",""
"PER","PER","PERTH","WA","6841","AU","False","",""
"PER","PER","PERTH","WA","6842","AU","False","",""
"PER","PER","PERTH","WA","6843","AU","False","",""
"PER","PER","PERTH","WA","6844","AU","False","",""
"PER","PER","PERTH","WA","6845","AU","False","",""
"PER","PER","PERTH","WA","6846","AU","False","",""
"PER","PER","PERTH","WA","6847","AU","False","",""
"PER","PER","PERTH","WA","6848","AU","False","",""
"PER","PER","PERTH ADELAIDE TCE","WA","6832","AU","False","",""
"PER","PER","PERTH AIRPORT","WA","6105","AU","False","",""
"PER","PER","PERTH BC","WA","6849","AU","False","",""
"PER","PER","PERTH EAST ST GEORGES TCE","WA","6832","AU","False","",""
"PER","PER","PERTH GPO","WA","6000","AU","False","",""
"PER","PER","PERTH ST GEORGES TCE","WA","6831","AU","False","",""
"PER","PER","PIARA WATERS","WA","6112","AU","False","",""
"PER","PER","PICKERING BROOK","WA","6076","AU","False","",""
"PER","PER","PIESSE BROOK","WA","6076","AU","False","",""
"PER","PER","PINJAR","WA","6065","AU","False","",""
"PER","PER","PORT KENNEDY","WA","6172","AU","False","",""
"PER","PER","POSTANS","WA","6167","AU","False","",""
"PER","PER","QUEENS PARK","WA","6107","AU","False","",""
"PER","PER","QUINNS ROCKS","WA","6030","AU","False","",""
"PER","PER","RED HILL","WA","6056","AU","False","",""
"PER","PER","REDCLIFFE","WA","6104","AU","False","",""
"PER","PER","RESERVOIR","WA","6076","AU","False","",""
"PER","PER","RIDGEWOOD","WA","6030","AU","False","",""
"PER","PER","RIVERTON","WA","6148","AU","False","",""
"PER","PER","RIVERVALE","WA","6103","AU","False","",""
"PER","PER","ROCKINGHAM","WA","6168","AU","False","",""
"PER","PER","ROCKINGHAM","WA","6968","AU","False","",""
"PER","PER","ROCKINGHAM BEACH","WA","6168","AU","False","",""
"PER","PER","ROCKINGHAM BEACH","WA","6969","AU","False","",""
"PER","PER","ROCKINGHAM DC","WA","6168","AU","False","",""
"PER","PER","ROCKINGHAM DC","WA","6967","AU","False","",""
"PER","PER","ROLEYSTONE","WA","6111","AU","False","",""
"PER","PER","ROSSMOYNE","WA","6148","AU","False","",""
"PER","PER","SAFETY BAY","WA","6169","AU","False","",""
"PER","PER","SALTER POINT","WA","6152","AU","False","",""
"PER","PER","SAMSON","WA","6163","AU","False","",""
"PER","PER","SCARBOROUGH","WA","6019","AU","False","",""
"PER","PER","SCARBOROUGH","WA","6922","AU","False","",""
"PER","PER","SERPENTINE","WA","6125","AU","False","",""
"PER","PER","SEVILLE GROVE","WA","6112","AU","False","",""
"PER","PER","SHELLEY","WA","6148","AU","False","",""
"PER","PER","SHENTON PARK","WA","6008","AU","False","",""
"PER","PER","SHOALWATER","WA","6169","AU","False","",""
"PER","PER","SINAGRA","WA","6065","AU","False","",""
"PER","PER","SORRENTO","WA","6020","AU","False","",""
"PER","PER","SOUTH FREMANTLE","WA","6162","AU","False","",""
"PER","PER","SOUTH GUILDFORD","WA","6055","AU","False","",""
"PER","PER","SOUTH LAKE","WA","6164","AU","False","",""
"PER","PER","SOUTH PERTH","WA","6151","AU","False","",""
"PER","PER","SOUTH PERTH","WA","6951","AU","False","",""
"PER","PER","SOUTH PERTH ANGELO ST","WA","6151","AU","False","",""
"PER","PER","SOUTHERN RIVER","WA","6110","AU","False","",""
"PER","PER","SPEARWOOD","WA","6163","AU","False","",""
"PER","PER","ST JAMES","WA","6102","AU","False","",""
"PER","PER","STIRLING","WA","6021","AU","False","",""
"PER","PER","STONEVILLE","WA","6081","AU","False","",""
"PER","PER","STRATTON","WA","6056","AU","False","",""
"PER","PER","SUBIACO","WA","6008","AU","False","",""
"PER","PER","SUBIACO","WA","6904","AU","False","",""
"PER","PER","SUBIACO EAST","WA","6008","AU","False","",""
"PER","PER","SUCCESS","WA","6164","AU","False","",""
"PER","PER","SUCCESS","WA","6964","AU","False","",""
"PER","PER","SWAN VIEW","WA","6056","AU","False","",""
"PER","PER","SWANBOURNE","WA","6010","AU","False","",""
"PER","PER","TAMALA PARK","WA","6030","AU","False","",""
"PER","PER","TAPPING","WA","6065","AU","False","",""
"PER","PER","THE SPECTACLES","WA","6167","AU","False","",""
"PER","PER","THORNLIE","WA","6108","AU","False","",""
"PER","PER","THORNLIE","WA","6988","AU","False","",""
"PER","PER","TRIGG","WA","6029","AU","False","",""
"PER","PER","TUART HILL","WA","6060","AU","False","",""
"PER","PER","TUART HILL","WA","6937","AU","False","",""
"PER","PER","TUART HILL","WA","6938","AU","False","",""
"PER","PER","TUART HILL","WA","6939","AU","False","",""
"PER","PER","TUART HILL","WA","6940","AU","False","",""
"PER","PER","TWO ROCKS","WA","6037","AU","False","",""
"PER","PER","UPPER SWAN","WA","6069","AU","False","",""
"PER","PER","VICTORIA PARK","WA","6100","AU","False","",""
"PER","PER","VICTORIA PARK","WA","6979","AU","False","",""
"PER","PER","VIVEASH","WA","6056","AU","False","",""
"PER","PER","WAIKIKI","WA","6169","AU","False","",""
"PER","PER","WALLISTON","WA","6076","AU","False","",""
"PER","PER","WALLISTON DC","WA","6076","AU","False","",""
"PER","PER","WALLISTON DC","WA","6925","AU","False","",""
"PER","PER","WANDI","WA","6167","AU","False","",""
"PER","PER","WANGARA","WA","6065","AU","False","",""
"PER","PER","WANGARA DC","WA","6065","AU","False","",""
"PER","PER","WANGARA DC","WA","6947","AU","False","",""
"PER","PER","WANNEROO","WA","6065","AU","False","",""
"PER","PER","WANNEROO","WA","6946","AU","False","",""
"PER","PER","WARNBRO","WA","6169","AU","False","",""
"PER","PER","WARWICK","WA","6024","AU","False","",""
"PER","PER","WATERFORD","WA","6152","AU","False","",""
"PER","PER","WATERMANS BAY","WA","6020","AU","False","",""
"PER","PER","WATTLE GROVE","WA","6107","AU","False","",""
"PER","PER","WATTLEUP","WA","6166","AU","False","",""
"PER","PER","WELLARD","WA","6170","AU","False","",""
"PER","PER","WELSHPOOL","WA","6106","AU","False","",""
"PER","PER","WELSHPOOL DC","WA","6106","AU","False","",""
"PER","PER","WELSHPOOL DC","WA","6986","AU","False","",""
"PER","PER","WEMBLEY","WA","6014","AU","False","",""
"PER","PER","WEMBLEY","WA","6913","AU","False","",""
"PER","PER","WEMBLEY DOWNS","WA","6019","AU","False","",""
"PER","PER","WEST LEEDERVILLE","WA","6007","AU","False","",""
"PER","PER","WEST LEEDERVILLE","WA","6901","AU","False","",""
"PER","PER","WEST PERTH","WA","6005","AU","False","",""
"PER","PER","WEST PERTH","WA","6872","AU","False","",""
"PER","PER","WEST SWAN","WA","6055","AU","False","",""
"PER","PER","WESTFIELD","WA","6111","AU","False","",""
"PER","PER","WESTMINSTER","WA","6061","AU","False","",""
"PER","PER","WHITBY","WA","6123","AU","False","",""
"PER","PER","WHITE GUM VALLEY","WA","6162","AU","False","",""
"PER","PER","WHITEMAN","WA","6068","AU","False","",""
"PER","PER","WILLAGEE","WA","6156","AU","False","",""
"PER","PER","WILLAGEE CENTRAL","WA","6156","AU","False","",""
"PER","PER","WILLETTON","WA","6155","AU","False","",""
"PER","PER","WILLETTON","WA","6955","AU","False","",""
"PER","PER","WILSON","WA","6107","AU","False","",""
"PER","PER","WINTHROP","WA","6150","AU","False","",""
"PER","PER","WOODBRIDGE","WA","6056","AU","False","",""
"PER","PER","WOODLANDS","WA","6018","AU","False","",""
"PER","PER","WOODVALE","WA","6026","AU","False","",""
"PER","PER","WUNGONG","WA","6112","AU","False","",""
"PER","PER","YANCHEP","WA","6035","AU","False","",""
"PER","PER","YANGEBUP","WA","6164","AU","False","",""
"PER","PER","YOKINE","WA","6060","AU","False","",""
"SYD","SYD","ABBOTSBURY","NSW","2176","AU","False","",""
"SYD","SYD","ABBOTSFORD","NSW","2046","AU","False","",""
"SYD","SYD","ACACIA GARDENS","NSW","2763","AU","False","",""
"SYD","SYD","AIRDS","NSW","2560","AU","False","",""
"SYD","SYD","ALEXANDRIA","NSW","2015","AU","False","",""
"SYD","SYD","ALEXANDRIA MC","NSW","2004","AU","False","",""
"SYD","SYD","ALFORDS POINT","NSW","2234","AU","False","",""
"SYD","SYD","ALLAMBIE HEIGHTS","NSW","2100","AU","False","",""
"SYD","SYD","ALLAWAH","NSW","2218","AU","False","",""
"SYD","SYD","AMBARVALE","NSW","2560","AU","False","",""
"SYD","SYD","ANNANDALE","NSW","2038","AU","False","",""
"SYD","SYD","ANNANGROVE","NSW","2156","AU","False","",""
"SYD","SYD","ARCADIA","NSW","2159","AU","False","",""
"SYD","SYD","ARNCLIFFE","NSW","2205","AU","False","",""
"SYD","SYD","ARNDELL PARK","NSW","2148","AU","False","",""
"SYD","SYD","ARTARMON","NSW","2064","AU","False","",""
"SYD","SYD","ASHBURY","NSW","2193","AU","False","",""
"SYD","SYD","ASHCROFT","NSW","2168","AU","False","",""
"SYD","SYD","ASHFIELD","NSW","2131","AU","False","",""
"SYD","SYD","ASQUITH","NSW","2077","AU","False","",""
"SYD","SYD","AUBURN","NSW","2144","AU","False","",""
"SYD","SYD","AUDLEY","NSW","2232","AU","False","",""
"SYD","SYD","AUSTRAL","NSW","2179","AU","False","",""
"SYD","SYD","AVALON","NSW","2107","AU","False","",""
"SYD","SYD","AVALON BEACH","NSW","2107","AU","False","",""
"SYD","SYD","BADGERYS CREEK","NSW","2555","AU","False","",""
"SYD","SYD","BALGOWLAH","NSW","2093","AU","False","",""
"SYD","SYD","BALGOWLAH HEIGHTS","NSW","2093","AU","False","",""
"SYD","SYD","BALMAIN","NSW","2041","AU","False","",""
"SYD","SYD","BALMAIN EAST","NSW","2041","AU","False","",""
"SYD","SYD","BANGOR","NSW","2234","AU","False","",""
"SYD","SYD","BANKSIA","NSW","2216","AU","False","",""
"SYD","SYD","BANKSMEADOW","NSW","2019","AU","False","",""
"SYD","SYD","BANKSTOWN","NSW","2200","AU","False","",""
"SYD","SYD","BANKSTOWN AERODROME","NSW","2200","AU","False","",""
"SYD","SYD","BANKSTOWN NORTH","NSW","2200","AU","False","",""
"SYD","SYD","BANKSTOWN SQUARE","NSW","2200","AU","False","",""
"SYD","SYD","BARDEN RIDGE","NSW","2234","AU","False","",""
"SYD","SYD","BARDWELL PARK","NSW","2207","AU","False","",""
"SYD","SYD","BARDWELL VALLEY","NSW","2207","AU","False","",""
"SYD","SYD","BASS HILL","NSW","2197","AU","False","",""
"SYD","SYD","BAULKHAM HILLS","NSW","2153","AU","False","",""
"SYD","SYD","BAYVIEW","NSW","2104","AU","False","",""
"SYD","SYD","BEACON HILL","NSW","2100","AU","False","",""
"SYD","SYD","BEACONSFIELD","NSW","2015","AU","False","",""
"SYD","SYD","BEAUMONT HILLS","NSW","2155","AU","False","",""
"SYD","SYD","BEECROFT","NSW","2119","AU","False","",""
"SYD","SYD","BELFIELD","NSW","2191","AU","False","",""
"SYD","SYD","BELIMBLA PARK","NSW","2570","AU","False","",""
"SYD","SYD","BELLA VISTA","NSW","2153","AU","False","",""
"SYD","SYD","BELLEVUE HILL","NSW","2023","AU","False","",""
"SYD","SYD","BELMORE","NSW","2192","AU","False","",""
"SYD","SYD","BELROSE","NSW","2085","AU","False","",""
"SYD","SYD","BELROSE WEST","NSW","2085","AU","False","",""
"SYD","SYD","BERALA","NSW","2141","AU","False","",""
"SYD","SYD","BERKSHIRE PARK","NSW","2765","AU","False","",""
"SYD","SYD","BERRILEE","NSW","2159","AU","False","",""
"SYD","SYD","BEVERLEY PARK","NSW","2217","AU","False","",""
"SYD","SYD","BEVERLY HILLS","NSW","2209","AU","False","",""
"SYD","SYD","BEXLEY","NSW","2207","AU","False","",""
"SYD","SYD","BEXLEY NORTH","NSW","2207","AU","False","",""
"SYD","SYD","BEXLEY SOUTH","NSW","2207","AU","False","",""
"SYD","SYD","BICKLEY VALE","NSW","2570","AU","False","",""
"SYD","SYD","BIDWILL","NSW","2770","AU","False","",""
"SYD","SYD","BILGOLA","NSW","2107","AU","False","",""
"SYD","SYD","BIRCHGROVE","NSW","2041","AU","False","",""
"SYD","SYD","BIRRONG","NSW","2143","AU","False","",""
"SYD","SYD","BLACKETT","NSW","2770","AU","False","",""
"SYD","SYD","BLACKTOWN","NSW","2148","AU","False","",""
"SYD","SYD","BLACKTOWN WESTPOINT","NSW","2148","AU","False","",""
"SYD","SYD","BLAIR ATHOL","NSW","2560","AU","False","",""
"SYD","SYD","BLAIRMOUNT","NSW","2559","AU","False","",""
"SYD","SYD","BLAKEHURST","NSW","2221","AU","False","",""
"SYD","SYD","BLAXCELL","NSW","2142","AU","False","",""
"SYD","SYD","BLENHEIM ROAD","NSW","2113","AU","False","",""
"SYD","SYD","BLIGH PARK","NSW","2756","AU","False","",""
"SYD","SYD","BONDI","NSW","2026","AU","False","",""
"SYD","SYD","BONDI BEACH","NSW","2026","AU","False","",""
"SYD","SYD","BONDI JUNCTION","NSW","2022","AU","False","",""
"SYD","SYD","BONDI JUNCTION PLAZA","NSW","2022","AU","False","",""
"SYD","SYD","BONNET BAY","NSW","2226","AU","False","",""
"SYD","SYD","BONNYRIGG","NSW","2177","AU","False","",""
"SYD","SYD","BONNYRIGG HEIGHTS","NSW","2177","AU","False","",""
"SYD","SYD","BORONIA PARK","NSW","2111","AU","False","",""
"SYD","SYD","BOSSLEY PARK","NSW","2176","AU","False","",""
"SYD","SYD","BOTANY","NSW","2019","AU","False","",""
"SYD","SYD","BOW BOWING","NSW","2566","AU","False","",""
"SYD","SYD","BOX HILL","NSW","2765","AU","False","",""
"SYD","SYD","BRADBURY","NSW","2560","AU","False","",""
"SYD","SYD","BREAKFAST POINT","NSW","2137","AU","False","",""
"SYD","SYD","BRIGHTON LE SANDS","NSW","2216","AU","False","",""
"SYD","SYD","BRINGELLY","NSW","2556","AU","False","",""
"SYD","SYD","BROADWAY","NSW","2007","AU","False","",""
"SYD","SYD","BRONTE","NSW","2024","AU","False","",""
"SYD","SYD","BROOKVALE","NSW","2100","AU","False","",""
"SYD","SYD","BROWNLOW HILL","NSW","2570","AU","False","",""
"SYD","SYD","BUNDEENA","NSW","2230","AU","False","",""
"SYD","SYD","BURRANEER","NSW","2230","AU","False","",""
"SYD","SYD","BURWOOD","NSW","2134","AU","False","",""
"SYD","SYD","BURWOOD HEIGHTS","NSW","2136","AU","False","",""
"SYD","SYD","BURWOOD NORTH","NSW","2134","AU","False","",""
"SYD","SYD","BUSBY","NSW","2168","AU","False","",""
"SYD","SYD","CABARITA","NSW","2137","AU","False","",""
"SYD","SYD","CABRAMATTA","NSW","2166","AU","False","",""
"SYD","SYD","CABRAMATTA WEST","NSW","2166","AU","False","",""
"SYD","SYD","CAMBRIDGE GARDENS","NSW","2747","AU","False","",""
"SYD","SYD","CAMBRIDGE PARK","NSW","2747","AU","False","",""
"SYD","SYD","CAMDEN","NSW","2570","AU","False","",""
"SYD","SYD","CAMDEN PARK","NSW","2570","AU","False","",""
"SYD","SYD","CAMDEN SOUTH","NSW","2570","AU","False","",""
"SYD","SYD","CAMELLIA","NSW","2142","AU","False","",""
"SYD","SYD","CAMMERAY","NSW","2062","AU","False","",""
"SYD","SYD","CAMPBELLTOWN","NSW","2560","AU","False","",""
"SYD","SYD","CAMPBELLTOWN NORTH","NSW","2560","AU","False","",""
"SYD","SYD","CAMPERDOWN","NSW","2050","AU","False","",""
"SYD","SYD","CAMPSIE","NSW","2194","AU","False","",""
"SYD","SYD","CANADA BAY","NSW","2046","AU","False","",""
"SYD","SYD","CANLEY HEIGHTS","NSW","2166","AU","False","",""
"SYD","SYD","CANLEY VALE","NSW","2166","AU","False","",""
"SYD","SYD","CANOELANDS","NSW","2157","AU","False","",""
"SYD","SYD","CANTERBURY","NSW","2193","AU","False","",""
"SYD","SYD","CARAVAN HEAD","NSW","2225","AU","False","",""
"SYD","SYD","CAREEL BAY","NSW","2107","AU","False","",""
"SYD","SYD","CARINGBAH","NSW","2229","AU","False","",""
"SYD","SYD","CARLINGFORD","NSW","2118","AU","False","",""
"SYD","SYD","CARLINGFORD COURT","NSW","2118","AU","False","",""
"SYD","SYD","CARLINGFORD NORTH","NSW","2118","AU","False","",""
"SYD","SYD","CARLTON","NSW","2218","AU","False","",""
"SYD","SYD","CARRAMAR","NSW","2163","AU","False","",""
"SYD","SYD","CARSS PARK","NSW","2221","AU","False","",""
"SYD","SYD","CARTWRIGHT","NSW","2168","AU","False","",""
"SYD","SYD","CASTLE COVE","NSW","2069","AU","False","",""
"SYD","SYD","CASTLE HILL","NSW","2154","AU","False","",""
"SYD","SYD","CASTLECRAG","NSW","2068","AU","False","",""
"SYD","SYD","CASTLEREAGH","NSW","2749","AU","False","",""
"SYD","SYD","CASULA","NSW","2170","AU","False","",""
"SYD","SYD","CASULA MALL","NSW","2170","AU","False","",""
"SYD","SYD","CATARACT","NSW","2560","AU","False","",""
"SYD","SYD","CATHERINE FIELD","NSW","2557","AU","False","",""
"SYD","SYD","CAWDOR","NSW","2570","AU","False","",""
"SYD","SYD","CECIL HILLS","NSW","2171","AU","False","",""
"SYD","SYD","CECIL PARK","NSW","2178","AU","False","",""
"SYD","SYD","CENTENNIAL PARK","NSW","2021","AU","False","",""
"SYD","SYD","CHATSWOOD","NSW","2057","AU","False","",""
"SYD","SYD","CHATSWOOD","NSW","2067","AU","False","",""
"SYD","SYD","CHATSWOOD WEST","NSW","2067","AU","False","",""
"SYD","SYD","CHELTENHAM","NSW","2119","AU","False","",""
"SYD","SYD","CHERRYBROOK","NSW","2126","AU","False","",""
"SYD","SYD","CHESTER HILL","NSW","2162","AU","False","",""
"SYD","SYD","CHIFLEY","NSW","2036","AU","False","",""
"SYD","SYD","CHIPPENDALE","NSW","2008","AU","False","",""
"SYD","SYD","CHIPPING NORTON","NSW","2170","AU","False","",""
"SYD","SYD","CHISWICK","NSW","2046","AU","False","",""
"SYD","SYD","CHULLORA","NSW","2190","AU","False","",""
"SYD","SYD","CHURCH POINT","NSW","2105","AU","False","",""
"SYD","SYD","CLAREMONT MEADOWS","NSW","2747","AU","False","",""
"SYD","SYD","CLAREVILLE","NSW","2107","AU","False","",""
"SYD","SYD","CLAYMORE","NSW","2559","AU","False","",""
"SYD","SYD","CLEMTON PARK","NSW","2206","AU","False","",""
"SYD","SYD","CLONTARF","NSW","2093","AU","False","",""
"SYD","SYD","CLOVELLY","NSW","2031","AU","False","",""
"SYD","SYD","CLOVELLY WEST","NSW","2031","AU","False","",""
"SYD","SYD","CLYDE","NSW","2142","AU","False","",""
"SYD","SYD","COASTERS RETREAT","NSW","2108","AU","False","",""
"SYD","SYD","COBBITTY","NSW","2570","AU","False","",""
"SYD","SYD","COLEBEE","NSW","2761","AU","False","",""
"SYD","SYD","COLLAROY","NSW","2097","AU","False","",""
"SYD","SYD","COLLAROY BEACH","NSW","2097","AU","False","",""
"SYD","SYD","COLLAROY PLATEAU WEST","NSW","2097","AU","False","",""
"SYD","SYD","COLYTON","NSW","2760","AU","False","",""
"SYD","SYD","COMO","NSW","2226","AU","False","",""
"SYD","SYD","CONCORD","NSW","2137","AU","False","",""
"SYD","SYD","CONCORD REPATRIATION HOSPITAL","NSW","2139","AU","False","",""
"SYD","SYD","CONCORD WEST","NSW","2138","AU","False","",""
"SYD","SYD","CONDELL PARK","NSW","2200","AU","False","",""
"SYD","SYD","CONNELLS POINT","NSW","2221","AU","False","",""
"SYD","SYD","CONSTITUTION HILL","NSW","2145","AU","False","",""
"SYD","SYD","COOGEE","NSW","2034","AU","False","",""
"SYD","SYD","COTTAGE POINT","NSW","2084","AU","False","",""
"SYD","SYD","CRANEBROOK","NSW","2749","AU","False","",""
"SYD","SYD","CREMORNE","NSW","2090","AU","False","",""
"SYD","SYD","CREMORNE JUNCTION","NSW","2090","AU","False","",""
"SYD","SYD","CREMORNE POINT","NSW","2090","AU","False","",""
"SYD","SYD","CROMER","NSW","2099","AU","False","",""
"SYD","SYD","CRONULLA","NSW","2230","AU","False","",""
"SYD","SYD","CROWS NEST","NSW","2065","AU","False","",""
"SYD","SYD","CROYDON","NSW","2132","AU","False","",""
"SYD","SYD","CROYDON PARK","NSW","2133","AU","False","",""
"SYD","SYD","CURL CURL","NSW","2096","AU","False","",""
"SYD","SYD","CURRANS HILL","NSW","2567","AU","False","",""
"SYD","SYD","CURRAWONG BEACH","NSW","2108","AU","False","",""
"SYD","SYD","DACEYVILLE","NSW","2032","AU","False","",""
"SYD","SYD","DARLING POINT","NSW","2027","AU","False","",""
"SYD","SYD","DARLINGHURST","NSW","2010","AU","False","",""
"SYD","SYD","DARLINGTON","NSW","2008","AU","False","",""
"SYD","SYD","DAVIDSON","NSW","2085","AU","False","",""
"SYD","SYD","DAWES POINT","NSW","2000","AU","False","",""
"SYD","SYD","DEAN PARK","NSW","2761","AU","False","",""
"SYD","SYD","DEE WHY","NSW","2099","AU","False","",""
"SYD","SYD","DENHAM COURT","NSW","2565","AU","False","",""
"SYD","SYD","DENISTONE","NSW","2114","AU","False","",""
"SYD","SYD","DENISTONE EAST","NSW","2112","AU","False","",""
"SYD","SYD","DENISTONE WEST","NSW","2114","AU","False","",""
"SYD","SYD","DHARRUK","NSW","2770","AU","False","",""
"SYD","SYD","DOLANS BAY","NSW","2229","AU","False","",""
"SYD","SYD","DOLLS POINT","NSW","2219","AU","False","",""
"SYD","SYD","DOONSIDE","NSW","2767","AU","False","",""
"SYD","SYD","DOUBLE BAY","NSW","2028","AU","False","",""
"SYD","SYD","DOUGLAS PARK","NSW","2569","AU","False","",""
"SYD","SYD","DOVER HEIGHTS","NSW","2030","AU","False","",""
"SYD","SYD","DRUMMOYNE","NSW","2047","AU","False","",""
"SYD","SYD","DUFFYS FOREST","NSW","2084","AU","False","",""
"SYD","SYD","DULWICH HILL","NSW","2203","AU","False","",""
"SYD","SYD","DUNDAS","NSW","2117","AU","False","",""
"SYD","SYD","DUNDAS VALLEY","NSW","2117","AU","False","",""
"SYD","SYD","DURAL","NSW","2158","AU","False","",""
"SYD","SYD","EAGLE VALE","NSW","2558","AU","False","",""
"SYD","SYD","EARLWOOD","NSW","2206","AU","False","",""
"SYD","SYD","EAST HILLS","NSW","2213","AU","False","",""
"SYD","SYD","EAST KILLARA","NSW","2071","AU","False","",""
"SYD","SYD","EAST LINDFIELD","NSW","2070","AU","False","",""
"SYD","SYD","EAST RYDE","NSW","2113","AU","False","",""
"SYD","SYD","EASTERN CREEK","NSW","2766","AU","False","",""
"SYD","SYD","EASTERN SUBURBS MC","NSW","2004","AU","False","",""
"SYD","SYD","EASTGARDENS","NSW","2036","AU","False","",""
"SYD","SYD","EASTLAKES","NSW","2018","AU","False","",""
"SYD","SYD","EASTWOOD","NSW","2122","AU","False","",""
"SYD","SYD","EDENSOR PARK","NSW","2176","AU","False","",""
"SYD","SYD","EDGECLIFF","NSW","2027","AU","False","",""
"SYD","SYD","EDMONDSON PARK","NSW","2174","AU","False","",""
"SYD","SYD","ELANORA HEIGHTS","NSW","2101","AU","False","",""
"SYD","SYD","ELDERSLIE","NSW","2570","AU","False","",""
"SYD","SYD","ELIZABETH BAY","NSW","2011","AU","False","",""
"SYD","SYD","ELLIS LANE","NSW","2570","AU","False","",""
"SYD","SYD","ELVINA BAY","NSW","2105","AU","False","",""
"SYD","SYD","EMERTON","NSW","2770","AU","False","",""
"SYD","SYD","EMU HEIGHTS","NSW","2750","AU","False","",""
"SYD","SYD","EMU PLAINS","NSW","2750","AU","False","",""
"SYD","SYD","ENFIELD","NSW","2136","AU","False","",""
"SYD","SYD","ENFIELD SOUTH","NSW","2133","AU","False","",""
"SYD","SYD","ENGADINE","NSW","2233","AU","False","",""
"SYD","SYD","ENGLORIE PARK","NSW","2560","AU","False","",""
"SYD","SYD","ENMORE","NSW","2042","AU","False","",""
"SYD","SYD","EPPING","NSW","2121","AU","False","",""
"SYD","SYD","ERMINGTON","NSW","2115","AU","False","",""
"SYD","SYD","ERSKINE PARK","NSW","2759","AU","False","",""
"SYD","SYD","ERSKINEVILLE","NSW","2043","AU","False","",""
"SYD","SYD","ESCHOL PARK","NSW","2558","AU","False","",""
"SYD","SYD","EVELEIGH","NSW","2015","AU","False","",""
"SYD","SYD","FAIRFIELD","NSW","2165","AU","False","",""
"SYD","SYD","FAIRFIELD EAST","NSW","2165","AU","False","",""
"SYD","SYD","FAIRFIELD HEIGHTS","NSW","2165","AU","False","",""
"SYD","SYD","FAIRFIELD WEST","NSW","2165","AU","False","",""
"SYD","SYD","FAIRLIGHT","NSW","2094","AU","False","",""
"SYD","SYD","FIDDLETOWN","NSW","2159","AU","False","",""
"SYD","SYD","FIVE DOCK","NSW","2046","AU","False","",""
"SYD","SYD","FOREST GLEN","NSW","2157","AU","False","",""
"SYD","SYD","FOREST LODGE","NSW","2037","AU","False","",""
"SYD","SYD","FORESTVILLE","NSW","2087","AU","False","",""
"SYD","SYD","FRENCHS FOREST","NSW","2086","AU","False","",""
"SYD","SYD","FRENCHS FOREST EAST","NSW","2086","AU","False","",""
"SYD","SYD","GALSTON","NSW","2159","AU","False","",""
"SYD","SYD","GARIE","NSW","2232","AU","False","",""
"SYD","SYD","GEORGES HALL","NSW","2198","AU","False","",""
"SYD","SYD","GILEAD","NSW","2560","AU","False","",""
"SYD","SYD","GIRRAWEEN","NSW","2145","AU","False","",""
"SYD","SYD","GLADESVILLE","NSW","2111","AU","False","",""
"SYD","SYD","GLEBE","NSW","2037","AU","False","",""
"SYD","SYD","GLEN ALPINE","NSW","2560","AU","False","",""
"SYD","SYD","GLENDENNING","NSW","2761","AU","False","",""
"SYD","SYD","GLENDENNING DC","NSW","2761","AU","False","",""
"SYD","SYD","GLENFIELD","NSW","2167","AU","False","",""
"SYD","SYD","GLENHAVEN","NSW","2156","AU","False","",""
"SYD","SYD","GLENMORE","NSW","2570","AU","False","",""
"SYD","SYD","GLENMORE PARK","NSW","2745","AU","False","",""
"SYD","SYD","GLENORIE","NSW","2157","AU","False","",""
"SYD","SYD","GLENQUARIE","NSW","2564","AU","False","",""
"SYD","SYD","GLENWOOD","NSW","2768","AU","False","",""
"SYD","SYD","GORDON","NSW","2072","AU","False","",""
"SYD","SYD","GRANVILLE","NSW","2142","AU","False","",""
"SYD","SYD","GRASMERE","NSW","2570","AU","False","",""
"SYD","SYD","GRAYS POINT","NSW","2232","AU","False","",""
"SYD","SYD","GREAT MACKEREL BEACH","NSW","2108","AU","False","",""
"SYD","SYD","GREEN VALLEY","NSW","2168","AU","False","",""
"SYD","SYD","GREENACRE","NSW","2190","AU","False","",""
"SYD","SYD","GREENDALE","NSW","2745","AU","False","",""
"SYD","SYD","GREENFIELD PARK","NSW","2176","AU","False","",""
"SYD","SYD","GREENWICH","NSW","2065","AU","False","",""
"SYD","SYD","GREGORY HILLS","NSW","2557","AU","False","",""
"SYD","SYD","GREYSTANES","NSW","2145","AU","False","",""
"SYD","SYD","GUILDFORD","NSW","2161","AU","False","",""
"SYD","SYD","GUILDFORD WEST","NSW","2161","AU","False","",""
"SYD","SYD","GYMEA","NSW","2227","AU","False","",""
"SYD","SYD","GYMEA BAY","NSW","2227","AU","False","",""
"SYD","SYD","HABERFIELD","NSW","2045","AU","False","",""
"SYD","SYD","HAMMONDVILLE","NSW","2170","AU","False","",""
"SYD","SYD","HARBORD","NSW","2096","AU","False","",""
"SYD","SYD","HARRINGTON PARK","NSW","2567","AU","False","",""
"SYD","SYD","HARRIS PARK","NSW","2150","AU","False","",""
"SYD","SYD","HASSALL GROVE","NSW","2761","AU","False","",""
"SYD","SYD","HAYMARKET","NSW","2000","AU","False","",""
"SYD","SYD","HEATHCOTE","NSW","2233","AU","False","",""
"SYD","SYD","HEBERSHAM","NSW","2770","AU","False","",""
"SYD","SYD","HECKENBERG","NSW","2168","AU","False","",""
"SYD","SYD","HENLEY","NSW","2111","AU","False","",""
"SYD","SYD","HILLSDALE","NSW","2036","AU","False","",""
"SYD","SYD","HINCHINBROOK","NSW","2168","AU","False","",""
"SYD","SYD","HMAS KUTTABUL","NSW","2011","AU","False","",""
"SYD","SYD","HMAS PENGUIN","NSW","2091","AU","False","",""
"SYD","SYD","HMAS PLATYPUS","NSW","2060","AU","False","",""
"SYD","SYD","HMAS RUSHCUTTERS","NSW","2027","AU","False","",""
"SYD","SYD","HMAS WATERHEN","NSW","2060","AU","False","",""
"SYD","SYD","HMAS WATSON","NSW","2030","AU","False","",""
"SYD","SYD","HOLROYD","NSW","2142","AU","False","",""
"SYD","SYD","HOLSWORTHY","NSW","2173","AU","False","",""
"SYD","SYD","HOMEBUSH","NSW","2140","AU","False","",""
"SYD","SYD","HOMEBUSH BAY","NSW","2127","AU","False","",""
"SYD","SYD","HOMEBUSH SOUTH","NSW","2140","AU","False","",""
"SYD","SYD","HOMEBUSH WEST","NSW","2140","AU","False","",""
"SYD","SYD","HORNINGSEA PARK","NSW","2171","AU","False","",""
"SYD","SYD","HORNSBY","NSW","2077","AU","False","",""
"SYD","SYD","HORNSBY HEIGHTS","NSW","2077","AU","False","",""
"SYD","SYD","HORSLEY PARK","NSW","2175","AU","False","",""
"SYD","SYD","HOXTON PARK","NSW","2171","AU","False","",""
"SYD","SYD","HUNTERS HILL","NSW","2110","AU","False","",""
"SYD","SYD","HUNTINGWOOD","NSW","2148","AU","False","",""
"SYD","SYD","HUNTLEYS COVE","NSW","2111","AU","False","",""
"SYD","SYD","HUNTLEYS POINT","NSW","2111","AU","False","",""
"SYD","SYD","HURLSTONE PARK","NSW","2193","AU","False","",""
"SYD","SYD","HURSTVILLE","NSW","2220","AU","False","",""
"SYD","SYD","HURSTVILLE GROVE","NSW","2220","AU","False","",""
"SYD","SYD","HURSTVILLE WESTFIELD","NSW","2220","AU","False","",""
"SYD","SYD","ILLAWONG","NSW","2234","AU","False","",""
"SYD","SYD","INGLEBURN","NSW","2565","AU","False","",""
"SYD","SYD","INGLEBURN MILPO","NSW","2174","AU","False","",""
"SYD","SYD","INGLESIDE","NSW","2101","AU","False","",""
"SYD","SYD","JAMISONTOWN","NSW","2750","AU","False","",""
"SYD","SYD","JANNALI","NSW","2226","AU","False","",""
"SYD","SYD","KANGAROO POINT","NSW","2224","AU","False","",""
"SYD","SYD","KAREELA","NSW","2232","AU","False","",""
"SYD","SYD","KEARNS","NSW","2558","AU","False","",""
"SYD","SYD","KELLYVILLE","NSW","2155","AU","False","",""
"SYD","SYD","KELLYVILLE RIDGE","NSW","2155","AU","False","",""
"SYD","SYD","KEMPS CREEK","NSW","2178","AU","False","",""
"SYD","SYD","KENSINGTON","NSW","2033","AU","False","",""
"SYD","SYD","KENTHURST","NSW","2156","AU","False","",""
"SYD","SYD","KENTLYN","NSW","2560","AU","False","",""
"SYD","SYD","KILLARA","NSW","2071","AU","False","",""
"SYD","SYD","KILLARNEY HEIGHTS","NSW","2087","AU","False","",""
"SYD","SYD","KINGS LANGLEY","NSW","2147","AU","False","",""
"SYD","SYD","KINGS PARK","NSW","2148","AU","False","",""
"SYD","SYD","KINGSDENE","NSW","2118","AU","False","",""
"SYD","SYD","KINGSFORD","NSW","2032","AU","False","",""
"SYD","SYD","KINGSGROVE","NSW","2208","AU","False","",""
"SYD","SYD","KINGSWAY WEST","NSW","2208","AU","False","",""
"SYD","SYD","KINGSWOOD","NSW","2747","AU","False","",""
"SYD","SYD","KIRKHAM","NSW","2570","AU","False","",""
"SYD","SYD","KIRRAWEE","NSW","2232","AU","False","",""
"SYD","SYD","KIRRIBILLI","NSW","2061","AU","False","",""
"SYD","SYD","KOGARAH","NSW","2217","AU","False","",""
"SYD","SYD","KOGARAH BAY","NSW","2217","AU","False","",""
"SYD","SYD","KURNELL","NSW","2231","AU","False","",""
"SYD","SYD","KYEEMAGH","NSW","2216","AU","False","",""
"SYD","SYD","KYLE BAY","NSW","2221","AU","False","",""
"SYD","SYD","LA PEROUSE","NSW","2036","AU","False","",""
"SYD","SYD","LAKEMBA","NSW","2195","AU","False","",""
"SYD","SYD","LALOR PARK","NSW","2147","AU","False","",""
"SYD","SYD","LANE COVE","NSW","2066","AU","False","",""
"SYD","SYD","LANE COVE NORTH","NSW","2066","AU","False","",""
"SYD","SYD","LANE COVE WEST","NSW","2066","AU","False","",""
"SYD","SYD","LANSDOWNE","NSW","2163","AU","False","",""
"SYD","SYD","LANSVALE","NSW","2166","AU","False","",""
"SYD","SYD","LAVENDER BAY","NSW","2060","AU","False","",""
"SYD","SYD","LEICHHARDT","NSW","2040","AU","False","",""
"SYD","SYD","LEONAY","NSW","2750","AU","False","",""
"SYD","SYD","LEPPINGTON","NSW","2179","AU","False","",""
"SYD","SYD","LETHBRIDGE PARK","NSW","2770","AU","False","",""
"SYD","SYD","LEUMEAH","NSW","2560","AU","False","",""
"SYD","SYD","LEWISHAM","NSW","2049","AU","False","",""
"SYD","SYD","LIBERTY GROVE","NSW","2138","AU","False","",""
"SYD","SYD","LIDCOMBE","NSW","2141","AU","False","",""
"SYD","SYD","LIDCOMBE NORTH","NSW","2141","AU","False","",""
"SYD","SYD","LILLI PILLI","NSW","2229","AU","False","",""
"SYD","SYD","LILYFIELD","NSW","2040","AU","False","",""
"SYD","SYD","LINDFIELD","NSW","2070","AU","False","",""
"SYD","SYD","LINDFIELD WEST","NSW","2070","AU","False","",""
"SYD","SYD","LINLEY POINT","NSW","2066","AU","False","",""
"SYD","SYD","LITTLE BAY","NSW","2036","AU","False","",""
"SYD","SYD","LIVERPOOL","NSW","2170","AU","False","",""
"SYD","SYD","LIVERPOOL SOUTH","NSW","2170","AU","False","",""
"SYD","SYD","LIVERPOOL WESTFIELD","NSW","2170","AU","False","",""
"SYD","SYD","LLANDILO","NSW","2747","AU","False","",""
"SYD","SYD","LOFTUS","NSW","2232","AU","False","",""
"SYD","SYD","LONG POINT","NSW","2564","AU","False","",""
"SYD","SYD","LONGUEVILLE","NSW","2066","AU","False","",""
"SYD","SYD","LOVETT BAY","NSW","2105","AU","False","",""
"SYD","SYD","LUCAS HEIGHTS","NSW","2234","AU","False","",""
"SYD","SYD","LUDDENHAM","NSW","2745","AU","False","",""
"SYD","SYD","LUGARNO","NSW","2210","AU","False","",""
"SYD","SYD","LURNEA","NSW","2170","AU","False","",""
"SYD","SYD","MACARTHUR SQUARE","NSW","2560","AU","False","",""
"SYD","SYD","MACQUARIE CENTRE","NSW","2113","AU","False","",""
"SYD","SYD","MACQUARIE FIELDS","NSW","2564","AU","False","",""
"SYD","SYD","MACQUARIE LINKS","NSW","2565","AU","False","",""
"SYD","SYD","MACQUARIE PARK","NSW","2113","AU","False","",""
"SYD","SYD","MACQUARIE UNIVERSITY","NSW","2109","AU","False","",""
"SYD","SYD","MAIANBAR","NSW","2230","AU","False","",""
"SYD","SYD","MALABAR","NSW","2036","AU","False","",""
"SYD","SYD","MANAHAN","NSW","2200","AU","False","",""
"SYD","SYD","MANLY","NSW","2095","AU","False","",""
"SYD","SYD","MANLY EAST","NSW","2095","AU","False","",""
"SYD","SYD","MANLY VALE","NSW","2093","AU","False","",""
"SYD","SYD","MARAYLYA","NSW","2765","AU","False","",""
"SYD","SYD","MARAYONG","NSW","2148","AU","False","",""
"SYD","SYD","MAROUBRA","NSW","2035","AU","False","",""
"SYD","SYD","MAROUBRA SOUTH","NSW","2035","AU","False","",""
"SYD","SYD","MARRICKVILLE","NSW","2204","AU","False","",""
"SYD","SYD","MARRICKVILLE METRO","NSW","2204","AU","False","",""
"SYD","SYD","MARRICKVILLE SOUTH","NSW","2204","AU","False","",""
"SYD","SYD","MARSDEN PARK","NSW","2765","AU","False","",""
"SYD","SYD","MARSFIELD","NSW","2122","AU","False","",""
"SYD","SYD","MASCOT","NSW","2020","AU","False","",""
"SYD","SYD","MATRAVILLE","NSW","2036","AU","False","",""
"SYD","SYD","MAYS HILL","NSW","2145","AU","False","",""
"SYD","SYD","MCMAHONS POINT","NSW","2060","AU","False","",""
"SYD","SYD","MEADOWBANK","NSW","2114","AU","False","",""
"SYD","SYD","MELROSE PARK","NSW","2114","AU","False","",""
"SYD","SYD","MENAI","NSW","2234","AU","False","",""
"SYD","SYD","MENAI CENTRAL","NSW","2234","AU","False","",""
"SYD","SYD","MENANGLE","NSW","2568","AU","False","",""
"SYD","SYD","MENANGLE PARK","NSW","2563","AU","False","",""
"SYD","SYD","MERRYLANDS","NSW","2160","AU","False","",""
"SYD","SYD","MERRYLANDS WEST","NSW","2160","AU","False","",""
"SYD","SYD","MIDDLE COVE","NSW","2068","AU","False","",""
"SYD","SYD","MIDDLE DURAL","NSW","2158","AU","False","",""
"SYD","SYD","MIDDLETON GRANGE","NSW","2171","AU","False","",""
"SYD","SYD","MILLER","NSW","2168","AU","False","",""
"SYD","SYD","MILLERS POINT","NSW","2000","AU","False","",""
"SYD","SYD","MILPERRA","NSW","2214","AU","False","",""
"SYD","SYD","MILSONS POINT","NSW","2061","AU","False","",""
"SYD","SYD","MINCHINBURY","NSW","2770","AU","False","",""
"SYD","SYD","MINTO","NSW","2566","AU","False","",""
"SYD","SYD","MINTO DC","NSW","2566","AU","False","",""
"SYD","SYD","MINTO HEIGHTS","NSW","2566","AU","False","",""
"SYD","SYD","MIRANDA","NSW","2228","AU","False","",""
"SYD","SYD","MISSENDEN ROAD","NSW","2050","AU","False","",""
"SYD","SYD","MONA VALE","NSW","2103","AU","False","",""
"SYD","SYD","MONASH PARK","NSW","2111","AU","False","",""
"SYD","SYD","MONTEREY","NSW","2217","AU","False","",""
"SYD","SYD","MOORE PARK","NSW","2021","AU","False","",""
"SYD","SYD","MOOREBANK","NSW","2170","AU","False","",""
"SYD","SYD","MORNING BAY","NSW","2108","AU","False","",""
"SYD","SYD","MORTDALE","NSW","2223","AU","False","",""
"SYD","SYD","MORTLAKE","NSW","2137","AU","False","",""
"SYD","SYD","MOSMAN","NSW","2088","AU","False","",""
"SYD","SYD","MOUNT ANNAN","NSW","2567","AU","False","",""
"SYD","SYD","MOUNT COLAH","NSW","2079","AU","False","",""
"SYD","SYD","MOUNT DRUITT","NSW","2770","AU","False","",""
"SYD","SYD","MOUNT DRUITT VILLAGE","NSW","2770","AU","False","",""
"SYD","SYD","MOUNT HUNTER","NSW","2570","AU","False","",""
"SYD","SYD","MOUNT KURING GAI","NSW","2080","AU","False","",""
"SYD","SYD","MOUNT LEWIS","NSW","2190","AU","False","",""
"SYD","SYD","MOUNT LEWIS","NSW","2200","AU","False","",""
"SYD","SYD","MOUNT PRITCHARD","NSW","2170","AU","False","",""
"SYD","SYD","MOUNT VERNON","NSW","2178","AU","False","",""
"SYD","SYD","MULGOA","NSW","2745","AU","False","",""
"SYD","SYD","MULGRAVE","NSW","2756","AU","False","",""
"SYD","SYD","NARELLAN","NSW","2567","AU","False","",""
"SYD","SYD","NARELLAN DC","NSW","2567","AU","False","",""
"SYD","SYD","NARELLAN VALE","NSW","2567","AU","False","",""
"SYD","SYD","NAREMBURN","NSW","2065","AU","False","",""
"SYD","SYD","NARRABEEN","NSW","2101","AU","False","",""
"SYD","SYD","NARRAWEENA","NSW","2099","AU","False","",""
"SYD","SYD","NARWEE","NSW","2209","AU","False","",""
"SYD","SYD","NATTAI","NSW","2570","AU","False","",""
"SYD","SYD","NELSON","NSW","2765","AU","False","",""
"SYD","SYD","NEUTRAL BAY","NSW","2089","AU","False","",""
"SYD","SYD","NEUTRAL BAY JUNCTION","NSW","2089","AU","False","",""
"SYD","SYD","NEWINGTON","NSW","2127","AU","False","",""
"SYD","SYD","NEWPORT","NSW","2106","AU","False","",""
"SYD","SYD","NEWPORT BEACH","NSW","2106","AU","False","",""
"SYD","SYD","NEWTOWN","NSW","2042","AU","False","",""
"SYD","SYD","NORMANHURST","NSW","2076","AU","False","",""
"SYD","SYD","NORTH BALGOWLAH","NSW","2093","AU","False","",""
"SYD","SYD","NORTH BONDI","NSW","2026","AU","False","",""
"SYD","SYD","NORTH CURL CURL","NSW","2099","AU","False","",""
"SYD","SYD","NORTH EPPING","NSW","2121","AU","False","",""
"SYD","SYD","NORTH MANLY","NSW","2100","AU","False","",""
"SYD","SYD","NORTH NARRABEEN","NSW","2101","AU","False","",""
"SYD","SYD","NORTH PARRAMATTA","NSW","2151","AU","False","",""
"SYD","SYD","NORTH RICHMOND","NSW","2754","AU","False","",""
"SYD","SYD","NORTH ROCKS","NSW","2151","AU","False","",""
"SYD","SYD","NORTH RYDE","NSW","2113","AU","False","",""
"SYD","SYD","NORTH ST MARYS","NSW","2760","AU","False","",""
"SYD","SYD","NORTH STRATHFIELD","NSW","2137","AU","False","",""
"SYD","SYD","NORTH SYDNEY","NSW","2055","AU","False","",""
"SYD","SYD","NORTH SYDNEY","NSW","2059","AU","False","",""
"SYD","SYD","NORTH SYDNEY","NSW","2060","AU","False","",""
"SYD","SYD","NORTH SYDNEY SHOPPINGWORLD","NSW","2060","AU","False","",""
"SYD","SYD","NORTH TURRAMURRA","NSW","2074","AU","False","",""
"SYD","SYD","NORTH WAHROONGA","NSW","2076","AU","False","",""
"SYD","SYD","NORTH WILLOUGHBY","NSW","2068","AU","False","",""
"SYD","SYD","NORTHBRIDGE","NSW","2063","AU","False","",""
"SYD","SYD","NORTHERN SUBURBS MC","NSW","2058","AU","False","",""
"SYD","SYD","NORTHMEAD","NSW","2152","AU","False","",""
"SYD","SYD","NORTHWOOD","NSW","2066","AU","False","",""
"SYD","SYD","OAKDALE","NSW","2570","AU","False","",""
"SYD","SYD","OAKHURST","NSW","2761","AU","False","",""
"SYD","SYD","OAKVILLE","NSW","2765","AU","False","",""
"SYD","SYD","OATLANDS","NSW","2117","AU","False","",""
"SYD","SYD","OATLEY","NSW","2223","AU","False","",""
"SYD","SYD","OLD GUILDFORD","NSW","2161","AU","False","",""
"SYD","SYD","OLD TOONGABBIE","NSW","2146","AU","False","",""
"SYD","SYD","ORAN PARK","NSW","2570","AU","False","",""
"SYD","SYD","ORANGEVILLE","NSW","2570","AU","False","",""
"SYD","SYD","ORCHARD HILLS","NSW","2748","AU","False","",""
"SYD","SYD","OXFORD FALLS","NSW","2100","AU","False","",""
"SYD","SYD","OXLEY PARK","NSW","2760","AU","False","",""
"SYD","SYD","OYSTER BAY","NSW","2225","AU","False","",""
"SYD","SYD","PADDINGTON","NSW","2021","AU","False","",""
"SYD","SYD","PADSTOW","NSW","2211","AU","False","",""
"SYD","SYD","PADSTOW HEIGHTS","NSW","2211","AU","False","",""
"SYD","SYD","PAGEWOOD","NSW","2035","AU","False","",""
"SYD","SYD","PALM BEACH","NSW","2108","AU","False","",""
"SYD","SYD","PANANIA","NSW","2213","AU","False","",""
"SYD","SYD","PARADISE BEACH","NSW","2107","AU","False","",""
"SYD","SYD","PARKLEA","NSW","2768","AU","False","",""
"SYD","SYD","PARLIAMENT HOUSE","NSW","2000","AU","False","",""
"SYD","SYD","PARRAMATTA","NSW","2123","AU","False","",""
"SYD","SYD","PARRAMATTA","NSW","2124","AU","False","",""
"SYD","SYD","PARRAMATTA","NSW","2150","AU","False","",""
"SYD","SYD","PARRAMATTA WESTFIELD","NSW","2150","AU","False","",""
"SYD","SYD","PEAKHURST","NSW","2210","AU","False","",""
"SYD","SYD","PEAKHURST HEIGHTS","NSW","2210","AU","False","",""
"SYD","SYD","PEMULWUY","NSW","2145","AU","False","",""
"SYD","SYD","PENDLE HILL","NSW","2145","AU","False","",""
"SYD","SYD","PENNANT HILLS","NSW","2120","AU","False","",""
"SYD","SYD","PENRITH","NSW","2750","AU","False","",""
"SYD","SYD","PENRITH","NSW","2751","AU","False","",""
"SYD","SYD","PENRITH PLAZA","NSW","2750","AU","False","",""
"SYD","SYD","PENRITH SOUTH","NSW","2750","AU","False","",""
"SYD","SYD","PENSHURST","NSW","2222","AU","False","",""
"SYD","SYD","PETERSHAM","NSW","2049","AU","False","",""
"SYD","SYD","PETERSHAM NORTH","NSW","2049","AU","False","",""
"SYD","SYD","PHILLIP BAY","NSW","2036","AU","False","",""
"SYD","SYD","PICNIC POINT","NSW","2213","AU","False","",""
"SYD","SYD","PLEASURE POINT","NSW","2172","AU","False","",""
"SYD","SYD","PLUMPTON","NSW","2761","AU","False","",""
"SYD","SYD","POINT PIPER","NSW","2027","AU","False","",""
"SYD","SYD","PORT BOTANY","NSW","2036","AU","False","",""
"SYD","SYD","PORT HACKING","NSW","2229","AU","False","",""
"SYD","SYD","POTTS HILL","NSW","2143","AU","False","",""
"SYD","SYD","POTTS POINT","NSW","2011","AU","False","",""
"SYD","SYD","PRAIRIEWOOD","NSW","2176","AU","False","",""
"SYD","SYD","PRESTONS","NSW","2170","AU","False","",""
"SYD","SYD","PROSPECT","NSW","2148","AU","False","",""
"SYD","SYD","PUNCHBOWL","NSW","2196","AU","False","",""
"SYD","SYD","PUTNEY","NSW","2112","AU","False","",""
"SYD","SYD","PYMBLE","NSW","2073","AU","False","",""
"SYD","SYD","PYRMONT","NSW","2009","AU","False","",""
"SYD","SYD","QUAKERS HILL","NSW","2763","AU","False","",""
"SYD","SYD","QUEENS PARK","NSW","2022","AU","False","",""
"SYD","SYD","QUEENSCLIFF","NSW","2096","AU","False","",""
"SYD","SYD","RABY","NSW","2566","AU","False","",""
"SYD","SYD","RAMSGATE","NSW","2217","AU","False","",""
"SYD","SYD","RAMSGATE BEACH","NSW","2217","AU","False","",""
"SYD","SYD","RANDWICK","NSW","2031","AU","False","",""
"SYD","SYD","REDFERN","NSW","2016","AU","False","",""
"SYD","SYD","REGENTS PARK","NSW","2143","AU","False","",""
"SYD","SYD","REGENTVILLE","NSW","2745","AU","False","",""
"SYD","SYD","REVESBY","NSW","2212","AU","False","",""
"SYD","SYD","REVESBY HEIGHTS","NSW","2212","AU","False","",""
"SYD","SYD","REVESBY NORTH","NSW","2212","AU","False","",""
"SYD","SYD","RHODES","NSW","2138","AU","False","",""
"SYD","SYD","RICHMOND RAAF","NSW","2755","AU","False","",""
"SYD","SYD","RIVERSTONE","NSW","2765","AU","False","",""
"SYD","SYD","RIVERVIEW","NSW","2066","AU","False","",""
"SYD","SYD","RIVERWOOD","NSW","2210","AU","False","",""
"SYD","SYD","ROCKDALE","NSW","2216","AU","False","",""
"SYD","SYD","RODD POINT","NSW","2046","AU","False","",""
"SYD","SYD","ROOKWOOD","NSW","2141","AU","False","",""
"SYD","SYD","ROOTY HILL","NSW","2766","AU","False","",""
"SYD","SYD","ROPES CROSSING","NSW","2760","AU","False","",""
"SYD","SYD","ROSE BAY","NSW","2029","AU","False","",""
"SYD","SYD","ROSE BAY NORTH","NSW","2030","AU","False","",""
"SYD","SYD","ROSEBERY","NSW","2018","AU","False","",""
"SYD","SYD","ROSEHILL","NSW","2142","AU","False","",""
"SYD","SYD","ROSELANDS","NSW","2196","AU","False","",""
"SYD","SYD","ROSEMEADOW","NSW","2560","AU","False","",""
"SYD","SYD","ROSEVILLE","NSW","2069","AU","False","",""
"SYD","SYD","ROSEVILLE CHASE","NSW","2069","AU","False","",""
"SYD","SYD","ROSSMORE","NSW","2557","AU","False","",""
"SYD","SYD","ROUND CORNER","NSW","2158","AU","False","",""
"SYD","SYD","ROUSE HILL","NSW","2155","AU","False","",""
"SYD","SYD","ROYAL NORTH SHORE HOSPITAL","NSW","2065","AU","False","",""
"SYD","SYD","ROZELLE","NSW","2039","AU","False","",""
"SYD","SYD","RUSE","NSW","2560","AU","False","",""
"SYD","SYD","RUSHCUTTERS BAY","NSW","2011","AU","False","",""
"SYD","SYD","RUSSELL LEA","NSW","2046","AU","False","",""
"SYD","SYD","RYDALMERE","NSW","2116","AU","False","",""
"SYD","SYD","RYDE","NSW","2112","AU","False","",""
"SYD","SYD","SADLEIR","NSW","2168","AU","False","",""
"SYD","SYD","SANDRINGHAM","NSW","2219","AU","False","",""
"SYD","SYD","SANDY POINT","NSW","2172","AU","False","",""
"SYD","SYD","SANS SOUCI","NSW","2219","AU","False","",""
"SYD","SYD","SCHOFIELDS","NSW","2762","AU","False","",""
"SYD","SYD","SEAFORTH","NSW","2092","AU","False","",""
"SYD","SYD","SEFTON","NSW","2162","AU","False","",""
"SYD","SYD","SEVEN HILLS","NSW","2147","AU","False","",""
"SYD","SYD","SEVEN HILLS WEST","NSW","2147","AU","False","",""
"SYD","SYD","SHALVEY","NSW","2770","AU","False","",""
"SYD","SYD","SHANES PARK","NSW","2747","AU","False","",""
"SYD","SYD","SILVERWATER","NSW","2128","AU","False","",""
"SYD","SYD","SMEATON GRANGE","NSW","2567","AU","False","",""
"SYD","SYD","SMITHFIELD","NSW","2164","AU","False","",""
"SYD","SYD","SMITHFIELD WEST","NSW","2164","AU","False","",""
"SYD","SYD","SOUTH COOGEE","NSW","2034","AU","False","",""
"SYD","SYD","SOUTH GRANVILLE","NSW","2142","AU","False","",""
"SYD","SYD","SOUTH HURSTVILLE","NSW","2221","AU","False","",""
"SYD","SYD","SOUTH PENRITH","NSW","2750","AU","False","",""
"SYD","SYD","SOUTH TURRAMURRA","NSW","2074","AU","False","",""
"SYD","SYD","SOUTH WENTWORTHVILLE","NSW","2145","AU","False","",""
"SYD","SYD","SOUTH WINDSOR","NSW","2756","AU","False","",""
"SYD","SYD","SPIT JUNCTION","NSW","2088","AU","False","",""
"SYD","SYD","SPRING FARM","NSW","2570","AU","False","",""
"SYD","SYD","ST ANDREWS","NSW","2566","AU","False","",""
"SYD","SYD","ST CLAIR","NSW","2759","AU","False","",""
"SYD","SYD","ST HELENS PARK","NSW","2560","AU","False","",""
"SYD","SYD","ST IVES","NSW","2075","AU","False","",""
"SYD","SYD","ST IVES CHASE","NSW","2075","AU","False","",""
"SYD","SYD","ST JOHNS PARK","NSW","2176","AU","False","",""
"SYD","SYD","ST LEONARDS","NSW","2065","AU","False","",""
"SYD","SYD","ST MARYS","NSW","2760","AU","False","",""
"SYD","SYD","ST MARYS EAST","NSW","2760","AU","False","",""
"SYD","SYD","ST MARYS SOUTH","NSW","2760","AU","False","",""
"SYD","SYD","ST PAULS","NSW","2031","AU","False","",""
"SYD","SYD","ST PETERS","NSW","2044","AU","False","",""
"SYD","SYD","STANHOPE GARDENS","NSW","2768","AU","False","",""
"SYD","SYD","STANMORE","NSW","2048","AU","False","",""
"SYD","SYD","STRATHFIELD","NSW","2135","AU","False","",""
"SYD","SYD","STRATHFIELD SOUTH","NSW","2136","AU","False","",""
"SYD","SYD","STRAWBERRY HILLS","NSW","2012","AU","False","",""
"SYD","SYD","STRAWBERRY HILLS","NSW","2013","AU","False","",""
"SYD","SYD","SUMMER HILL","NSW","2130","AU","False","",""
"SYD","SYD","SURRY HILLS","NSW","2010","AU","False","",""
"SYD","SYD","SUTHERLAND","NSW","2232","AU","False","",""
"SYD","SYD","SYDENHAM","NSW","2044","AU","False","",""
"SYD","SYD","SYDNEY","NSW","2000","AU","False","",""
"SYD","SYD","SYDNEY","NSW","2001","AU","False","",""
"SYD","SYD","SYDNEY DOMESTIC AIRPORT","NSW","2020","AU","False","",""
"SYD","SYD","SYDNEY INTERNATIONAL AIRPORT","NSW","2020","AU","False","",""
"SYD","SYD","SYDNEY MARKETS","NSW","2129","AU","False","",""
"SYD","SYD","SYDNEY SOUTH","NSW","2000","AU","False","",""
"SYD","SYD","SYLVANIA","NSW","2224","AU","False","",""
"SYD","SYD","SYLVANIA SOUTHGATE","NSW","2224","AU","False","",""
"SYD","SYD","SYLVANIA WATERS","NSW","2224","AU","False","",""
"SYD","SYD","TAMARAMA","NSW","2026","AU","False","",""
"SYD","SYD","TAREN POINT","NSW","2229","AU","False","",""
"SYD","SYD","TAYLORS POINT","NSW","2107","AU","False","",""
"SYD","SYD","TELOPEA","NSW","2117","AU","False","",""
"SYD","SYD","TEMPE","NSW","2044","AU","False","",""
"SYD","SYD","TENNYSON","NSW","2754","AU","False","",""
"SYD","SYD","TENNYSON POINT","NSW","2111","AU","False","",""
"SYD","SYD","TERREY HILLS","NSW","2084","AU","False","",""
"SYD","SYD","THE BASIN","NSW","2108","AU","False","",""
"SYD","SYD","THE OAKS","NSW","2570","AU","False","",""
"SYD","SYD","THE ROCKS","NSW","2000","AU","False","",""
"SYD","SYD","THE SLOPES","NSW","2754","AU","False","",""
"SYD","SYD","THE UNIVERSITY OF SYDNEY","NSW","2006","AU","False","",""
"SYD","SYD","THERESA PARK","NSW","2570","AU","False","",""
"SYD","SYD","THORNLEIGH","NSW","2120","AU","False","",""
"SYD","SYD","TOONGABBIE","NSW","2146","AU","False","",""
"SYD","SYD","TOONGABBIE EAST","NSW","2146","AU","False","",""
"SYD","SYD","TREGEAR","NSW","2770","AU","False","",""
"SYD","SYD","TURRAMURRA","NSW","2074","AU","False","",""
"SYD","SYD","TURRELLA","NSW","2205","AU","False","",""
"SYD","SYD","ULTIMO","NSW","2007","AU","False","",""
"SYD","SYD","UNSW SYDNEY","NSW","2052","AU","False","",""
"SYD","SYD","VARROVILLE","NSW","2566","AU","False","",""
"SYD","SYD","VAUCLUSE","NSW","2030","AU","False","",""
"SYD","SYD","VILLAWOOD","NSW","2163","AU","False","",""
"SYD","SYD","VINEYARD","NSW","2765","AU","False","",""
"SYD","SYD","VOYAGER POINT","NSW","2172","AU","False","",""
"SYD","SYD","WAHROONGA","NSW","2076","AU","False","",""
"SYD","SYD","WAITARA","NSW","2077","AU","False","",""
"SYD","SYD","WAKELEY","NSW","2176","AU","False","",""
"SYD","SYD","WALLACIA","NSW","2745","AU","False","",""
"SYD","SYD","WAREEMBA","NSW","2046","AU","False","",""
"SYD","SYD","WARRAWEE","NSW","2074","AU","False","",""
"SYD","SYD","WARRIEWOOD","NSW","2102","AU","False","",""
"SYD","SYD","WARRIEWOOD SHOPPING SQUARE","NSW","2102","AU","False","",""
"SYD","SYD","WARRINGAH MALL","NSW","2100","AU","False","",""
"SYD","SYD","WARUMBUL","NSW","2229","AU","False","",""
"SYD","SYD","WARWICK FARM","NSW","2170","AU","False","",""
"SYD","SYD","WATERFALL","NSW","2233","AU","False","",""
"SYD","SYD","WATERLOO","NSW","2017","AU","False","",""
"SYD","SYD","WATSONS BAY","NSW","2030","AU","False","",""
"SYD","SYD","WATTLE GROVE","NSW","2173","AU","False","",""
"SYD","SYD","WAVERLEY","NSW","2024","AU","False","",""
"SYD","SYD","WAVERTON","NSW","2060","AU","False","",""
"SYD","SYD","WEDDERBURN","NSW","2560","AU","False","",""
"SYD","SYD","WENTWORTH POINT","NSW","2127","AU","False","",""
"SYD","SYD","WENTWORTHVILLE","NSW","2145","AU","False","",""
"SYD","SYD","WEROMBI","NSW","2570","AU","False","",""
"SYD","SYD","WERRINGTON","NSW","2747","AU","False","",""
"SYD","SYD","WERRINGTON COUNTY","NSW","2747","AU","False","",""
"SYD","SYD","WERRINGTON DOWNS","NSW","2747","AU","False","",""
"SYD","SYD","WEST HOXTON","NSW","2171","AU","False","",""
"SYD","SYD","WEST PENNANT HILLS","NSW","2125","AU","False","",""
"SYD","SYD","WEST PYMBLE","NSW","2073","AU","False","",""
"SYD","SYD","WEST RYDE","NSW","2114","AU","False","",""
"SYD","SYD","WESTGATE","NSW","2048","AU","False","",""
"SYD","SYD","WESTLEIGH","NSW","2120","AU","False","",""
"SYD","SYD","WESTMEAD","NSW","2145","AU","False","",""
"SYD","SYD","WETHERILL PARK","NSW","2164","AU","False","",""
"SYD","SYD","WHALAN","NSW","2770","AU","False","",""
"SYD","SYD","WHALE BEACH","NSW","2107","AU","False","",""
"SYD","SYD","WHEELER HEIGHTS","NSW","2097","AU","False","",""
"SYD","SYD","WILEY PARK","NSW","2195","AU","False","",""
"SYD","SYD","WILLMOT","NSW","2770","AU","False","",""
"SYD","SYD","WILLOUGHBY","NSW","2068","AU","False","",""
"SYD","SYD","WILLOUGHBY EAST","NSW","2068","AU","False","",""
"SYD","SYD","WILLOUGHBY NORTH","NSW","2068","AU","False","",""
"SYD","SYD","WINDSOR","NSW","2756","AU","False","",""
"SYD","SYD","WINDSOR DOWNS","NSW","2756","AU","False","",""
"SYD","SYD","WINSTON HILLS","NSW","2153","AU","False","",""
"SYD","SYD","WOLLI CREEK","NSW","2205","AU","False","",""
"SYD","SYD","WOLLSTONECRAFT","NSW","2065","AU","False","",""
"SYD","SYD","WOODBINE","NSW","2560","AU","False","",""
"SYD","SYD","WOODCROFT","NSW","2767","AU","False","",""
"SYD","SYD","WOODPARK","NSW","2164","AU","False","",""
"SYD","SYD","WOOLLAHRA","NSW","2025","AU","False","",""
"SYD","SYD","WOOLLOOMOOLOO","NSW","2011","AU","False","",""
"SYD","SYD","WOOLOOWARE","NSW","2230","AU","False","",""
"SYD","SYD","WOOLWICH","NSW","2110","AU","False","",""
"SYD","SYD","WORLD SQUARE","NSW","2002","AU","False","",""
"SYD","SYD","WORONORA","NSW","2232","AU","False","",""
"SYD","SYD","WORONORA HEIGHTS","NSW","2233","AU","False","",""
"SYD","SYD","YAGOONA","NSW","2199","AU","False","",""
"SYD","SYD","YAGOONA WEST","NSW","2199","AU","False","",""
"SYD","SYD","YARRAWARRAH","NSW","2233","AU","False","",""
"SYD","SYD","YENNORA","NSW","2161","AU","False","",""
"SYD","SYD","YOWIE BAY","NSW","2228","AU","False","",""
"SYD","SYD","ZETLAND","NSW","2017","AU","False","",""
